{"type":"FeatureCollection","kind":"national-libraries","label_th":"หอสมุดแห่งชาติ","label_en":"National Libraries (Fine Arts Dept.)","source":"data.go.th · gis_fad003","source_url":"https://data.go.th/dataset/gis_fad003","bbox":[100.2,13.4,101.0,14.2],"features":[{"type":"Feature","geometry":{"type":"Point","coordinates":[100.50524217165616,13.772725564088434]},"properties":{"id":"national-libraries:12","kind":"national-libraries","name_th":"สำนักหอสมุดแห่งชาติ","name_en":null,"address":"ถนนสามเสน","sub_district":"วชิรพยาบาล","district":"ดุสิต","province":"กรุงเทพมหานคร","postal_code":"10300","source":"data.go.th · gis_fad003","source_url":"https://data.go.th/dataset/gis_fad003"}},{"type":"Feature","geometry":{"type":"Point","coordinates":[100.50442592896306,13.771566932076539]},"properties":{"id":"national-libraries:13","kind":"national-libraries","name_th":"หอสมุดดนตรีพระบาทสมเด็จพระเจ้าอยู่หัว รัชกาลที่ 9 และห้องสมุดดนตรีทูลกระหม่อมสิรินธร","name_en":null,"address":"ถนนสามเสน","sub_district":"วชิรพยาบาล","district":"ดุสิต","province":"กรุงเทพมหานคร","postal_code":"10300","source":"data.go.th · gis_fad003","source_url":"https://data.go.th/dataset/gis_fad003"}},{"type":"Feature","geometry":{"type":"Point","coordinates":[100.786208883078,13.728184258885703]},"properties":{"id":"national-libraries:15","kind":"national-libraries","name_th":"หอสมุดแห่งชาติเขตลาดกระบัง เฉลิมพระเกียรติ","name_en":null,"address":"เลขที่ 280/8 หมู่ 2 ถนนหลวงพรตพิทยพยัต","sub_district":"ลาดกระบัง","district":"ลาดกระบัง","province":"กรุงเทพมหานคร","postal_code":"10520","source":"data.go.th · gis_fad003","source_url":"https://data.go.th/dataset/gis_fad003"}}]}