{"type":"FeatureCollection","kind":"national-museums","label_th":"พิพิธภัณฑสถานแห่งชาติ","label_en":"National Museums (Fine Arts Dept.)","source":"data.go.th · gis_fad005","source_url":"https://data.go.th/dataset/gis_fad005","bbox":[100.2,13.4,101.0,14.2],"features":[{"type":"Feature","geometry":{"type":"Point","coordinates":[100.5143527,13.77355474]},"properties":{"id":"national-museum:7","kind":"national-museum","name_th":"พิพิธภัณฑสถานแห่งชาติ ช้างต้น","name_en":null,"museum_type":"พิพิธภัณฑสถานแห่งชาติ","museum_branch":"พิพิธภัณฑ์เฉพาะเรื่อง","is_ancient_site":"-","address":"ตั้งอยู่บริเวณข้างรัฐสภา ถนนอู่ทองใน","sub_district":"ดุสิต","district":"ดุสิต","province":"กรุงเทพมหานคร","postal_code":null,"source":"data.go.th · gis_fad005","source_url":"https://data.go.th/dataset/gis_fad005"}},{"type":"Feature","geometry":{"type":"Point","coordinates":[100.4925089,13.75759797]},"properties":{"id":"national-museum:19","kind":"national-museum","name_th":"พิพิธภัณฑ์สถานแห่งชาติ พระนคร","name_en":null,"museum_type":"พิพิธภัณฑสถานแห่งชาติ","museum_branch":"ศิลปะ/ประวัติศาสตร์ศิลปะ","is_ancient_site":"-","address":"เลขที่ 4 ถนนหน้าพระธาตุ","sub_district":"พระบรมมหาราชวัง","district":"พระนคร","province":"กรุงเทพมหานคร","postal_code":null,"source":"data.go.th · gis_fad005","source_url":"https://data.go.th/dataset/gis_fad005"}},{"type":"Feature","geometry":{"type":"Point","coordinates":[100.4844814,13.76190404]},"properties":{"id":"national-museum:28","kind":"national-museum","name_th":"พิพิธภัณฑสถานแห่งชาติ เรือพระราชพิธี","name_en":null,"museum_type":"พิพิธภัณฑสถานแห่งชาติ","museum_branch":"พิพิธภัณฑ์เฉพาะเรื่อง","is_ancient_site":"-","address":"ปากคลองบางกอกน้อย","sub_district":"อรุณอัมรินทร์","district":"บางกอกน้อย","province":"กรุงเทพมหานคร","postal_code":null,"source":"data.go.th · gis_fad005","source_url":"https://data.go.th/dataset/gis_fad005"}},{"type":"Feature","geometry":{"type":"Point","coordinates":[100.5138823,13.76657022]},"properties":{"id":"national-museum:29","kind":"national-museum","name_th":"พิพิธภัณฑสถานแห่งชาติ วัดเบญจมบพิตร","name_en":null,"museum_type":"พิพิธภัณฑสถานแห่งชาติ","museum_branch":"ศิลปะ/ประวัติศาสตร์ศิลปะ","is_ancient_site":"-","address":"วัดเบญจมบพิตร เลขที่ 69 ถนนพระราม 5","sub_district":"สวนจิตรลดา","district":"ดุสิต","province":"กรุงเทพมหานคร","postal_code":null,"source":"data.go.th · gis_fad005","source_url":"https://data.go.th/dataset/gis_fad005"}},{"type":"Feature","geometry":{"type":"Point","coordinates":[100.49101674853748,13.752698580762589]},"properties":{"id":"national-museum:31","kind":"national-museum","name_th":"พิพิธภัณฑสถานแห่งชาติ ศิลป์พีระศรี อนุสรณ์","name_en":null,"museum_type":"พิพิธภัณฑสถานแห่งชาติ","museum_branch":"ศิลปะ/ประวัติศาสตร์ศิลปะ","is_ancient_site":"-","address":"บริเวณกรมศิลปากร ถนนหน้าพระธาตุ","sub_district":"พระบรมมหาราชวัง","district":"พระนคร","province":"กรุงเทพมหานคร","postal_code":null,"source":"data.go.th · gis_fad005","source_url":"https://data.go.th/dataset/gis_fad005"}},{"type":"Feature","geometry":{"type":"Point","coordinates":[100.4937841,13.75890096]},"properties":{"id":"national-museum:39","kind":"national-museum","name_th":"พิพิธภัณฑสถานแห่งชาติ หอศิลป","name_en":null,"museum_type":"พิพิธภัณฑสถานแห่งชาติ","museum_branch":"ศิลปะ/ประวัติศาสตร์ศิลปะ","is_ancient_site":"-","address":"เลขที่ 4 ถนนเจ้าฟ้า","sub_district":"ชนะสงคราม","district":"พระนคร","province":"กรุงเทพมหานคร","postal_code":"10200","source":"data.go.th · gis_fad005","source_url":"https://data.go.th/dataset/gis_fad005"}}]}