{"type":"FeatureCollection","kind":"national-archives","label_th":"หอจดหมายเหตุแห่งชาติ","label_en":"National Archives (Fine Arts Dept.)","source":"data.go.th · gis_fad004","source_url":"https://data.go.th/dataset/gis_fad004","bbox":[100.2,13.4,101.0,14.2],"features":[{"type":"Feature","geometry":{"type":"Point","coordinates":[100.5045054162149,13.773209137208136]},"properties":{"id":"national-archives:10","kind":"national-archives","name_th":"สำนักหอจดหมายเหตุแห่งชาติ","name_en":null,"address":"ถนนสามเสน ท่าวาสุกรี","sub_district":"วชิรพยาบาล","district":"ดุสิต","province":"กรุงเทพมหานคร","postal_code":"10300","source":"data.go.th · gis_fad004","source_url":"https://data.go.th/dataset/gis_fad004"}}]}