{"type":"FeatureCollection","kind":"oldtown","label_th":"คัดเอง · ย่านเมืองเก่า","label_en":"Bangkok rowhouse atlas (BKKx-curated)","source":"BKKx rowhouse atlas — see source per feature","source_url":"https://bkk.nonarkara.org/heritage-atlas","bbox":[100.2,13.4,101,14.2],"features":[{"type":"Feature","geometry":{"type":"Point","coordinates":[100.490342,13.752407]},"properties":{"id":"oldtown:na-phra-lan","kind":"oldtown","name_th":"Na Phra Lan shophouses","name_en":null,"address":null,"sub_district":null,"district":null,"province":"กรุงเทพมหานคร","callout":"Conservation without an empty museum street","calloutTh":"อนุรักษ์โดยไม่ทำให้ถนนกลายเป็นพิพิธภัณฑ์ร้าง","period":"Early 20th century","evidence":"registered","typology":"Continuous two-storey royal-frontage row","registerId":"UNESCO Asia-Pacific Award 2011","units":null,"explorerTip":"Walk the opposite pavement at opening time; the repeated bays read best before tour traffic fills the curb.","note":"The Grand Palace is the postcard. This disciplined, tenant-occupied edge is the city-making architecture. Its restoration kept the people and repaired the whole façade as one civic room.","noteTh":"พระบรมมหาราชวังคือภาพโปสการ์ด แต่ตึกแถวที่มีผู้เช่าอยู่นี้คือสถาปัตยกรรมที่สร้างเมือง การบูรณะรักษาทั้งคนและแนวอาคารไว้ด้วยกัน","photo":"na-phra-lan","source":"UNESCO Asia-Pacific Heritage Awards","source_url":"https://articles.unesco.org/sites/default/files/medias/fichiers/2023/06/2011-winners.pdf"}},{"type":"Feature","geometry":{"type":"Point","coordinates":[100.490557,13.746481]},"properties":{"id":"oldtown:tha-tien","kind":"oldtown","name_th":"Tha Tien market blocks","name_en":null,"address":null,"sub_district":null,"district":null,"province":"กรุงเทพมหานคร","callout":"490 units—urban heritage at district scale","calloutTh":"490 คูหา—มรดกในระดับย่าน","period":"Late 19th century onward","evidence":"published inventory","typology":"Market-and-pier shophouse ensemble","registerId":null,"units":490,"explorerTip":"Enter from Maha Rat, cross the market, then look back from the Wat Arun ferry queue.","note":"Not one building: 490 shop units, a market and a river landing working as a single urban instrument. The smell, wholesale trade and ferry rhythm are part of the heritage—not noise around it.","noteTh":"ไม่ใช่อาคารหลังเดียว แต่เป็นตึกแถว 490 คูหา ตลาด และท่าเรือที่ทำงานร่วมกัน กลิ่น การค้าส่ง และจังหวะเรือคือส่วนหนึ่งของมรดก","photo":"tha-tien","source":"Journal of Cultural Geography / Tha Tien study","source_url":"https://www.tandfonline.com/doi/abs/10.1080/08873631.2018.1506545"}},{"type":"Feature","geometry":{"type":"Point","coordinates":[100.489006,13.752377]},"properties":{"id":"oldtown:tha-chang","kind":"oldtown","name_th":"Tha Chang–Maha Rat frontage","name_en":null,"address":null,"sub_district":null,"district":null,"province":"กรุงเทพมหานคร","callout":"Palace edge, public life","calloutTh":"ขอบวังที่ยังเป็นพื้นที่ชีวิตสาธารณะ","period":"Rama V–VI era","evidence":"registered","typology":"Pier-facing masonry row","registerId":"FAD-68","units":null,"explorerTip":"Take the cross-river boat once. The row is easier to understand from the water than from the pavement.","note":"A working seam between palace wall, university, amulet trade and river pier. Heritage here is measured by how many different Bangkok lives can still share one short frontage.","noteTh":"รอยต่อที่ยังทำงานระหว่างกำแพงวัง มหาวิทยาลัย ตลาดพระ และท่าเรือ คุณค่าคือชีวิตกรุงเทพฯ หลายแบบที่ยังอยู่ร่วมกันบนแนวถนนสั้น ๆ","photo":"rattanakosin","source":"Fine Arts Department GIS register","source_url":"https://data.go.th/dataset/gis-finearts"}},{"type":"Feature","geometry":{"type":"Point","coordinates":[100.497415,13.751924]},"properties":{"id":"oldtown:sam-phraeng","kind":"oldtown","name_th":"Sam Phraeng","name_en":null,"address":null,"sub_district":null,"district":null,"province":"กรุงเทพมหานคร","callout":"119 units grown from three palaces","calloutTh":"119 คูหาที่เติบโตจากพื้นที่วังสามแห่ง","period":"Late 19th–early 20th century","evidence":"published inventory","typology":"Three palace-land shophouse enclaves","registerId":null,"units":119,"explorerTip":"Start at Phraeng Phuthon before breakfast, then cut through Phraeng Nara rather than circling the arterial roads.","note":"Three former palace compounds became 119 commercial units and a rare interior square. Bangkok did not copy a colonial port here; it converted royal land into a compact mercantile neighbourhood.","noteTh":"พื้นที่วังเดิมสามแห่งกลายเป็นตึกแถว 119 คูหาและลานภายในที่หาได้ยาก กรุงเทพฯ ไม่ได้ลอกเมืองท่าอาณานิคม แต่แปลงที่ดินวังเป็นย่านการค้า","photo":"sam-phraeng","source":"Nakhara: Evolving Urban Landscape of Sam Phraeng","source_url":"https://digital.car.chula.ac.th/nakhara/vol23/iss3/3/"}},{"type":"Feature","geometry":{"type":"Point","coordinates":[100.496599,13.751445]},"properties":{"id":"oldtown:bamrung-mueang","kind":"oldtown","name_th":"Bamrung Mueang–Giant Swing rows","name_en":null,"address":null,"sub_district":null,"district":null,"province":"กรุงเทพมหานคร","callout":"A street wall that makes the monument","calloutTh":"แนวถนนที่ทำให้อนุสาวรีย์มีพื้นที่","period":"Rama V era","evidence":"registered","typology":"Civic-axis corner and curved masonry rows","registerId":"FAD-5604 / FAD-5386","units":null,"explorerTip":"Look above the signs. The useful evidence is in parapets, bay widths and the corner turn.","note":"The curve does the work. These rows turn the Giant Swing from an object into a place, holding the street wall while temple, city hall and specialist shops face one another.","noteTh":"แนวโค้งคือหัวใจ ตึกแถวทำให้เสาชิงช้าไม่ใช่เพียงวัตถุ แต่เป็นสถานที่ เชื่อมวัด ศาลาว่าการ และร้านเฉพาะทางเข้าด้วยกัน","photo":"giant-swing","source":"Fine Arts Department GIS register","source_url":"https://data.go.th/dataset/gis-finearts"}},{"type":"Feature","geometry":{"type":"Point","coordinates":[100.5002,13.76012]},"properties":{"id":"oldtown:bowonniwet-temple-rows","kind":"oldtown","name_th":"Bowonniwet Temple rows","name_en":null,"address":null,"sub_district":null,"district":null,"province":"กรุงเทพมหานคร","callout":"The oldest surviving row is still an ordinary street","calloutTh":"ตึกแถวเก่าแก่ที่สุดยังคงเป็นถนนธรรมดาที่มีชีวิต","period":"1851–1868; later Rama V layers","evidence":"published inventory","typology":"L-shaped one- and two-storey temple-frontage row","registerId":null,"units":46,"explorerTip":"Begin on Phra Sumen Road, turn the corner into Dinso, and watch how the row changes height without breaking its street wall.","note":"Bangkok's oldest surviving Rattanakosin rowhouse group began as dwellings for Grand Palace officers, then learned to trade without losing its long civic edge. The corner rises, the ordinary bays repeat, and the temple street becomes a room rather than leftover traffic space.","noteTh":"กลุ่มตึกแถวที่เก่าแก่ที่สุดที่ยังเหลือในรัตนโกสินทร์ เริ่มจากที่พักข้าราชการพระบรมมหาราชวัง ก่อนปรับเป็นการค้าโดยยังรักษาแนวเมืองยาวไว้ ห้องหัวมุมยกสูง ห้องธรรมดาเรียงซ้ำ และถนนหน้าวัดกลายเป็นห้องของเมือง","photo":"phra-sumen-fort","source":"Journal of Architecture and Planning: Rattanakosin shophouse transformation","source_url":"https://www.jstage.jst.go.jp/article/aija/69/586/69_KJ00004229492/_article/-char/en"}},{"type":"Feature","geometry":{"type":"Point","coordinates":[100.49882,13.75641]},"properties":{"id":"oldtown:tanao-road-rows","kind":"oldtown","name_th":"Tanao Road rows","name_en":null,"address":null,"sub_district":null,"district":null,"province":"กรุงเทพมหานคร","callout":"One street stitches several old towns together","calloutTh":"ถนนเส้นเดียวเย็บเมืองเก่าหลายย่านเข้าด้วยกัน","period":"Rama V era","evidence":"registered","typology":"Long two-storey masonry street rows in three survey sections","registerId":null,"units":null,"explorerTip":"Walk south from the Bowonniwet corner and keep to one pavement; the changing shop signs reveal how much of the repeated upper façade survives.","note":"Tanao is the quiet north–south stitch of the old city. Its plain early rows do not compete with monuments; they connect Bowonniwet, Khok Wua, Sam Phraeng and the Giant Swing into one walkable sequence of trade, dwelling and worship.","noteTh":"ถนนตะนาวคือรอยเย็บเหนือ–ใต้ที่สงบของเมืองเก่า ตึกแถวเรียบง่ายไม่แข่งกับอนุสาวรีย์ แต่เชื่อมบวรนิเวศ คอกวัว สามแพร่ง และเสาชิงช้าเป็นลำดับการค้า ที่อยู่อาศัย และศรัทธาที่เดินถึงกัน","photo":"sam-phraeng","source":"ONEP Rattanakosin conservation building survey","source_url":"https://nced.onep.go.th/knowledge/E_BOOK_Publish_SURVEY.pdf"}},{"type":"Feature","geometry":{"type":"Point","coordinates":[100.49794,13.76049]},"properties":{"id":"oldtown:tani-road-rows","kind":"oldtown","name_th":"Tani Road rows","name_en":null,"address":null,"sub_district":null,"district":null,"province":"กรุงเทพมหานคร","callout":"Read behind the backpacker street","calloutTh":"อ่านเมืองเก่าที่ซ่อนหลังถนนนักเดินทาง","period":"Rama V–VI era","evidence":"registered","typology":"Short east–west lodging and market row","registerId":null,"units":null,"explorerTip":"Arrive before the evening crowd and compare the upper floors at both ends; this is a working street, not an isolated façade.","note":"Tani is easy to dismiss as Khao San's service edge. The official survey asks us to read it differently: as a surviving rowhouse street anchored by Woraphot Building, where small rooms, food and travel have shared a compact frontage for generations.","noteTh":"ถนนตานีถูกมองข้ามง่าย ๆ ว่าเป็นเพียงหลังบ้านของข้าวสาร แต่บัญชีสำรวจชวนให้อ่านใหม่ในฐานะถนนตึกแถวที่มีอาคารวรพจน์เป็นหมุด ห้องเล็ก อาหาร และการเดินทางใช้แนวหน้ากะทัดรัดร่วมกันมาหลายรุ่น","photo":"phra-sumen-fort","source":"ONEP Rattanakosin conservation building survey","source_url":"https://nced.onep.go.th/knowledge/E_BOOK_Publish_SURVEY.pdf"}},{"type":"Feature","geometry":{"type":"Point","coordinates":[100.5021,13.76163]},"properties":{"id":"oldtown:ban-phan-thom-rows","kind":"oldtown","name_th":"Ban Phan Thom rows","name_en":null,"address":null,"sub_district":null,"district":null,"province":"กรุงเทพมหานคร","callout":"The craft quarter begins where the avenue narrows","calloutTh":"ย่านช่างเริ่มตรงที่ถนนใหญ่หดเป็นตรอก","period":"Rama V era onward","evidence":"registered","typology":"Alley-and-arterial rows at a craft-community edge","registerId":null,"units":null,"explorerTip":"Turn off Phra Sumen into the smaller lanes; the cultural evidence sits in the change of scale, not in a single landmark.","note":"The official record catches the seam between a neighbourhood named for beaten-metal craft and the larger Phra Sumen road. Heritage here is not a decorative strip: it is the small lane, shop depth and domestic life that let a specialised community meet the city.","noteTh":"บัญชีทางการจับรอยต่อระหว่างชุมชนที่ตั้งชื่อตามงานตีโลหะกับถนนพระสุเมรุ มรดกที่นี่ไม่ใช่แถบตกแต่ง แต่คือตรอกเล็ก ความลึกร้าน และชีวิตหลังร้านที่ทำให้ชุมชนช่างพบกับเมือง","photo":"phra-sumen-fort","source":"ONEP Rattanakosin conservation building survey","source_url":"https://nced.onep.go.th/knowledge/E_BOOK_Publish_SURVEY.pdf"}},{"type":"Feature","geometry":{"type":"Point","coordinates":[100.49385,13.762323]},"properties":{"id":"oldtown:phra-athit-khao-hong","kind":"oldtown","name_th":"Phra Athit Khao Hong row","name_en":null,"address":null,"sub_district":null,"district":null,"province":"กรุงเทพมหานคร","callout":"Nine bays, one complete civic edge","calloutTh":"เก้าคูหา หนึ่งขอบเมืองที่สมบูรณ์","period":"Early 20th century","evidence":"published inventory","typology":"Nine-bay river-road shophouse row","registerId":null,"units":9,"explorerTip":"Pair it with the fort at dusk, then use the river path—not Khao San—as your exit.","note":"Only nine bays, but a complete urban sentence: fort, river road, shade trees, homes above trade. Small ensembles like this are where citywide databases usually fail.","noteTh":"เพียงเก้าคูหาแต่เป็นประโยคเมืองที่สมบูรณ์ ทั้งป้อม ถนนริมน้ำ ร่มไม้ บ้านเหนือร้านค้า กลุ่มเล็กเช่นนี้มักหายไปจากฐานข้อมูลระดับเมือง","photo":"phra-sumen-fort","source":"Journal of the Siam Society: Old Bangkok shophouses","source_url":"https://so06.tci-thaijo.org/index.php/pub_jss/article/view/158147"}},{"type":"Feature","geometry":{"type":"Point","coordinates":[100.50565,13.74446]},"properties":{"id":"oldtown:luenrit","kind":"oldtown","name_th":"Luenrit community","name_en":null,"address":null,"sub_district":null,"district":null,"province":"กรุงเทพมหานคร","callout":"The tenants saved the block","calloutTh":"ผู้เช่าคือคนที่รักษาทั้งบล็อก","period":"Early 20th century","evidence":"published inventory","typology":"Neoclassical Chinatown shophouse block","registerId":null,"units":null,"explorerTip":"Read the whole block before entering a café; the collective project matters more than any single tenancy.","note":"Tenants stopped demolition, organised, financed and reopened the restored block in 2022. This is Bangkok's strongest answer to the idea that conservation must arrive from outside the community.","noteTh":"ผู้เช่าหยุดการรื้อถอน รวมตัว หาเงิน และเปิดกลุ่มอาคารที่บูรณะแล้วอีกครั้งในปี 2565 นี่คือคำตอบว่าการอนุรักษ์ไม่จำเป็นต้องมาจากคนนอกชุมชน","photo":"yaowarat","source":"ICCROM Cultural Heritage for Inclusive Growth","source_url":"https://ch4igrowth.iccrom.org/case-studies/luenrit-community-conservation-and-rehabilitation-project"}},{"type":"Feature","geometry":{"type":"Point","coordinates":[100.51117,13.74298]},"properties":{"id":"oldtown:charoen-chai","kind":"oldtown","name_th":"Charoen Chai paper-goods quarter","name_en":null,"address":null,"sub_district":null,"district":null,"province":"กรุงเทพมหานคร","callout":"The archive is still a shop","calloutTh":"หอจดหมายเหตุที่ยังเป็นร้านค้า","period":"Late 19th–early 20th century","evidence":"mapped corridor","typology":"Ritual-goods shophouse community","registerId":null,"units":null,"explorerTip":"Ask before photographing interiors. Visit ahead of major Chinese festivals when the trade becomes legible.","note":"A living supply chain for Chinese ceremonies: paper offerings, calendars, printing, family memory. Its heritage is a network of knowledge held behind ordinary shutters—not a façade treatment.","noteTh":"ห่วงโซ่ความรู้สำหรับพิธีจีนที่ยังมีชีวิต ทั้งเครื่องกระดาษ ปฏิทิน งานพิมพ์ และความทรงจำครอบครัว คุณค่าอยู่หลังบานประตูธรรมดา ไม่ใช่แค่ผิวอาคาร","photo":"yaowarat","source":"Asian Journal of Environment-Behaviour Studies","source_url":"https://aje-bs.e-iph.co.uk/index.php/ajE-Bs/article/view/229"}},{"type":"Feature","geometry":{"type":"Point","coordinates":[100.505464,13.739495]},"properties":{"id":"oldtown:song-wat","kind":"oldtown","name_th":"Song Wat trade street","name_en":null,"address":null,"sub_district":null,"district":null,"province":"กรุงเทพมหานคร","callout":"Read the warehouses behind the cafés","calloutTh":"มองโกดังที่อยู่หลังคาเฟ่","period":"Road laid out in the 1890s","evidence":"registered","typology":"River-trade shophouse and warehouse corridor","registerId":"FAD-5646","units":null,"explorerTip":"Walk west to east in the morning. Notice where goods—not visitors—still set the rhythm.","note":"The new cafés are a thin layer. The street's real intelligence is its river-to-warehouse grain: narrow fronts, deep plots, loading alleys and families living over trade.","noteTh":"คาเฟ่ใหม่เป็นเพียงชั้นบาง ๆ หัวใจของถนนคือโครงสร้างจากแม่น้ำสู่โกดัง หน้าร้านแคบ แปลงลึก ตรอกขนของ และบ้านเหนือการค้า","photo":"songwad","source":"Fine Arts Department register + Bangkok cultural reporting","source_url":"https://data.go.th/dataset/gis-finearts"}},{"type":"Feature","geometry":{"type":"Point","coordinates":[100.507561,13.740495]},"properties":{"id":"oldtown:wanit-sampheng","kind":"oldtown","name_th":"Wanit 1–Sampheng fabric","name_en":null,"address":null,"sub_district":null,"district":null,"province":"กรุงเทพมหานคร","callout":"Bangkok density, before the tower","calloutTh":"ความหนาแน่นแบบกรุงเทพฯ ก่อนยุคตึกสูง","period":"19th century onward","evidence":"registered","typology":"Ultra-fine-grain wholesale shophouse rows","registerId":"FAD-5648","units":null,"explorerTip":"Go before 10am and turn into the narrowest passage that is clearly public; the main street hides the system.","note":"This is density before towers: tiny frontages, deep stock rooms, handcarts and upper-floor households. It works because the block is porous, not because the buildings are individually grand.","noteTh":"นี่คือความหนาแน่นก่อนยุคตึกสูง หน้าร้านเล็ก ห้องเก็บของลึก รถเข็น และบ้านชั้นบน พลังอยู่ที่บล็อกซึ่งเดินทะลุได้ ไม่ใช่ความยิ่งใหญ่ของอาคารเดี่ยว","photo":"yaowarat","source":"Fine Arts Department GIS register","source_url":"https://data.go.th/dataset/gis-finearts"}},{"type":"Feature","geometry":{"type":"Point","coordinates":[100.512967,13.733452]},"properties":{"id":"oldtown:talad-noi","kind":"oldtown","name_th":"Talad Noi back lanes","name_en":null,"address":null,"sub_district":null,"district":null,"province":"กรุงเทพมหานคร","callout":"Productive mess is the heritage","calloutTh":"ความยุ่งเหยิงที่ยังทำงานคือมรดก","period":"Early Chinese river settlement","evidence":"mapped corridor","typology":"Masonry-and-timber shophouse lanes","registerId":null,"units":null,"explorerTip":"Community tip: go before 9am or after 4pm; midday heat erases the slow details.","note":"Half masonry, half timber; shrines, repair shops, reused warehouses and homes sharing lanes too narrow for a curated masterplan. The district is valuable because productive mess survives beside new culture.","noteTh":"ครึ่งปูนครึ่งไม้ ศาลเจ้า ร้านซ่อม โกดังใช้ใหม่ และบ้านอยู่ร่วมในตรอกแคบ คุณค่าเกิดจากความยุ่งเหยิงที่ยังผลิตงานและอยู่ร่วมกับวัฒนธรรมใหม่","photo":"talad-noi","source":"Bangkok News / Around Online neighbourhood guide","source_url":"https://www.aroundonline.com/bangkok-news-43/"}},{"type":"Feature","geometry":{"type":"Point","coordinates":[100.509992,13.741209]},"properties":{"id":"oldtown:plaeng-nam","kind":"oldtown","name_th":"Plaeng Nam micro-street","name_en":null,"address":null,"sub_district":null,"district":null,"province":"กรุงเทพมหานคร","callout":"One hundred metres of complete city","calloutTh":"หนึ่งร้อยเมตรของเมืองที่ครบถ้วน","period":"Historic Chinatown trade street","evidence":"mapped corridor","typology":"Short food-and-trade shophouse street","registerId":null,"units":null,"explorerTip":"Treat it as a connector, not a destination: enter from the temple end and leave into the night market.","note":"Barely one hundred metres, yet it joins Charoen Krung and Yaowarat as a complete cultural cross-section. Small streets often carry more city memory per metre than monumental avenues.","noteTh":"ยาวเพียงราวหนึ่งร้อยเมตร แต่เชื่อมเจริญกรุงกับเยาวราชเป็นภาพตัดขวางทางวัฒนธรรม ตรอกสั้นมักเก็บความทรงจำเมืองต่อเมตรได้มากกว่าถนนใหญ่","photo":"yaowarat","source":"Bangkok News / Around Online neighbourhood guide","source_url":"https://www.aroundonline.com/bangkok-news-43/"}},{"type":"Feature","geometry":{"type":"Point","coordinates":[100.50557,13.75953]},"properties":{"id":"oldtown:nang-loeng","kind":"oldtown","name_th":"Nang Loeng market quarter","name_en":null,"address":null,"sub_district":null,"district":null,"province":"กรุงเทพมหานคร","callout":"Stay after breakfast","calloutTh":"อยู่ต่อหลังมื้อเช้า","period":"Early 20th-century market quarter","evidence":"mapped corridor","typology":"Market shophouses and timber community lanes","registerId":null,"units":null,"explorerTip":"Arrive for breakfast, then stay after the food crowd leaves and walk the lanes behind the market hall.","note":"Food is the entry point, not the whole story. Behind the market are performance histories, artists' houses, a Vietnamese temple and rows where domestic and commercial life never fully separated.","noteTh":"อาหารคือประตูเข้า ไม่ใช่เรื่องทั้งหมด หลังตลาดมีประวัติการแสดง บ้านศิลปิน วัดญวน และตึกแถวที่ชีวิตบ้านกับการค้าไม่เคยแยกจากกัน","photo":"nang-loeng","source":"Bangkok News / Around Online neighbourhood guide","source_url":"https://www.aroundonline.com/bangkok-news-43/"}},{"type":"Feature","geometry":{"type":"Point","coordinates":[100.788404,13.724212]},"properties":{"id":"oldtown:hua-takhe","kind":"oldtown","name_th":"Hua Takhe old canal market","name_en":null,"address":null,"sub_district":null,"district":null,"province":"กรุงเทพมหานคร","callout":"The street is water here","calloutTh":"ถนนของที่นี่คือสายน้ำ","period":"Historic eastern canal settlement","evidence":"mapped corridor","typology":"Timber rowhouses lining a canal market","registerId":null,"units":null,"explorerTip":"Visit on a weekday if you want the architecture; weekends tell the visitor-economy story instead.","note":"Bangkok's rowhouse story does not end at the old city wall. Here the frontage faces water: timber rooms, workshops and groceries form a long inhabited section through the canal landscape.","noteTh":"เรื่องตึกแถวกรุงเทพฯ ไม่จบที่กำแพงเมืองเก่า ที่นี่หน้าบ้านหันสู่น้ำ ห้องไม้ เวิร์กช็อป และร้านชำสร้างแนวยาวที่ยังมีชีวิตในภูมิทัศน์คลอง","photo":"charoen-krung","source":"Bangkok News / Around Online neighbourhood guide","source_url":"https://www.aroundonline.com/bangkok-news-43/"}},{"type":"Feature","geometry":{"type":"Point","coordinates":[100.478018,13.720819]},"properties":{"id":"oldtown:talat-phlu","kind":"oldtown","name_th":"Talat Phlu railway-market rows","name_en":null,"address":null,"sub_district":null,"district":null,"province":"กรุงเทพมหานคร","callout":"A second old Bangkok, west of the river","calloutTh":"กรุงเทพฯ เก่าอีกชุดทางฝั่งธนบุรี","period":"Thonburi market settlement","evidence":"mapped corridor","typology":"Rail, road and canal market shophouses","registerId":null,"units":null,"explorerTip":"Trace one loop from railway to market to canal. Each infrastructure leaves a different rowhouse edge.","note":"A useful correction to palace-centred heritage: rail, canal, food trade and ordinary rowhouses made a second old Bangkok on the Thonburi side. The network matters more than a single trophy building.","noteTh":"คำแก้ต่อมรดกที่ยึดวังเป็นศูนย์กลาง ทางรถไฟ คลอง การค้าอาหาร และตึกแถวธรรมดาสร้างกรุงเทพฯ เก่าอีกชุดในฝั่งธนบุรี คุณค่าอยู่ที่เครือข่าย","photo":"kudi-chin","source":"Bangkok News / Around Online neighbourhood guide","source_url":"https://www.aroundonline.com/bangkok-news-43/"}},{"type":"Feature","geometry":{"type":"Point","coordinates":[100.48943,13.75522]},"properties":{"id":"oldtown:tha-phrachan","kind":"oldtown","name_th":"Tha Phrachan riverfront rows","name_en":null,"address":null,"sub_district":null,"district":null,"province":"กรุงเทพมหานคร","callout":"A repaired frontage is not yet a conserved community","calloutTh":"ซ่อมด้านหน้าแล้วไม่ได้แปลว่าชุมชนได้รับการอนุรักษ์","period":"Late 19th–early 20th century","evidence":"published inventory","typology":"University-and-pier shophouse frontage","registerId":null,"units":null,"explorerTip":"Walk from the pier toward Thammasat at opening time; read the upper floors before the pavement becomes a market.","note":"Between the palace-university wall and the river, books, amulets, food and ferry traffic compress into one inhabited edge. Conservation here has already shown its political question: repair the façade, but who gets to remain behind it?","noteTh":"ระหว่างกำแพงมหาวิทยาลัยกับแม่น้ำ หนังสือ พระเครื่อง อาหาร และผู้โดยสารเรืออัดแน่นอยู่ในขอบเมืองที่ยังมีคนอยู่ คำถามไม่ใช่เพียงซ่อมผิวอาคาร แต่ใครจะได้อยู่ต่อข้างหลังผิวนั้น","photo":"front-palace","source":"Journal of the Siam Society: CPB heritage inventory","source_url":"https://so06.tci-thaijo.org/index.php/pub_jss/article/download/158293/114676/433613"}},{"type":"Feature","geometry":{"type":"Point","coordinates":[100.4975,13.74586]},"properties":{"id":"oldtown:ban-mo-old-moat","kind":"oldtown","name_th":"Asdang–Ban Mo rowhouse block","name_en":null,"address":null,"sub_district":null,"district":null,"province":"กรุงเทพมหานคร","callout":"108 units organised by streets, canal and backlanes","calloutTh":"108 คูหาที่จัดระบบด้วยถนน คลอง และตรอกหลังร้าน","period":"Rama V era onward","evidence":"published inventory","typology":"Roadside and interior rows organised by canal, street and backlane","registerId":null,"units":108,"explorerTip":"Use Khlong Khu Mueang Doem as your compass, then loop Ban Mo, Phra Phitak and Asdang to read the three different street edges.","note":"A published spatial survey counted 108 roadside units: 45 on Ban Mo, 16 on Phra Phitak and 47 on Asdang, with later rows inside the block. The canalside superblock shows Bangkok making a commercial quarter through incremental streets and backlanes—not a colonial masterplan.","noteTh":"งานสำรวจเชิงพื้นที่นับตึกแถวริมถนน 108 คูหา ได้แก่ บ้านหม้อ 45 พระพิทักษ์ 16 และอัษฎางค์ 47 พร้อมแนวที่สร้างเพิ่มภายในบล็อก กลุ่มอาคารริมคลองนี้แสดงการสร้างย่านค้าผ่านถนนและตรอกหลังร้านทีละช่วง ไม่ใช่ผังอาณานิคม","photo":"giant-swing","source":"Journal of Architecture and Planning: Rattanakosin shophouse transformation","source_url":"https://www.jstage.jst.go.jp/article/aija/69/586/69_KJ00004229492/_article/-char/en"}},{"type":"Feature","geometry":{"type":"Point","coordinates":[100.50034,13.74908]},"properties":{"id":"oldtown:srasong-longtha","kind":"oldtown","name_th":"Srasong–Longtha rows","name_en":null,"address":null,"sub_district":null,"district":null,"province":"กรุงเทพมหานคร","callout":"Ninety-eight rentals built as one urban machine","calloutTh":"ตึกเช่า 98 คูหาที่สร้างเป็นเครื่องจักรเมืองเดียวกัน","period":"Built 1910","evidence":"published inventory","typology":"Privy Purse rental rows aligned with Khlong Lod and backlanes","registerId":null,"units":98,"explorerTip":"Enter from the Wat Suthat side and leave toward Khlong Lod; the backlanes explain the block better than a single façade photograph.","note":"Ninety-eight rental shophouses were laid out in 1910 between Wat Suthat and the Khlong Lod edge near Wat Ratchabophit. Parallel rows and service lanes make an urban machine from rent, water access and temple traffic—dense, practical and unmistakably Bangkok.","noteTh":"ตึกแถวให้เช่า 98 คูหาถูกวางผังในปี 2453 ระหว่างวัดสุทัศน์กับแนวคลองหลอดใกล้วัดราชบพิธ แนวขนานและตรอกบริการทำให้ค่าเช่า ทางน้ำ และการสัญจรรอบวัดกลายเป็นเครื่องจักรเมืองที่หนาแน่น ใช้งานจริง และเป็นกรุงเทพฯ อย่างชัดเจน","photo":"giant-swing","source":"Journal of Architecture and Planning: Rattanakosin shophouse transformation","source_url":"https://www.jstage.jst.go.jp/article/aija/69/586/69_KJ00004229492/_article/-char/en"}},{"type":"Feature","geometry":{"type":"Point","coordinates":[100.49755,13.74818]},"properties":{"id":"oldtown:phraya-si-rows","kind":"oldtown","name_th":"Phraya Si–Si Kak rows","name_en":null,"address":null,"sub_district":null,"district":null,"province":"กรุงเทพมหานคร","callout":"A four-way hinge between royal city and port economy","calloutTh":"บานพับสี่ทางระหว่างเมืองหลวงกับเศรษฐกิจท่าเรือ","period":"Early Charoen Krung road era onward","evidence":"published inventory","typology":"Intersection rows linking Charoen Krung, Fueang Nakhon and Ban Mo","registerId":null,"units":null,"explorerTip":"Stand at Si Kak Phraya Si and rotate slowly: each street carries a different period and trade, but the rowhouse scale holds the junction together.","note":"At one of old Bangkok's great four-way junctions, the rows reveal how the first modern roads met an older Mon community and specialist trade. The result is not imported colonial order but a Bangkok hinge—royal city, port street and mercantile lane turning around one another.","noteTh":"ที่สี่แยกสำคัญของกรุงเทพฯ เก่า ตึกแถวแสดงจุดที่ถนนสมัยใหม่ยุคแรกพบชุมชนมอญเดิมและการค้าเฉพาะทาง ผลลัพธ์ไม่ใช่ระเบียบอาณานิคมนำเข้า แต่เป็นบานพับแบบกรุงเทพฯ ที่เมืองหลวง ถนนท่าเรือ และตรอกการค้าหมุนรอบกัน","photo":"giant-swing","source":"Journal of the Siam Society: CPB heritage inventory","source_url":"https://so06.tci-thaijo.org/index.php/pub_jss/article/download/158293/114676/433613"}},{"type":"Feature","geometry":{"type":"Point","coordinates":[100.49758,13.73928]},"properties":{"id":"oldtown:memorial-bridge-rows","kind":"oldtown","name_th":"Memorial Bridge bridgehead rows","name_en":null,"address":null,"sub_district":null,"district":null,"province":"กรุงเทพมหานคร","callout":"The ordinary fabric that makes a bridgehead","calloutTh":"เนื้อเมืองธรรมดาที่ทำให้เชิงสะพานเป็นสถานที่","period":"Early 20th century","evidence":"registered","typology":"Bridgehead and market-front rows on the Phra Nakhon bank","registerId":null,"units":null,"explorerTip":"Walk from Pak Khlong Talat toward the bridge and look inland before crossing; the edge works as an exchange, not a monument forecourt.","note":"The bridge is usually read as infrastructure and Pak Khlong Talat as spectacle. The surveyed rows between them are the missing urban tissue: small commercial bays absorbing flowers, ferries, road traffic and the daily transfer between Thonburi and the old capital.","noteTh":"สะพานมักถูกอ่านเป็นโครงสร้างพื้นฐาน ส่วนปากคลองตลาดเป็นภาพสีสัน แต่ตึกแถวที่สำรวจไว้ระหว่างสองจุดคือเนื้อเมืองที่หายไปจากสายตา คูหาเล็กรับดอกไม้ เรือ ถนน และการเดินทางประจำวันระหว่างธนบุรีกับเมืองหลวงเก่า","photo":"kudi-chin","source":"ONEP Rattanakosin conservation building survey","source_url":"https://nced.onep.go.th/knowledge/E_BOOK_Publish_SURVEY.pdf"}},{"type":"Feature","geometry":{"type":"Point","coordinates":[100.5162,13.7258]},"properties":{"id":"oldtown:bang-rak-charoen-krung","kind":"oldtown","name_th":"Bang Rak multicultural rows","name_en":null,"address":null,"sub_district":null,"district":null,"province":"กรุงเทพมหานคร","callout":"Four cultural systems, one ordinary street","calloutTh":"สี่ระบบวัฒนธรรมบนถนนธรรมดาเส้นเดียว","period":"19th–20th century layers","evidence":"published inventory","typology":"Chinese, South Asian, Western and Thai shophouse corridor","registerId":null,"units":null,"explorerTip":"Walk Charoen Krung from Si Phraya toward Silom and count languages, upstairs access and shop-depth changes—not cafés.","note":"Bang Rak is the argument in miniature: Chinese shop signs, South Asian tailoring, western-company streets and Thai alleys occupy the same commercial spine. The heritage is not one approved style; it is difference that learned to share an address.","noteTh":"บางรักคือข้อโต้แย้งฉบับย่อ ป้ายร้านจีน ร้านตัดเสื้อเอเชียใต้ ถนนบริษัทตะวันตก และตรอกไทยอยู่บนแกนการค้าเดียวกัน มรดกไม่ใช่รูปแบบที่ถูกอนุมัติเพียงแบบเดียว แต่คือความต่างที่เรียนรู้จะอยู่ร่วมที่อยู่เดียวกัน","photo":"charoen-krung","source":"Nakhara: Ordinary Urban Heritage in Bang Rak","source_url":"https://digital.car.chula.ac.th/nakhara/vol21/iss2/1/"}},{"type":"Feature","geometry":{"type":"Point","coordinates":[100.53175,13.72885]},"properties":{"id":"oldtown:patpong-modern-rows","kind":"oldtown","name_th":"Patpong modern shophouse rows","name_en":null,"address":null,"sub_district":null,"district":null,"province":"กรุงเทพมหานคร","callout":"The postwar city is old enough to study","calloutTh":"เมืองหลังสงครามเก่าพอที่จะศึกษาแล้ว","period":"1950s onward","evidence":"published inventory","typology":"Two-to-six-storey postwar commercial rows","registerId":null,"units":null,"explorerTip":"Visit once by day and once after dark; the same row operates as two different pieces of city.","note":"Heritage does not stop at 1932. Patpong's rows record Bangkok becoming a global service economy: daytime shutters, night businesses and separate stairs that turned upper floors into independent commercial territory.","noteTh":"มรดกไม่ได้หยุดในปี 2475 ตึกแถวพัฒน์พงศ์บันทึกช่วงที่กรุงเทพฯ กลายเป็นเศรษฐกิจบริการระดับโลก กลางวันปิด กลางคืนเปิด และบันไดแยกทำให้ชั้นบนเป็นพื้นที่พาณิชย์อิสระ","photo":"patpong","source":"Nakhara: Ordinary Urban Heritage in Bang Rak","source_url":"https://digital.car.chula.ac.th/nakhara/vol21/iss2/1/"}},{"type":"Feature","geometry":{"type":"Point","coordinates":[100.865469,13.857182]},"properties":{"id":"oldtown:nong-chok-old-market","kind":"oldtown","name_th":"Nong Chok old market","name_en":null,"address":null,"sub_district":null,"district":null,"province":"กรุงเทพมหานคร","callout":"Bangkok's old town reaches the rice fields","calloutTh":"เมืองเก่ากรุงเทพฯ ไปถึงทุ่งนา","period":"19th-century canal settlement","evidence":"published inventory","typology":"Timber shophouse rows along Khlong Saen Saep","registerId":null,"units":null,"explorerTip":"Stand on the newer market side and look across the canal; the old commercial frontage makes sense from its former transport route.","note":"At the meeting of canals twelve, thirteen and Saen Saep, Chinese timber shops served a largely Muslim agricultural landscape. This is Bangkok too: not fringe, but the eastern half of the capital explaining how water, trade and coexistence built one another.","noteTh":"ตรงจุดตัดคลองสิบสอง คลองสิบสาม และคลองแสนแสบ ร้านค้าเรือนไม้ของชาวจีนให้บริการภูมิทัศน์เกษตรกรรมมุสลิมเป็นหลัก นี่ก็คือกรุงเทพฯ ไม่ใช่ชายขอบ แต่คือครึ่งตะวันออกของเมืองที่อธิบายว่าน้ำ การค้า และการอยู่ร่วมกันสร้างกันอย่างไร","photo":null,"source":"Silpakorn University: Nong Chok timber-row study","source_url":"https://sure.su.ac.th/xmlui/handle/123456789/11214"}},{"type":"Feature","geometry":{"type":"Point","coordinates":[100.50339,13.7005]},"properties":{"id":"oldtown:charoen-krung-103","kind":"oldtown","name_th":"Charoen Krung 103 canal-market approach","name_en":null,"address":null,"sub_district":null,"district":null,"province":"กรุงเทพมหานคร","callout":"A rowhouse doorway into the canal city","calloutTh":"ประตูตึกแถวสู่เมืองคลอง","period":"Historic mixed-faith canal community","evidence":"mapped corridor","typology":"Roadside rowhouses leading to a Muslim canal market","registerId":null,"units":null,"explorerTip":"The canal market opens only on the first Saturday and Sunday of each month; the rowhouse approach is legible every day.","note":"The green-and-cream row is a threshold, not the destination. Pass through it and the arterial city gives way to a small weekend halal market, Buddhist–Muslim neighbourliness and a canal landscape hidden behind Charoen Krung.","noteTh":"ตึกแถวสีเขียวครีมคือธรณีประตู ไม่ใช่จุดหมาย เมื่อเดินผ่าน เมืองถนนใหญ่จะเปลี่ยนเป็นตลาดฮาลาลสุดสัปดาห์ ความเป็นเพื่อนบ้านพุทธ–มุสลิม และภูมิทัศน์คลองที่ซ่อนอยู่หลังเจริญกรุง","photo":null,"source":"Bangkok News / Around Online neighbourhood guide","source_url":"https://www.aroundonline.com/bangkok-news-43/"}},{"type":"Feature","geometry":{"type":"Point","coordinates":[100.496299,13.736642]},"properties":{"id":"oldtown:dilok-chan","kind":"oldtown","name_th":"Dilok Chan lane","name_en":null,"address":null,"sub_district":null,"district":null,"province":"กรุงเทพมหานคร","callout":"The port survives as a lane","calloutTh":"ท่าเรือยังอยู่ในรูปของตรอก","period":"Historic Khlong San trading community","evidence":"mapped corridor","typology":"River-trade lane enclosed by ordinary rowhouses","registerId":null,"units":null,"explorerTip":"Enter from Princess Mother Memorial Park and keep walking toward the Guan Yu shrine; the lane reveals its river logic gradually.","note":"A tiny lane holds the afterimage of a larger port economy—salt sheds, fish-sauce works, export trade and the Guan Yu shrine. The important space is not a monument but the narrow public room made by rowhouses around collective memory.","noteTh":"ตรอกเล็กเก็บภาพค้างของเศรษฐกิจท่าเรือที่ใหญ่กว่า ทั้งโรงเกลือ โรงน้ำปลา การส่งออก และศาลเจ้ากวนอู พื้นที่สำคัญไม่ใช่อนุสาวรีย์ แต่คือห้องสาธารณะแคบ ๆ ที่ตึกแถวสร้างรอบความทรงจำร่วม","photo":"kudi-chin","source":"Bangkok News / Around Online neighbourhood guide","source_url":"https://www.aroundonline.com/bangkok-news-43/"}}]}