{"type":"FeatureCollection","kind":"royal-temples","label_th":"พระอารามหลวง","label_en":"Royal Temples (Department of Royal Affairs)","source":"catalog.dra.go.th · dra_0302_01 (BKK subset)","source_url":"https://data.go.th/dataset/dra_0302_01","bbox":[100.2,13.4,101.0,14.2],"features":[{"type":"Feature","geometry":{"type":"Point","coordinates":[100.4915374,13.73999508]},"properties":{"id":"royal-temple:1","kind":"royal-temple","name_th":"วัดกัลยาณมิตร","name_en":null,"kathin_type":"พระกฐินพระราชทาน","address":"แขวงวัดกัลยาณ์ เขตธนบุรี, กรุงเทพมหานคร","sub_district":"วัดกัลยาณ์","district":"ธนบุรี","province":"กรุงเทพมหานคร","source":"catalog.dra.go.th · dra_0302_01 (BKK subset)","source_url":"https://data.go.th/dataset/dra_0302_01"}},{"type":"Feature","geometry":{"type":"Point","coordinates":[100.4539986,13.76012433]},"properties":{"id":"royal-temple:2","kind":"royal-temple","name_th":"วัดกาญจนสิงหาสน์","name_en":null,"kathin_type":"พระกฐินพระราชทาน","address":"แขวงคลองชักพระ เขตตลิ่งชัน, กรุงเทพมหานคร","sub_district":"คลองชักพระ","district":"ตลิ่งชัน","province":"กรุงเทพมหานคร","source":"catalog.dra.go.th · dra_0302_01 (BKK subset)","source_url":"https://data.go.th/dataset/dra_0302_01"}},{"type":"Feature","geometry":{"type":"Point","coordinates":[100.4958572,13.77225775]},"properties":{"id":"royal-temple:3","kind":"royal-temple","name_th":"วัดคฤหบดี","name_en":null,"kathin_type":"พระกฐินพระราชทาน","address":"แขวงบางยี่ขัน เขตบางพลัด, กรุงเทพมหานคร","sub_district":"บางยี่ขัน","district":"บางพลัด","province":"กรุงเทพมหานคร","source":"catalog.dra.go.th · dra_0302_01 (BKK subset)","source_url":"https://data.go.th/dataset/dra_0302_01"}},{"type":"Feature","geometry":{"type":"Point","coordinates":[100.4622703,13.73247761]},"properties":{"id":"royal-temple:4","kind":"royal-temple","name_th":"วัดคูหาสวรรค์","name_en":null,"kathin_type":"พระกฐินพระราชทาน","address":"แขวงคูหาสวรรค์ เขตภาษีเจริญ, กรุงเทพมหานคร","sub_district":"คูหาสวรรค์","district":"ภาษีเจริญ","province":"กรุงเทพมหานคร","source":"catalog.dra.go.th · dra_0302_01 (BKK subset)","source_url":"https://data.go.th/dataset/dra_0302_01"}},{"type":"Feature","geometry":{"type":"Point","coordinates":[100.4858133,13.74582392]},"properties":{"id":"royal-temple:5","kind":"royal-temple","name_th":"วัดเครือวัลย์(ธ)","name_en":null,"kathin_type":"พระกฐินพระราชทาน","address":"แขวงวัดอรุณ เขตบางกอกใหญ่, กรุงเทพมหานคร","sub_district":"วัดอรุณ","district":"บางกอกใหญ่","province":"กรุงเทพมหานคร","source":"catalog.dra.go.th · dra_0302_01 (BKK subset)","source_url":"https://data.go.th/dataset/dra_0302_01"}},{"type":"Feature","geometry":{"type":"Point","coordinates":[100.5042378,13.74212358]},"properties":{"id":"royal-temple:6","kind":"royal-temple","name_th":"วัดจักรวรรดิราชาวาส","name_en":null,"kathin_type":"พระกฐินพระราชทาน","address":"แขวงจักรวรรดิ เขตสัมพันธวงศ์, กรุงเทพมหานคร","sub_district":"จักรวรรดิ","district":"สัมพันธวงศ์","province":"กรุงเทพมหานคร","source":"catalog.dra.go.th · dra_0302_01 (BKK subset)","source_url":"https://data.go.th/dataset/dra_0302_01"}},{"type":"Feature","geometry":{"type":"Point","coordinates":[100.4814964,13.72250992]},"properties":{"id":"royal-temple:7","kind":"royal-temple","name_th":"วัดจันทาราม","name_en":null,"kathin_type":"พระกฐินพระราชทาน","address":"แขวงบางยี่เรือ เขตธนบุรี, กรุงเทพมหานคร","sub_district":"บางยี่เรือ","district":"ธนบุรี","province":"กรุงเทพมหานคร","source":"catalog.dra.go.th · dra_0302_01 (BKK subset)","source_url":"https://data.go.th/dataset/dra_0302_01"}},{"type":"Feature","geometry":{"type":"Point","coordinates":[100.4950087,13.76098171]},"properties":{"id":"royal-temple:8","kind":"royal-temple","name_th":"วัดชนะสงคราม","name_en":null,"kathin_type":"พระกฐินพระราชทาน","address":"แขวงชนะสงคราม เขตพระนคร, กรุงเทพมหานคร","sub_district":"ชนะสงคราม","district":"พระนคร","province":"กรุงเทพมหานคร","source":"catalog.dra.go.th · dra_0302_01 (BKK subset)","source_url":"https://data.go.th/dataset/dra_0302_01"}},{"type":"Feature","geometry":{"type":"Point","coordinates":[100.5055191,13.74439369]},"properties":{"id":"royal-temple:9","kind":"royal-temple","name_th":"วัดชัยชนะสงคราม","name_en":null,"kathin_type":"พระกฐินพระราชทาน","address":"แขวงสัมพันธวงศ์ เขตสัมพันธวงศ์, กรุงเทพมหานคร","sub_district":"สัมพันธวงศ์","district":"สัมพันธวงศ์","province":"กรุงเทพมหานคร","source":"catalog.dra.go.th · dra_0302_01 (BKK subset)","source_url":"https://data.go.th/dataset/dra_0302_01"}},{"type":"Feature","geometry":{"type":"Point","coordinates":[100.4664533,13.79537695]},"properties":{"id":"royal-temple:10","kind":"royal-temple","name_th":"วัดชัยพฤกษมาลา","name_en":null,"kathin_type":"พระกฐินพระราชทาน","address":"แขวงตลิ่งชัน เขตตลิ่งชัน, กรุงเทพมหานคร","sub_district":"ตลิ่งชัน","district":"ตลิ่งชัน","province":"กรุงเทพมหานคร","source":"catalog.dra.go.th · dra_0302_01 (BKK subset)","source_url":"https://data.go.th/dataset/dra_0302_01"}},{"type":"Feature","geometry":{"type":"Point","coordinates":[100.4792706,13.74651409]},"properties":{"id":"royal-temple:11","kind":"royal-temple","name_th":"วัดชิโนรสาราม","name_en":null,"kathin_type":"พระกฐินพระราชทาน","address":"แขวงบ้านช่างหล่อ เขตบางกอกน้อย, กรุงเทพมหานคร","sub_district":"บ้านช่างหล่อ","district":"บางกอกน้อย","province":"กรุงเทพมหานคร","source":"catalog.dra.go.th · dra_0302_01 (BKK subset)","source_url":"https://data.go.th/dataset/dra_0302_01"}},{"type":"Feature","geometry":{"type":"Point","coordinates":[100.6016017,13.92261547]},"properties":{"id":"royal-temple:12","kind":"royal-temple","name_th":"วัดดอนเมือง","name_en":null,"kathin_type":"พระกฐินพระราชทาน","address":"แขวงสีกัน เขตดอนเมือง, กรุงเทพมหานคร","sub_district":"สีกัน","district":"ดอนเมือง","province":"กรุงเทพมหานคร","source":"catalog.dra.go.th · dra_0302_01 (BKK subset)","source_url":"https://data.go.th/dataset/dra_0302_01"}},{"type":"Feature","geometry":{"type":"Point","coordinates":[100.4914931,13.76804474]},"properties":{"id":"royal-temple:13","kind":"royal-temple","name_th":"วัดดาวดึงษาราม","name_en":null,"kathin_type":"พระกฐินพระราชทาน","address":"แขวงบางยี่ขัน เขตบางพลัด, กรุงเทพมหานคร","sub_district":"บางยี่ขัน","district":"บางพลัด","province":"กรุงเทพมหานคร","source":"catalog.dra.go.th · dra_0302_01 (BKK subset)","source_url":"https://data.go.th/dataset/dra_0302_01"}},{"type":"Feature","geometry":{"type":"Point","coordinates":[100.4879701,13.76373615]},"properties":{"id":"royal-temple:14","kind":"royal-temple","name_th":"วัดดุสิดาราม","name_en":null,"kathin_type":"พระกฐินพระราชทาน","address":"แขวงอรุณอมรินทร์ เขตบางกอกน้อย, กรุงเทพมหานคร","sub_district":"อรุณอมรินทร์","district":"บางกอกน้อย","province":"กรุงเทพมหานคร","source":"catalog.dra.go.th · dra_0302_01 (BKK subset)","source_url":"https://data.go.th/dataset/dra_0302_01"}},{"type":"Feature","geometry":{"type":"Point","coordinates":[100.5034508,13.76225912]},"properties":{"id":"royal-temple:15","kind":"royal-temple","name_th":"วัดตรีทศเทพ(ธ)","name_en":null,"kathin_type":"พระกฐินพระราชทาน","address":"แขวงบ้านพานถม เขตพระนคร, กรุงเทพมหานคร","sub_district":"บ้านพานถม","district":"พระนคร","province":"กรุงเทพมหานคร","source":"catalog.dra.go.th · dra_0302_01 (BKK subset)","source_url":"https://data.go.th/dataset/dra_0302_01"}},{"type":"Feature","geometry":{"type":"Point","coordinates":[100.513939,13.73797844]},"properties":{"id":"royal-temple:16","kind":"royal-temple","name_th":"วัดไตรมิตรวิทยาราม","name_en":null,"kathin_type":"พระกฐินพระราชทาน","address":"แขวงตลาดน้อย เขตสัมพันธวงศ์, กรุงเทพมหานคร","sub_district":"ตลาดน้อย","district":"สัมพันธวงศ์","province":"กรุงเทพมหานคร","source":"catalog.dra.go.th · dra_0302_01 (BKK subset)","source_url":"https://data.go.th/dataset/dra_0302_01"}},{"type":"Feature","geometry":{"type":"Point","coordinates":[100.5051159,13.73337712]},"properties":{"id":"royal-temple:17","kind":"royal-temple","name_th":"วัดทองธรรมชาติ","name_en":null,"kathin_type":"พระกฐินพระราชทาน","address":"แขวงคลองสาน เขตคลองสาน, กรุงเทพมหานคร","sub_district":"คลองสาน","district":"คลองสาน","province":"กรุงเทพมหานคร","source":"catalog.dra.go.th · dra_0302_01 (BKK subset)","source_url":"https://data.go.th/dataset/dra_0302_01"}},{"type":"Feature","geometry":{"type":"Point","coordinates":[100.5078838,13.73242013]},"properties":{"id":"royal-temple:18","kind":"royal-temple","name_th":"วัดทองนพคุณ","name_en":null,"kathin_type":"พระกฐินพระราชทาน","address":"แขวงคลองสาน เขตคลองสาน, กรุงเทพมหานคร","sub_district":"คลองสาน","district":"คลองสาน","province":"กรุงเทพมหานคร","source":"catalog.dra.go.th · dra_0302_01 (BKK subset)","source_url":"https://data.go.th/dataset/dra_0302_01"}},{"type":"Feature","geometry":{"type":"Point","coordinates":[100.614383,13.75932449]},"properties":{"id":"royal-temple:19","kind":"royal-temple","name_th":"วัดเทพลีลา","name_en":null,"kathin_type":"พระกฐินพระราชทาน","address":"แขวงหัวหมาก เขตบางกะปิ, กรุงเทพมหานคร","sub_district":"หัวหมาก","district":"บางกะปิ","province":"กรุงเทพมหานคร","source":"catalog.dra.go.th · dra_0302_01 (BKK subset)","source_url":"https://data.go.th/dataset/dra_0302_01"}},{"type":"Feature","geometry":{"type":"Point","coordinates":[100.5040965,13.75331522]},"properties":{"id":"royal-temple:20","kind":"royal-temple","name_th":"วัดเทพธิดาราม","name_en":null,"kathin_type":"พระกฐินพระราชทาน","address":"แขวงสำราญราษฎร์ เขตพระนคร, กรุงเทพมหานคร","sub_district":"สำราญราษฎร์","district":"พระนคร","province":"กรุงเทพมหานคร","source":"catalog.dra.go.th · dra_0302_01 (BKK subset)","source_url":"https://data.go.th/dataset/dra_0302_01"}},{"type":"Feature","geometry":{"type":"Point","coordinates":[100.5018798,13.77256458]},"properties":{"id":"royal-temple:21","kind":"royal-temple","name_th":"วัดเทวราชกุญชร","name_en":null,"kathin_type":"พระกฐินพระราชทาน","address":"แขวงวชิรพยาบาล เขตดุสิต, กรุงเทพมหานคร","sub_district":"วชิรพยาบาล","district":"ดุสิต","province":"กรุงเทพมหานคร","source":"catalog.dra.go.th · dra_0302_01 (BKK subset)","source_url":"https://data.go.th/dataset/dra_0302_01"}},{"type":"Feature","geometry":{"type":"Point","coordinates":[100.5859228,13.71990001]},"properties":{"id":"royal-temple:22","kind":"royal-temple","name_th":"วัดธาตุทอง(ธ)","name_en":null,"kathin_type":"พระกฐินพระราชทาน","address":"แขวงพระโขนงเหนือ เขตวัฒนา, กรุงเทพมหานคร","sub_district":"พระโขนงเหนือ","district":"วัฒนา","province":"กรุงเทพมหานคร","source":"catalog.dra.go.th · dra_0302_01 (BKK subset)","source_url":"https://data.go.th/dataset/dra_0302_01"}},{"type":"Feature","geometry":{"type":"Point","coordinates":[100.5028877,13.76964774]},"properties":{"id":"royal-temple:23","kind":"royal-temple","name_th":"วัดนรนาถสุนทริการาม(ธ)","name_en":null,"kathin_type":"พระกฐินพระราชทาน","address":"แขวงวัดสามพระยา เขตพระนคร, กรุงเทพมหานคร","sub_district":"วัดสามพระยา","district":"พระนคร","province":"กรุงเทพมหานคร","source":"catalog.dra.go.th · dra_0302_01 (BKK subset)","source_url":"https://data.go.th/dataset/dra_0302_01"}},{"type":"Feature","geometry":{"type":"Point","coordinates":[100.4681709,13.72374655]},"properties":{"id":"royal-temple:24","kind":"royal-temple","name_th":"วัดนวลนรดิศ","name_en":null,"kathin_type":"พระกฐินพระราชทาน","address":"แขวงปากคลองภาษีเจริญ เขตภาษีเจริญ, กรุงเทพมหานคร","sub_district":"ปากคลองภาษีเจริญ","district":"ภาษีเจริญ","province":"กรุงเทพมหานคร","source":"catalog.dra.go.th · dra_0302_01 (BKK subset)","source_url":"https://data.go.th/dataset/dra_0302_01"}},{"type":"Feature","geometry":{"type":"Point","coordinates":[100.4841925,13.7454269]},"properties":{"id":"royal-temple:25","kind":"royal-temple","name_th":"วัดนาคกลาง","name_en":null,"kathin_type":"พระกฐินพระราชทาน","address":"แขวงวัดอรุณ เขตบางกอกใหญ่, กรุงเทพมหานคร","sub_district":"วัดอรุณ","district":"บางกอกใหญ่","province":"กรุงเทพมหานคร","source":"catalog.dra.go.th · dra_0302_01 (BKK subset)","source_url":"https://data.go.th/dataset/dra_0302_01"}},{"type":"Feature","geometry":{"type":"Point","coordinates":[100.4682001,13.71655993]},"properties":{"id":"royal-temple:26","kind":"royal-temple","name_th":"วัดนางชี","name_en":null,"kathin_type":"พระกฐินพระราชทาน","address":"แขวงปากคลองภาษีเจริญ เขตภาษีเจริญ, กรุงเทพมหานคร","sub_district":"ปากคลองภาษีเจริญ","district":"ภาษีเจริญ","province":"กรุงเทพมหานคร","source":"catalog.dra.go.th · dra_0302_01 (BKK subset)","source_url":"https://data.go.th/dataset/dra_0302_01"}},{"type":"Feature","geometry":{"type":"Point","coordinates":[100.4663332,13.70327381]},"properties":{"id":"royal-temple:27","kind":"royal-temple","name_th":"วัดนางนอง","name_en":null,"kathin_type":"พระกฐินพระราชทาน","address":"แขวงบางค้อ เขตจอมทอง, กรุงเทพมหานคร","sub_district":"บางค้อ","district":"จอมทอง","province":"กรุงเทพมหานคร","source":"catalog.dra.go.th · dra_0302_01 (BKK subset)","source_url":"https://data.go.th/dataset/dra_0302_01"}},{"type":"Feature","geometry":{"type":"Point","coordinates":[100.4267389,13.70867611]},"properties":{"id":"royal-temple:28","kind":"royal-temple","name_th":"วัดนิมมานรดี","name_en":null,"kathin_type":"พระกฐินพระราชทาน","address":"แขวงบางหว้า เขตภาษีเจริญ, กรุงเทพมหานคร","sub_district":"บางหว้า","district":"ภาษีเจริญ","province":"กรุงเทพมหานคร","source":"catalog.dra.go.th · dra_0302_01 (BKK subset)","source_url":"https://data.go.th/dataset/dra_0302_01"}},{"type":"Feature","geometry":{"type":"Point","coordinates":[100.5019706,13.74185717]},"properties":{"id":"royal-temple:29","kind":"royal-temple","name_th":"วัดบพิตรพิมุข","name_en":null,"kathin_type":"พระกฐินพระราชทาน","address":"แขวงจักรวรรดิ เขตสัมพันธวงศ์, กรุงเทพมหานคร","sub_district":"จักรวรรดิ","district":"สัมพันธวงศ์","province":"กรุงเทพมหานคร","source":"catalog.dra.go.th · dra_0302_01 (BKK subset)","source_url":"https://data.go.th/dataset/dra_0302_01"}},{"type":"Feature","geometry":{"type":"Point","coordinates":[100.5195657,13.75161134]},"properties":{"id":"royal-temple:30","kind":"royal-temple","name_th":"วัดบรมนิวาส(ธ)","name_en":null,"kathin_type":"พระกฐินพระราชทาน","address":"แขวงรองเมือง เขตปทุมวัน, กรุงเทพมหานคร","sub_district":"รองเมือง","district":"ปทุมวัน","province":"กรุงเทพมหานคร","source":"catalog.dra.go.th · dra_0302_01 (BKK subset)","source_url":"https://data.go.th/dataset/dra_0302_01"}},{"type":"Feature","geometry":{"type":"Point","coordinates":[100.4964236,13.77551754]},"properties":{"id":"royal-temple:31","kind":"royal-temple","name_th":"วัดบวรมงคล(ธ)","name_en":null,"kathin_type":"พระกฐินพระราชทาน","address":"แขวงบางพลัด เขตบางพลัด, กรุงเทพมหานคร","sub_district":"บางพลัด","district":"บางพลัด","province":"กรุงเทพมหานคร","source":"catalog.dra.go.th · dra_0302_01 (BKK subset)","source_url":"https://data.go.th/dataset/dra_0302_01"}},{"type":"Feature","geometry":{"type":"Point","coordinates":[100.6040608,13.67050198]},"properties":{"id":"royal-temple:32","kind":"royal-temple","name_th":"วัดบางนาใน","name_en":null,"kathin_type":"พระกฐินพระราชทาน","address":"แขวงบางนา เขตบางนา, กรุงเทพมหานคร","sub_district":"บางนา","district":"บางนา","province":"กรุงเทพมหานคร","source":"catalog.dra.go.th · dra_0302_01 (BKK subset)","source_url":"https://data.go.th/dataset/dra_0302_01"}},{"type":"Feature","geometry":{"type":"Point","coordinates":[100.4958975,13.75530859]},"properties":{"id":"royal-temple:33","kind":"royal-temple","name_th":"วัดบุรณศิริมาตยาราม(ธ)","name_en":null,"kathin_type":"พระกฐินพระราชทาน","address":"แขวงศาลเจ้าพ่อเสือ เขตพระนคร, กรุงเทพมหานคร","sub_district":"ศาลเจ้าพ่อเสือ","district":"พระนคร","province":"กรุงเทพมหานคร","source":"catalog.dra.go.th · dra_0302_01 (BKK subset)","source_url":"https://data.go.th/dataset/dra_0302_01"}},{"type":"Feature","geometry":{"type":"Point","coordinates":[100.4922968,13.73579618]},"properties":{"id":"royal-temple:34","kind":"royal-temple","name_th":"วัดบุปผาราม(ธ)","name_en":null,"kathin_type":"พระกฐินพระราชทาน","address":"แขวงวัดกัลยาณ์ เขตธนบุรี, กรุงเทพมหานคร","sub_district":"วัดกัลยาณ์","district":"ธนบุรี","province":"กรุงเทพมหานคร","source":"catalog.dra.go.th · dra_0302_01 (BKK subset)","source_url":"https://data.go.th/dataset/dra_0302_01"}},{"type":"Feature","geometry":{"type":"Point","coordinates":[100.38774,13.72927387]},"properties":{"id":"royal-temple:35","kind":"royal-temple","name_th":"วัดบุณยประดิษฐ์","name_en":null,"kathin_type":"พระกฐินพระราชทาน","address":"แขวงบางไผ่ เขตบางแค, กรุงเทพมหานคร","sub_district":"บางไผ่","district":"บางแค","province":"กรุงเทพมหานคร","source":"catalog.dra.go.th · dra_0302_01 (BKK subset)","source_url":"https://data.go.th/dataset/dra_0302_01"}},{"type":"Feature","geometry":{"type":"Point","coordinates":[100.5107919,13.73603618]},"properties":{"id":"royal-temple:36","kind":"royal-temple","name_th":"วัดปทุมคงคา","name_en":null,"kathin_type":"พระกฐินพระราชทาน","address":"แขวงสัมพันธวงศ์ เขตสัมพันธวงศ์, กรุงเทพมหานคร","sub_district":"สัมพันธวงศ์","district":"สัมพันธวงศ์","province":"กรุงเทพมหานคร","source":"catalog.dra.go.th · dra_0302_01 (BKK subset)","source_url":"https://data.go.th/dataset/dra_0302_01"}},{"type":"Feature","geometry":{"type":"Point","coordinates":[100.5366345,13.74569328]},"properties":{"id":"royal-temple:37","kind":"royal-temple","name_th":"วัดปทุมวนาราม(ธ)","name_en":null,"kathin_type":"พระกฐินพระราชทาน","address":"แขวงปทุมวัน เขตปทุมวัน, กรุงเทพมหานคร","sub_district":"ปทุมวัน","district":"ปทุมวัน","province":"กรุงเทพมหานคร","source":"catalog.dra.go.th · dra_0302_01 (BKK subset)","source_url":"https://data.go.th/dataset/dra_0302_01"}},{"type":"Feature","geometry":{"type":"Point","coordinates":[100.4959291,13.73698547]},"properties":{"id":"royal-temple:38","kind":"royal-temple","name_th":"วัดประยุรวงศาวาส","name_en":null,"kathin_type":"พระกฐินพระราชทาน","address":"แขวงวัดกัลยาณ์ เขตธนบุรี, กรุงเทพมหานคร","sub_district":"วัดกัลยาณ์","district":"ธนบุรี","province":"กรุงเทพมหานคร","source":"catalog.dra.go.th · dra_0302_01 (BKK subset)","source_url":"https://data.go.th/dataset/dra_0302_01"}},{"type":"Feature","geometry":{"type":"Point","coordinates":[100.5055518,13.75818761]},"properties":{"id":"royal-temple:39","kind":"royal-temple","name_th":"วัดปรินายก","name_en":null,"kathin_type":"พระกฐินพระราชทาน","address":"แขวงบ้านพานถม เขตพระนคร, กรุงเทพมหานคร","sub_district":"บ้านพานถม","district":"พระนคร","province":"กรุงเทพมหานคร","source":"catalog.dra.go.th · dra_0302_01 (BKK subset)","source_url":"https://data.go.th/dataset/dra_0302_01"}},{"type":"Feature","geometry":{"type":"Point","coordinates":[100.4705617,13.72161707]},"properties":{"id":"royal-temple:40","kind":"royal-temple","name_th":"วัดปากน้ำ","name_en":null,"kathin_type":"พระกฐินพระราชทาน","address":"แขวงปากคลองภาษีเจริญ เขตภาษีเจริญ, กรุงเทพมหานคร","sub_district":"ปากคลองภาษีเจริญ","district":"ภาษีเจริญ","province":"กรุงเทพมหานคร","source":"catalog.dra.go.th · dra_0302_01 (BKK subset)","source_url":"https://data.go.th/dataset/dra_0302_01"}},{"type":"Feature","geometry":{"type":"Point","coordinates":[100.4830699,13.74776584]},"properties":{"id":"royal-temple:41","kind":"royal-temple","name_th":"วัดพระยาทำ","name_en":null,"kathin_type":"พระกฐินพระราชทาน","address":"แขวงบ้านช่างหล่อ เขตบางกอกน้อย, กรุงเทพมหานคร","sub_district":"บ้านช่างหล่อ","district":"บางกอกน้อย","province":"กรุงเทพมหานคร","source":"catalog.dra.go.th · dra_0302_01 (BKK subset)","source_url":"https://data.go.th/dataset/dra_0302_01"}},{"type":"Feature","geometry":{"type":"Point","coordinates":[100.5950902,13.76024559]},"properties":{"id":"royal-temple:42","kind":"royal-temple","name_th":"วัดพระราม9กาญจนาภิเษก(ธ)","name_en":null,"kathin_type":"พระกฐินพระราชทาน","address":"แขวงบางกะปิ เขตห้วยขวาง, กรุงเทพมหานคร","sub_district":"บางกะปิ","district":"ห้วยขวาง","province":"กรุงเทพมหานคร","source":"catalog.dra.go.th · dra_0302_01 (BKK subset)","source_url":"https://data.go.th/dataset/dra_0302_01"}},{"type":"Feature","geometry":{"type":"Point","coordinates":[100.5943401,13.87432275]},"properties":{"id":"royal-temple:43","kind":"royal-temple","name_th":"วัดพระศรีมหาธาตุ(ธ)","name_en":null,"kathin_type":"พระกฐินพระราชทาน","address":"แขวงอนุสาวรีย์ เขตบางเขน, กรุงเทพมหานคร","sub_district":"อนุสาวรีย์","district":"บางเขน","province":"กรุงเทพมหานคร","source":"catalog.dra.go.th · dra_0302_01 (BKK subset)","source_url":"https://data.go.th/dataset/dra_0302_01"}},{"type":"Feature","geometry":{"type":"Point","coordinates":[100.4968684,13.73346343]},"properties":{"id":"royal-temple:44","kind":"royal-temple","name_th":"วัดพิชยญาติการาม","name_en":null,"kathin_type":"พระกฐินพระราชทาน","address":"แขวงสมเด็จเจ้าพระยา เขตคลองสาน, กรุงเทพมหานคร","sub_district":"สมเด็จเจ้าพระยา","district":"คลองสาน","province":"กรุงเทพมหานคร","source":"catalog.dra.go.th · dra_0302_01 (BKK subset)","source_url":"https://data.go.th/dataset/dra_0302_01"}},{"type":"Feature","geometry":{"type":"Point","coordinates":[100.4838881,13.72055207]},"properties":{"id":"royal-temple:45","kind":"royal-temple","name_th":"วัดโพธินิมิตสถิตมหาสีมาราม","name_en":null,"kathin_type":"พระกฐินพระราชทาน","address":"แขวงบางยี่เรือ เขตธนบุรี, กรุงเทพมหานคร","sub_district":"บางยี่เรือ","district":"ธนบุรี","province":"กรุงเทพมหานคร","source":"catalog.dra.go.th · dra_0302_01 (BKK subset)","source_url":"https://data.go.th/dataset/dra_0302_01"}},{"type":"Feature","geometry":{"type":"Point","coordinates":[100.498192,13.78017111]},"properties":{"id":"royal-temple:46","kind":"royal-temple","name_th":"วัดภคินีนาถ","name_en":null,"kathin_type":"พระกฐินพระราชทาน","address":"แขวงบางยี่ขัน เขตบางพลัด, กรุงเทพมหานคร","sub_district":"บางยี่ขัน","district":"บางพลัด","province":"กรุงเทพมหานคร","source":"catalog.dra.go.th · dra_0302_01 (BKK subset)","source_url":"https://data.go.th/dataset/dra_0302_01"}},{"type":"Feature","geometry":{"type":"Point","coordinates":[100.4991943,13.75459253]},"properties":{"id":"royal-temple:47","kind":"royal-temple","name_th":"วัดมหรรณพาราม","name_en":null,"kathin_type":"พระกฐินพระราชทาน","address":"แขวงเสาชิงช้า เขตพระนคร, กรุงเทพมหานคร","sub_district":"เสาชิงช้า","district":"พระนคร","province":"กรุงเทพมหานคร","source":"catalog.dra.go.th · dra_0302_01 (BKK subset)","source_url":"https://data.go.th/dataset/dra_0302_01"}},{"type":"Feature","geometry":{"type":"Point","coordinates":[100.5162528,13.73255869]},"properties":{"id":"royal-temple:48","kind":"royal-temple","name_th":"วัดมหาพฤฒาราม","name_en":null,"kathin_type":"พระกฐินพระราชทาน","address":"แขวงมหาพฤฒาราม เขตบางรัก, กรุงเทพมหานคร","sub_district":"มหาพฤฒาราม","district":"บางรัก","province":"กรุงเทพมหานคร","source":"catalog.dra.go.th · dra_0302_01 (BKK subset)","source_url":"https://data.go.th/dataset/dra_0302_01"}},{"type":"Feature","geometry":{"type":"Point","coordinates":[100.4896424,13.74156131]},"properties":{"id":"royal-temple:49","kind":"royal-temple","name_th":"วัดโมลีโลกยาราม","name_en":null,"kathin_type":"พระกฐินพระราชทาน","address":"แขวงวัดอรุณ เขตบางกอกใหญ่, กรุงเทพมหานคร","sub_district":"วัดอรุณ","district":"บางกอกใหญ่","province":"กรุงเทพมหานคร","source":"catalog.dra.go.th · dra_0302_01 (BKK subset)","source_url":"https://data.go.th/dataset/dra_0302_01"}},{"type":"Feature","geometry":{"type":"Point","coordinates":[100.6191353,13.71073597]},"properties":{"id":"royal-temple:50","kind":"royal-temple","name_th":"วัดยาง","name_en":null,"kathin_type":"พระกฐินพระราชทาน","address":"แขวงสวนหลวง เขตสวนหลวง, กรุงเทพมหานคร","sub_district":"สวนหลวง","district":"สวนหลวง","province":"กรุงเทพมหานคร","source":"catalog.dra.go.th · dra_0302_01 (BKK subset)","source_url":"https://data.go.th/dataset/dra_0302_01"}},{"type":"Feature","geometry":{"type":"Point","coordinates":[100.5140482,13.71753069]},"properties":{"id":"royal-temple:51","kind":"royal-temple","name_th":"วัดยานนาวา","name_en":null,"kathin_type":"พระกฐินพระราชทาน","address":"แขวงยานนาวา เขตสาทร, กรุงเทพมหานคร","sub_district":"ยานนาวา","district":"สาทร","province":"กรุงเทพมหานคร","source":"catalog.dra.go.th · dra_0302_01 (BKK subset)","source_url":"https://data.go.th/dataset/dra_0302_01"}},{"type":"Feature","geometry":{"type":"Point","coordinates":[100.4854127,13.75267825]},"properties":{"id":"royal-temple:52","kind":"royal-temple","name_th":"วัดระฆังโฆสิตาราม","name_en":null,"kathin_type":"พระกฐินพระราชทาน","address":"แขวงศิริราช เขตบางกอกน้อย, กรุงเทพมหานคร","sub_district":"ศิริราช","district":"บางกอกน้อย","province":"กรุงเทพมหานคร","source":"catalog.dra.go.th · dra_0302_01 (BKK subset)","source_url":"https://data.go.th/dataset/dra_0302_01"}},{"type":"Feature","geometry":{"type":"Point","coordinates":[100.4543331,13.75888393]},"properties":{"id":"royal-temple:53","kind":"royal-temple","name_th":"วัดรัชฎาธิษฐาน","name_en":null,"kathin_type":"พระกฐินพระราชทาน","address":"แขวงคลองชักพระ เขตตลิ่งชัน, กรุงเทพมหานคร","sub_district":"คลองชักพระ","district":"ตลิ่งชัน","province":"กรุงเทพมหานคร","source":"catalog.dra.go.th · dra_0302_01 (BKK subset)","source_url":"https://data.go.th/dataset/dra_0302_01"}},{"type":"Feature","geometry":{"type":"Point","coordinates":[100.4796162,13.7219969]},"properties":{"id":"royal-temple:54","kind":"royal-temple","name_th":"วัดราชคฤห์","name_en":null,"kathin_type":"พระกฐินพระราชทาน","address":"แขวงบางยี่เรือ เขตธนบุรี, กรุงเทพมหานคร","sub_district":"บางยี่เรือ","district":"ธนบุรี","province":"กรุงเทพมหานคร","source":"catalog.dra.go.th · dra_0302_01 (BKK subset)","source_url":"https://data.go.th/dataset/dra_0302_01"}},{"type":"Feature","geometry":{"type":"Point","coordinates":[100.5042527,13.7546069]},"properties":{"id":"royal-temple:55","kind":"royal-temple","name_th":"วัดราชนัดดาราม","name_en":null,"kathin_type":"พระกฐินพระราชทาน","address":"แขวงบวรนิเวศ เขตพระนคร, กรุงเทพมหานคร","sub_district":"บวรนิเวศ","district":"พระนคร","province":"กรุงเทพมหานคร","source":"catalog.dra.go.th · dra_0302_01 (BKK subset)","source_url":"https://data.go.th/dataset/dra_0302_01"}},{"type":"Feature","geometry":{"type":"Point","coordinates":[100.4992543,13.7422568]},"properties":{"id":"royal-temple:56","kind":"royal-temple","name_th":"วัดราชบุรณะ","name_en":null,"kathin_type":"พระกฐินพระราชทาน","address":"แขวงวังบูรพาภิรมย์ เขตพระนคร, กรุงเทพมหานคร","sub_district":"วังบูรพาภิรมย์","district":"พระนคร","province":"กรุงเทพมหานคร","source":"catalog.dra.go.th · dra_0302_01 (BKK subset)","source_url":"https://data.go.th/dataset/dra_0302_01"}},{"type":"Feature","geometry":{"type":"Point","coordinates":[100.5051562,13.78019188]},"properties":{"id":"royal-temple:57","kind":"royal-temple","name_th":"วัดราชผาติการาม(ธ)","name_en":null,"kathin_type":"พระกฐินพระราชทาน","address":"แขวงวชิรพยาบาล เขตดุสิต, กรุงเทพมหานคร","sub_district":"วชิรพยาบาล","district":"ดุสิต","province":"กรุงเทพมหานคร","source":"catalog.dra.go.th · dra_0302_01 (BKK subset)","source_url":"https://data.go.th/dataset/dra_0302_01"}},{"type":"Feature","geometry":{"type":"Point","coordinates":[100.5039439,13.70616657]},"properties":{"id":"royal-temple:58","kind":"royal-temple","name_th":"วัดราชสิงขร","name_en":null,"kathin_type":"พระกฐินพระราชทาน","address":"แขวงวัดพระยาไกร เขตบางคอแหลม, กรุงเทพมหานคร","sub_district":"วัดพระยาไกร","district":"บางคอแหลม","province":"กรุงเทพมหานคร","source":"catalog.dra.go.th · dra_0302_01 (BKK subset)","source_url":"https://data.go.th/dataset/dra_0302_01"}},{"type":"Feature","geometry":{"type":"Point","coordinates":[100.483786,13.73667009]},"properties":{"id":"royal-temple:59","kind":"royal-temple","name_th":"วัดราชสิทธาราม","name_en":null,"kathin_type":"พระกฐินพระราชทาน","address":"แขวงวัดท่าพระ เขตบางกอกใหญ่, กรุงเทพมหานคร","sub_district":"วัดท่าพระ","district":"บางกอกใหญ่","province":"กรุงเทพมหานคร","source":"catalog.dra.go.th · dra_0302_01 (BKK subset)","source_url":"https://data.go.th/dataset/dra_0302_01"}},{"type":"Feature","geometry":{"type":"Point","coordinates":[100.6354577,13.69133041]},"properties":{"id":"royal-temple:60","kind":"royal-temple","name_th":"วัดวชิรธรรมสาธิต","name_en":null,"kathin_type":"พระกฐินพระราชทาน","address":"แขวงบางจาก เขตพระโขนง, กรุงเทพมหานคร","sub_district":"บางจาก","district":"พระโขนง","province":"กรุงเทพมหานคร","source":"catalog.dra.go.th · dra_0302_01 (BKK subset)","source_url":"https://data.go.th/dataset/dra_0302_01"}},{"type":"Feature","geometry":{"type":"Point","coordinates":[100.4860465,13.72560121]},"properties":{"id":"royal-temple:61","kind":"royal-temple","name_th":"วัดเวฬุราชิณ","name_en":null,"kathin_type":"พระกฐินพระราชทาน","address":"แขวงบางยี่เรือ เขตธนบุรี, กรุงเทพมหานคร","sub_district":"บางยี่เรือ","district":"ธนบุรี","province":"กรุงเทพมหานคร","source":"catalog.dra.go.th · dra_0302_01 (BKK subset)","source_url":"https://data.go.th/dataset/dra_0302_01"}},{"type":"Feature","geometry":{"type":"Point","coordinates":[100.4730939,13.76727866]},"properties":{"id":"royal-temple:62","kind":"royal-temple","name_th":"วัดศรีสุดาราม","name_en":null,"kathin_type":"พระกฐินพระราชทาน","address":"แขวงบางขุนนนท์ เขตบางกอกน้อย, กรุงเทพมหานคร","sub_district":"บางขุนนนท์","district":"บางกอกน้อย","province":"กรุงเทพมหานคร","source":"catalog.dra.go.th · dra_0302_01 (BKK subset)","source_url":"https://data.go.th/dataset/dra_0302_01"}},{"type":"Feature","geometry":{"type":"Point","coordinates":[100.5182993,13.81324022]},"properties":{"id":"royal-temple:64","kind":"royal-temple","name_th":"วัดสร้อยทอง","name_en":null,"kathin_type":"พระกฐินพระราชทาน","address":"แขวงบางซื่อ เขตบางซื่อ, กรุงเทพมหานคร","sub_district":"บางซื่อ","district":"บางซื่อ","province":"กรุงเทพมหานคร","source":"catalog.dra.go.th · dra_0302_01 (BKK subset)","source_url":"https://data.go.th/dataset/dra_0302_01"}},{"type":"Feature","geometry":{"type":"Point","coordinates":[100.5082525,13.75392258]},"properties":{"id":"royal-temple:65","kind":"royal-temple","name_th":"วัดสระเกศ","name_en":null,"kathin_type":"พระกฐินพระราชทาน","address":"แขวงบ้านบาตร เขตป้อมปราบศัตรูพ่าย, กรุงเทพมหานคร","sub_district":"บ้านบาตร","district":"ป้อมปราบศัตรูพ่าย","province":"กรุงเทพมหานคร","source":"catalog.dra.go.th · dra_0302_01 (BKK subset)","source_url":"https://data.go.th/dataset/dra_0302_01"}},{"type":"Feature","geometry":{"type":"Point","coordinates":[100.4843151,13.7340545]},"properties":{"id":"royal-temple:66","kind":"royal-temple","name_th":"วัดสังข์กระจาย","name_en":null,"kathin_type":"พระกฐินพระราชทาน","address":"แขวงวัดท่าพระ เขตบางกอกใหญ่, กรุงเทพมหานคร","sub_district":"วัดท่าพระ","district":"บางกอกใหญ่","province":"กรุงเทพมหานคร","source":"catalog.dra.go.th · dra_0302_01 (BKK subset)","source_url":"https://data.go.th/dataset/dra_0302_01"}},{"type":"Feature","geometry":{"type":"Point","coordinates":[100.4976004,13.76424727]},"properties":{"id":"royal-temple:67","kind":"royal-temple","name_th":"วัดสังเวชวิศยาราม","name_en":null,"kathin_type":"พระกฐินพระราชทาน","address":"แขวงวัดสามพระยา เขตพระนคร, กรุงเทพมหานคร","sub_district":"วัดสามพระยา","district":"พระนคร","province":"กรุงเทพมหานคร","source":"catalog.dra.go.th · dra_0302_01 (BKK subset)","source_url":"https://data.go.th/dataset/dra_0302_01"}},{"type":"Feature","geometry":{"type":"Point","coordinates":[100.5100885,13.7383714]},"properties":{"id":"royal-temple:68","kind":"royal-temple","name_th":"วัดสัมพันธวงศาราม(ธ)","name_en":null,"kathin_type":"พระกฐินพระราชทาน","address":"แขวงสัมพันธวงศ์ เขตสัมพันธวงศ์, กรุงเทพมหานคร","sub_district":"สัมพันธวงศ์","district":"สัมพันธวงศ์","province":"กรุงเทพมหานคร","source":"catalog.dra.go.th · dra_0302_01 (BKK subset)","source_url":"https://data.go.th/dataset/dra_0302_01"}},{"type":"Feature","geometry":{"type":"Point","coordinates":[100.49909,13.76580203]},"properties":{"id":"royal-temple:69","kind":"royal-temple","name_th":"วัดสามพระยา","name_en":null,"kathin_type":"พระกฐินพระราชทาน","address":"แขวงวัดสามพระยา เขตพระนคร, กรุงเทพมหานคร","sub_district":"วัดสามพระยา","district":"พระนคร","province":"กรุงเทพมหานคร","source":"catalog.dra.go.th · dra_0302_01 (BKK subset)","source_url":"https://data.go.th/dataset/dra_0302_01"}},{"type":"Feature","geometry":{"type":"Point","coordinates":[100.476685,13.7633069]},"properties":{"id":"royal-temple:70","kind":"royal-temple","name_th":"วัดสุวรรณาราม","name_en":null,"kathin_type":"พระกฐินพระราชทาน","address":"แขวงบางขุนนนท์ เขตบางกอกน้อย, กรุงเทพมหานคร","sub_district":"บางขุนนนท์","district":"บางกอกน้อย","province":"กรุงเทพมหานคร","source":"catalog.dra.go.th · dra_0302_01 (BKK subset)","source_url":"https://data.go.th/dataset/dra_0302_01"}},{"type":"Feature","geometry":{"type":"Point","coordinates":[100.5556064,13.8401874]},"properties":{"id":"royal-temple:71","kind":"royal-temple","name_th":"วัดเสมียนนารี","name_en":null,"kathin_type":"พระกฐินพระราชทาน","address":"แขวงลาดยาว เขตจตุจักร, กรุงเทพมหานคร","sub_district":"ลาดยาว","district":"จตุจักร","province":"กรุงเทพมหานคร","source":"catalog.dra.go.th · dra_0302_01 (BKK subset)","source_url":"https://data.go.th/dataset/dra_0302_01"}},{"type":"Feature","geometry":{"type":"Point","coordinates":[100.4878912,13.73952896]},"properties":{"id":"royal-temple:72","kind":"royal-temple","name_th":"วัดหงส์รัตนาราม","name_en":null,"kathin_type":"พระกฐินพระราชทาน","address":"แขวงวัดอรุณ เขตบางกอกใหญ่, กรุงเทพมหานคร","sub_district":"วัดอรุณ","district":"บางกอกใหญ่","province":"กรุงเทพมหานคร","source":"catalog.dra.go.th · dra_0302_01 (BKK subset)","source_url":"https://data.go.th/dataset/dra_0302_01"}},{"type":"Feature","geometry":{"type":"Point","coordinates":[100.4650228,13.70517085]},"properties":{"id":"royal-temple:73","kind":"royal-temple","name_th":"วัดหนัง","name_en":null,"kathin_type":"พระกฐินพระราชทาน","address":"แขวงบางค้อ เขตจอมทอง, กรุงเทพมหานคร","sub_district":"บางค้อ","district":"จอมทอง","province":"กรุงเทพมหานคร","source":"catalog.dra.go.th · dra_0302_01 (BKK subset)","source_url":"https://data.go.th/dataset/dra_0302_01"}},{"type":"Feature","geometry":{"type":"Point","coordinates":[100.5823255,13.88848358]},"properties":{"id":"royal-temple:74","kind":"royal-temple","name_th":"วัดหลักสี่","name_en":null,"kathin_type":"พระกฐินพระราชทาน","address":"แขวงตลาดบางเขน เขตหลักสี่, กรุงเทพมหานคร","sub_district":"ตลาดบางเขน","district":"หลักสี่","province":"กรุงเทพมหานคร","source":"catalog.dra.go.th · dra_0302_01 (BKK subset)","source_url":"https://data.go.th/dataset/dra_0302_01"}},{"type":"Feature","geometry":{"type":"Point","coordinates":[100.5293568,13.73139313]},"properties":{"id":"royal-temple:75","kind":"royal-temple","name_th":"วัดหัวลำโพง","name_en":null,"kathin_type":"พระกฐินพระราชทาน","address":"แขวงสี่พระยา เขตบางรัก, กรุงเทพมหานคร","sub_district":"สี่พระยา","district":"บางรัก","province":"กรุงเทพมหานคร","source":"catalog.dra.go.th · dra_0302_01 (BKK subset)","source_url":"https://data.go.th/dataset/dra_0302_01"}},{"type":"Feature","geometry":{"type":"Point","coordinates":[100.4911154,13.72881582]},"properties":{"id":"royal-temple:76","kind":"royal-temple","name_th":"วัดหิรัญรูจี","name_en":null,"kathin_type":"พระกฐินพระราชทาน","address":"แขวงหิรัญรูจี เขตธนบุรี, กรุงเทพมหานคร","sub_district":"หิรัญรูจี","district":"ธนบุรี","province":"กรุงเทพมหานคร","source":"catalog.dra.go.th · dra_0302_01 (BKK subset)","source_url":"https://data.go.th/dataset/dra_0302_01"}},{"type":"Feature","geometry":{"type":"Point","coordinates":[100.4982327,13.73425967]},"properties":{"id":"royal-temple:77","kind":"royal-temple","name_th":"วัดอนงคาราม","name_en":null,"kathin_type":"พระกฐินพระราชทาน","address":"แขวงสมเด็จเจ้าพระยา เขตคลองสาน, กรุงเทพมหานคร","sub_district":"สมเด็จเจ้าพระยา","district":"คลองสาน","province":"กรุงเทพมหานคร","source":"catalog.dra.go.th · dra_0302_01 (BKK subset)","source_url":"https://data.go.th/dataset/dra_0302_01"}},{"type":"Feature","geometry":{"type":"Point","coordinates":[100.4833601,13.76007586]},"properties":{"id":"royal-temple:78","kind":"royal-temple","name_th":"วัดอมรินทราราม","name_en":null,"kathin_type":"พระกฐินพระราชทาน","address":"แขวงศิริราช เขตบางกอกน้อย, กรุงเทพมหานคร","sub_district":"ศิริราช","district":"บางกอกน้อย","province":"กรุงเทพมหานคร","source":"catalog.dra.go.th · dra_0302_01 (BKK subset)","source_url":"https://data.go.th/dataset/dra_0302_01"}},{"type":"Feature","geometry":{"type":"Point","coordinates":[100.4698567,13.71976816]},"properties":{"id":"royal-temple:79","kind":"royal-temple","name_th":"วัดอัปสรสวรรค์","name_en":null,"kathin_type":"พระกฐินพระราชทาน","address":"แขวงปากคลองภาษีเจริญ เขตภาษีเจริญ, กรุงเทพมหานคร","sub_district":"ปากคลองภาษีเจริญ","district":"ภาษีเจริญ","province":"กรุงเทพมหานคร","source":"catalog.dra.go.th · dra_0302_01 (BKK subset)","source_url":"https://data.go.th/dataset/dra_0302_01"}},{"type":"Feature","geometry":{"type":"Point","coordinates":[100.5055987,13.79006921]},"properties":{"id":"royal-temple:80","kind":"royal-temple","name_th":"วัดอาวุธวิกสิตาราม(ธ)","name_en":null,"kathin_type":"พระกฐินพระราชทาน","address":"แขวงบางพลัด เขตบางพลัด, กรุงเทพมหานคร","sub_district":"บางพลัด","district":"บางพลัด","province":"กรุงเทพมหานคร","source":"catalog.dra.go.th · dra_0302_01 (BKK subset)","source_url":"https://data.go.th/dataset/dra_0302_01"}},{"type":"Feature","geometry":{"type":"Point","coordinates":[100.503108,13.76650069]},"properties":{"id":"royal-temple:81","kind":"royal-temple","name_th":"วัดอินทรวิหาร","name_en":null,"kathin_type":"พระกฐินพระราชทาน","address":"แขวงบางขุนพรหม เขตพระนคร, กรุงเทพมหานคร","sub_district":"บางขุนพรหม","district":"พระนคร","province":"กรุงเทพมหานคร","source":"catalog.dra.go.th · dra_0302_01 (BKK subset)","source_url":"https://data.go.th/dataset/dra_0302_01"}},{"type":"Feature","geometry":{"type":"Point","coordinates":[100.4831397,13.72358479]},"properties":{"id":"royal-temple:82","kind":"royal-temple","name_th":"วัดอินทาราม","name_en":null,"kathin_type":"พระกฐินพระราชทาน","address":"แขวงบางยี่เรือ เขตธนบุรี, กรุงเทพมหานคร","sub_district":"บางยี่เรือ","district":"ธนบุรี","province":"กรุงเทพมหานคร","source":"catalog.dra.go.th · dra_0302_01 (BKK subset)","source_url":"https://data.go.th/dataset/dra_0302_01"}},{"type":"Feature","geometry":{"type":"Point","coordinates":[100.4931316,13.74641248]},"properties":{"id":"royal-temple:1","kind":"royal-temple","name_th":"วัดพระเชตุพนวิมลมังคลาราม","name_en":null,"kathin_type":"พระกฐินหลวง","address":"แขวงพระบรมมหาราชวัง เขตพระนคร, กรุงเทพมหานคร","sub_district":"พระบรมมหาราชวัง","district":"พระนคร","province":"กรุงเทพมหานคร","source":"catalog.dra.go.th · dra_0302_01 (BKK subset)","source_url":"https://data.go.th/dataset/dra_0302_01"}},{"type":"Feature","geometry":{"type":"Point","coordinates":[100.4887824,13.74448625]},"properties":{"id":"royal-temple:2","kind":"royal-temple","name_th":"วัดอรุณราชวราราม","name_en":null,"kathin_type":"พระกฐินหลวง","address":"แขวงวัดอรุณ เขตบางกอกใหญ่, กรุงเทพมหานคร","sub_district":"วัดอรุณ","district":"บางกอกใหญ่","province":"กรุงเทพมหานคร","source":"catalog.dra.go.th · dra_0302_01 (BKK subset)","source_url":"https://data.go.th/dataset/dra_0302_01"}},{"type":"Feature","geometry":{"type":"Point","coordinates":[100.4647919,13.70222532]},"properties":{"id":"royal-temple:3","kind":"royal-temple","name_th":"วัดราชโอรสารามราชวรวิหาร (จอมทอง)","name_en":null,"kathin_type":"พระกฐินหลวง","address":"แขวงบางค้อ เขตจอมทอง, กรุงเทพมหานคร","sub_district":"บางค้อ","district":"จอมทอง","province":"กรุงเทพมหานคร","source":"catalog.dra.go.th · dra_0302_01 (BKK subset)","source_url":"https://data.go.th/dataset/dra_0302_01"}},{"type":"Feature","geometry":{"type":"Point","coordinates":[100.4953981,13.74948119]},"properties":{"id":"royal-temple:4","kind":"royal-temple","name_th":"วัดราชประดิษฐสถิตมหาสีมาราม","name_en":null,"kathin_type":"พระกฐินหลวง","address":"แขวงพระบรมมหาราชวัง เขตพระนคร, กรุงเทพมหานคร","sub_district":"พระบรมมหาราชวัง","district":"พระนคร","province":"กรุงเทพมหานคร","source":"catalog.dra.go.th · dra_0302_01 (BKK subset)","source_url":"https://data.go.th/dataset/dra_0302_01"}},{"type":"Feature","geometry":{"type":"Point","coordinates":[100.5139938,13.76665095]},"properties":{"id":"royal-temple:5","kind":"royal-temple","name_th":"วัดเบญจมบพิตรดุสิตวนาราม","name_en":null,"kathin_type":"พระกฐินหลวง","address":"แขวงดุสิต เขตดุสิต, กรุงเทพมหานคร","sub_district":"ดุสิต","district":"ดุสิต","province":"กรุงเทพมหานคร","source":"catalog.dra.go.th · dra_0302_01 (BKK subset)","source_url":"https://data.go.th/dataset/dra_0302_01"}},{"type":"Feature","geometry":{"type":"Point","coordinates":[100.5004473,13.75966505]},"properties":{"id":"royal-temple:6","kind":"royal-temple","name_th":"วัดบวรนิเวศวิหาร","name_en":null,"kathin_type":"พระกฐินหลวง","address":"แขวงวัดบวรนิเวศ เขตพระนคร, กรุงเทพมหานคร","sub_district":"วัดบวรนิเวศ","district":"พระนคร","province":"กรุงเทพมหานคร","source":"catalog.dra.go.th · dra_0302_01 (BKK subset)","source_url":"https://data.go.th/dataset/dra_0302_01"}},{"type":"Feature","geometry":{"type":"Point","coordinates":[100.4971902,13.74919009]},"properties":{"id":"royal-temple:7","kind":"royal-temple","name_th":"วัดราชบพิธสถิตมหาสีมาราม","name_en":null,"kathin_type":"พระกฐินหลวง","address":"แขวงวัดราชบพิธ เขตพระนคร, กรุงเทพมหานคร","sub_district":"วัดราชบพิธ","district":"พระนคร","province":"กรุงเทพมหานคร","source":"catalog.dra.go.th · dra_0302_01 (BKK subset)","source_url":"https://data.go.th/dataset/dra_0302_01"}},{"type":"Feature","geometry":{"type":"Point","coordinates":[100.5008163,13.75082226]},"properties":{"id":"royal-temple:8","kind":"royal-temple","name_th":"วัดสุทัศนเทพวราราม","name_en":null,"kathin_type":"พระกฐินหลวง","address":"แขวงเสาชิงช้า เขตพระนคร, กรุงเทพมหานคร","sub_district":"เสาชิงช้า","district":"พระนคร","province":"กรุงเทพมหานคร","source":"catalog.dra.go.th · dra_0302_01 (BKK subset)","source_url":"https://data.go.th/dataset/dra_0302_01"}},{"type":"Feature","geometry":{"type":"Point","coordinates":[100.5149379,13.7466501]},"properties":{"id":"royal-temple:9","kind":"royal-temple","name_th":"วัดเทพศิรินทราวาส","name_en":null,"kathin_type":"พระกฐินหลวง","address":"แขวงวัดเทพศิรินทร์ เขตป้อมปราบศัตรูพ่าย, กรุงเทพมหานคร","sub_district":"วัดเทพศิรินทร์","district":"ป้อมปราบศัตรูพ่าย","province":"กรุงเทพมหานคร","source":"catalog.dra.go.th · dra_0302_01 (BKK subset)","source_url":"https://data.go.th/dataset/dra_0302_01"}},{"type":"Feature","geometry":{"type":"Point","coordinates":[100.4907826,13.7551588]},"properties":{"id":"royal-temple:10","kind":"royal-temple","name_th":"วัดมหาธาตุยุวราชรังสฤษฎิ์","name_en":null,"kathin_type":"พระกฐินหลวง","address":"แขวงพระบรมมหาราชวัง เขตพระนคร, กรุงเทพมหานคร","sub_district":"พระบรมมหาราชวัง","district":"พระนคร","province":"กรุงเทพมหานคร","source":"catalog.dra.go.th · dra_0302_01 (BKK subset)","source_url":"https://data.go.th/dataset/dra_0302_01"}},{"type":"Feature","geometry":{"type":"Point","coordinates":[100.503395,13.77522195]},"properties":{"id":"royal-temple:11","kind":"royal-temple","name_th":"วัดราชาธิวาส ราชวรวิหาร","name_en":null,"kathin_type":"พระกฐินหลวง","address":"แขวงวชิรพยาบาล เขตดุสิต, กรุงเทพมหานคร","sub_district":"วชิรพยาบาล","district":"ดุสิต","province":"กรุงเทพมหานคร","source":"catalog.dra.go.th · dra_0302_01 (BKK subset)","source_url":"https://data.go.th/dataset/dra_0302_01"}},{"type":"Feature","geometry":{"type":"Point","coordinates":[100.5064775,13.76411179]},"properties":{"id":"royal-temple:12","kind":"royal-temple","name_th":"วัดมกุฏกษัตริยาราม ราชวรวิหาร","name_en":null,"kathin_type":"พระกฐินหลวง","address":"แขวงบางขุนพรหม เขตพระนคร, กรุงเทพมหานคร","sub_district":"บางขุนพรหม","district":"พระนคร","province":"กรุงเทพมหานคร","source":"catalog.dra.go.th · dra_0302_01 (BKK subset)","source_url":"https://data.go.th/dataset/dra_0302_01"}},{"type":"Feature","geometry":{"type":"Point","coordinates":[100.510448,13.7603881]},"properties":{"id":"royal-temple:13","kind":"royal-temple","name_th":"วัดโสมมัส ราชวรวิหาร","name_en":null,"kathin_type":"พระกฐินหลวง","address":"แขวงวัดโสมนัส เขตป้อมปราบศัตรูพ่าย, กรุงเทพมหานคร","sub_district":"วัดโสมนัส","district":"ป้อมปราบศัตรูพ่าย","province":"กรุงเทพมหานคร","source":"catalog.dra.go.th · dra_0302_01 (BKK subset)","source_url":"https://data.go.th/dataset/dra_0302_01"}}]}