{"type":"FeatureCollection","features":[{"type":"Feature","id":1,"geometry":{"type":"Point","coordinates":[100.435425,13.567015]},"properties":{"gate_name":"ประตูระบายน้ำคลองรางยายเพียร","district_t":"บางขุนเทียน","year":"2563","hy_lname":"คลองศาลเตี้ย","owner":"อุโมงค์ธนบุรี","name":"ประตูระบายน้ำคลองรางยายเพียร","district":"บางขุนเทียน"}},{"type":"Feature","id":2,"geometry":{"type":"Point","coordinates":[100.4365,13.568154]},"properties":{"gate_name":"ประตูระบายน้ำคลองแยกคลองเชิงตาแพ","district_t":"บางขุนเทียน","year":"2563","hy_lname":"คลองหนองพงไหม้","owner":"อุโมงค์ธนบุรี","name":"ประตูระบายน้ำคลองแยกคลองเชิงตาแพ","district":"บางขุนเทียน"}},{"type":"Feature","id":3,"geometry":{"type":"Point","coordinates":[100.418625,13.568766]},"properties":{"gate_name":"ประตูระบายน้ำคลองรางยายคง","district_t":"บางขุนเทียน","year":"2563","hy_lname":"-","owner":"อุโมงค์ธนบุรี","name":"ประตูระบายน้ำคลองรางยายคง","district":"บางขุนเทียน"}},{"type":"Feature","id":4,"geometry":{"type":"Point","coordinates":[100.398973,13.570439]},"properties":{"gate_name":"ประตูระบายน้ำคลองหัวกระบือ","district_t":"บางขุนเทียน","year":"2563","hy_lname":"คลองรางยายคง","owner":"อุโมงค์ธนบุรี","name":"ประตูระบายน้ำคลองหัวกระบือ","district":"บางขุนเทียน"}},{"type":"Feature","id":5,"geometry":{"type":"Point","coordinates":[100.442,13.5706]},"properties":{"gate_name":"ประตูระบายน้ำประตูเรือสัญจรคลองลูกวัวเก่า","district_t":"บางขุนเทียน","year":"2563","hy_lname":"คลองลูกวัวเก่า","owner":"อุโมงค์ธนบุรี","name":"ประตูระบายน้ำประตูเรือสัญจรคลองลูกวัวเก่า","district":"บางขุนเทียน"}},{"type":"Feature","id":6,"geometry":{"type":"Point","coordinates":[100.3904,13.5972]},"properties":{"gate_name":"ประตูระบายน้ำคลองบางขนุน","district_t":"บางขุนเทียน","year":"2564","hy_lname":"คลองบางขนุน","owner":"อุโมงค์ธนบุรี","name":"ประตูระบายน้ำคลองบางขนุน","district":"บางขุนเทียน"}},{"type":"Feature","id":7,"geometry":{"type":"Point","coordinates":[100.401872,13.605337]},"properties":{"gate_name":"ประตูระบายน้ำคลองม่วง","district_t":"บางขุนเทียน","year":"2563","hy_lname":"คลองหน้าวัด","owner":"อุโมงค์ธนบุรี","name":"ประตูระบายน้ำคลองม่วง","district":"บางขุนเทียน"}},{"type":"Feature","id":8,"geometry":{"type":"Point","coordinates":[100.45486,13.605027]},"properties":{"gate_name":"ประตูระบายน้ำคลองนา","district_t":"บางขุนเทียน","year":"2563","hy_lname":"คลองนา","owner":"อุโมงค์ธนบุรี","name":"ประตูระบายน้ำคลองนา","district":"บางขุนเทียน"}},{"type":"Feature","id":9,"geometry":{"type":"Point","coordinates":[100.453,13.614342]},"properties":{"gate_name":"ประตูระบายน้ำคลองรางสะแก","district_t":"บางขุนเทียน","year":"2563","hy_lname":"คลองรางสะแก","owner":"อุโมงค์ธนบุรี","name":"ประตูระบายน้ำคลองรางสะแก","district":"บางขุนเทียน"}},{"type":"Feature","id":10,"geometry":{"type":"Point","coordinates":[100.51124,13.618263]},"properties":{"gate_name":"ประตูระบายน้ำคลองหนองรี  (ตอนแนวถนนประชาอุทิศ)","district_t":"ทุ่งครุ","year":"2563","hy_lname":"คลองหนองรี","owner":"อาคารบังคับน้ำ ธนบุรี","name":"ประตูระบายน้ำคลองหนองรี  (ตอนแนวถนนประชาอุทิศ)","district":"ทุ่งครุ"}},{"type":"Feature","id":11,"geometry":{"type":"Point","coordinates":[100.452264,13.619373]},"properties":{"gate_name":"ประตูระบายน้ำคลองบุญสุข","district_t":"บางขุนเทียน","year":"2563","hy_lname":"คลองบุญสุข","owner":"อุโมงค์ธนบุรี","name":"ประตูระบายน้ำคลองบุญสุข","district":"บางขุนเทียน"}},{"type":"Feature","id":12,"geometry":{"type":"Point","coordinates":[100.420176,13.620127]},"properties":{"gate_name":"ประตูระบายน้ำคลองตรง","district_t":"บางขุนเทียน","year":"2564","hy_lname":"คลองตรง","owner":"อุโมงค์ธนบุรี","name":"ประตูระบายน้ำคลองตรง","district":"บางขุนเทียน"}},{"type":"Feature","id":13,"geometry":{"type":"Point","coordinates":[100.508657,13.623834]},"properties":{"gate_name":"ประตูระบายน้ำคลองรางตรง (ตอนแนวถนนประชาอุทิศ)","district_t":"ทุ่งครุ","year":"2563","hy_lname":"คลองรางตรง","owner":"อาคารบังคับน้ำ ธนบุรี","name":"ประตูระบายน้ำคลองรางตรง (ตอนแนวถนนประชาอุทิศ)","district":"ทุ่งครุ"}},{"type":"Feature","id":14,"geometry":{"type":"Point","coordinates":[100.449491,13.631763]},"properties":{"gate_name":"ประตูระบายน้ำคลองรางโพธิ์","district_t":"บางขุนเทียน","year":"2563","hy_lname":"คลองรางโพธิ์บน","owner":"อุโมงค์ธนบุรี","name":"ประตูระบายน้ำคลองรางโพธิ์","district":"บางขุนเทียน"}},{"type":"Feature","id":15,"geometry":{"type":"Point","coordinates":[100.64933,13.659361]},"properties":{"gate_name":"ประตูระบายน้ำคลองบางนา","district_t":"บางนา","year":"2563","hy_lname":"คลองบางนา","owner":"อาคารบังคับน้ำ 2","name":"ประตูระบายน้ำคลองบางนา","district":"บางนา"}},{"type":"Feature","id":16,"geometry":{"type":"Point","coordinates":[100.646709,13.669105]},"properties":{"gate_name":"ประตูระบายน้ำคลองเคล็ด (ถ.ศรีนครินทร์)","district_t":"ประเวศ","year":"2563","hy_lname":"คลองเคล็ด","owner":"อาคารบังคับน้ำ 2","name":"ประตูระบายน้ำคลองเคล็ด (ถ.ศรีนครินทร์)","district":"ประเวศ"}},{"type":"Feature","id":17,"geometry":{"type":"Point","coordinates":[100.536906,13.670905]},"properties":{"gate_name":"ประตูระบายน้ำคลองวัดด่านเหนือ","district_t":"ยานนาวา","year":"2563","hy_lname":"คลองวัดด่านเหนือ","owner":"อาคารบังคับน้ำ 2","name":"ประตูระบายน้ำคลองวัดด่านเหนือ","district":"ยานนาวา"}},{"type":"Feature","id":18,"geometry":{"type":"Point","coordinates":[100.5351,13.6713]},"properties":{"gate_name":"ประตูระบายน้ำคลองหลัง รร.เจ้าพระยาวิทยาคม","district_t":"ยานนาวา","year":"2563","hy_lname":"-","owner":"อาคารบังคับน้ำ 2","name":"ประตูระบายน้ำคลองหลัง รร.เจ้าพระยาวิทยาคม","district":"ยานนาวา"}},{"type":"Feature","id":19,"geometry":{"type":"Point","coordinates":[100.541073,13.670852]},"properties":{"gate_name":"ประตูระบายน้ำคลองโบสถ์","district_t":"ยานนาวา","year":"2563","hy_lname":"คลองโบสถ์","owner":"อาคารบังคับน้ำ 2","name":"ประตูระบายน้ำคลองโบสถ์","district":"ยานนาวา"}},{"type":"Feature","id":20,"geometry":{"type":"Point","coordinates":[100.545606,13.67304]},"properties":{"gate_name":"ประตูระบายน้ำคลองสาน","district_t":"ยานนาวา","year":"2563","hy_lname":"คลองสาน","owner":"อาคารบังคับน้ำ 2","name":"ประตูระบายน้ำคลองสาน","district":"ยานนาวา"}},{"type":"Feature","id":21,"geometry":{"type":"Point","coordinates":[100.532285,13.673381]},"properties":{"gate_name":"ประตูระบายน้ำคลองปริวาส","district_t":"ยานนาวา","year":"2563","hy_lname":"คลองวัดปริวาส","owner":"อาคารบังคับน้ำ 2","name":"ประตูระบายน้ำคลองปริวาส","district":"ยานนาวา"}},{"type":"Feature","id":22,"geometry":{"type":"Point","coordinates":[100.704265,13.672465]},"properties":{"gate_name":"ประตูระบายน้ำคลองอ้ายสลุด","district_t":"ประเวศ","year":"2563","hy_lname":"คลองอ้ายสลุด","owner":"อุโมงค์พระนคร","name":"ประตูระบายน้ำคลองอ้ายสลุด","district":"ประเวศ"}},{"type":"Feature","id":23,"geometry":{"type":"Point","coordinates":[100.5294,13.6758]},"properties":{"gate_name":"ประตูระบายน้ำคลองบางโพงพางใต้","district_t":"ยานนาวา","year":"2563","hy_lname":"คลองบางโพงพางใต้","owner":"อาคารบังคับน้ำ 2","name":"ประตูระบายน้ำคลองบางโพงพางใต้","district":"ยานนาวา"}},{"type":"Feature","id":24,"geometry":{"type":"Point","coordinates":[100.528069,13.676938]},"properties":{"gate_name":"ประตูระบายน้ำคลองบางโพงพางเหนือ","district_t":"ยานนาวา","year":"2563","hy_lname":"คลองบางโพงพางเหนือ","owner":"อาคารบังคับน้ำ 2","name":"ประตูระบายน้ำคลองบางโพงพางเหนือ","district":"ยานนาวา"}},{"type":"Feature","id":25,"geometry":{"type":"Point","coordinates":[100.6632,13.6779]},"properties":{"gate_name":"ประตูระบายน้ำคลองหนองบอน","district_t":"ประเวศ","year":"2563","hy_lname":"คลองหนองบอน","owner":"อุโมงค์พระนคร","name":"ประตูระบายน้ำคลองหนองบอน","district":"ประเวศ"}},{"type":"Feature","id":26,"geometry":{"type":"Point","coordinates":[100.525634,13.679228]},"properties":{"gate_name":"ประตูระบายน้ำคลองวัดทองบน","district_t":"ยานนาวา","year":"2563","hy_lname":"คลองวัดทองบน","owner":"อาคารบังคับน้ำ 2","name":"ประตูระบายน้ำคลองวัดทองบน","district":"ยานนาวา"}},{"type":"Feature","id":27,"geometry":{"type":"Point","coordinates":[100.705292,13.67886]},"properties":{"gate_name":"ประตูระบายน้ำคลองปากน้ำ","district_t":"ประเวศ","year":"2563","hy_lname":"คลองปากน้ำ","owner":"อุโมงค์พระนคร","name":"ประตูระบายน้ำคลองปากน้ำ","district":"ประเวศ"}},{"type":"Feature","id":28,"geometry":{"type":"Point","coordinates":[100.350471,13.68151]},"properties":{"gate_name":"ประตูระบายน้ำคลองมหาศร","district_t":"หนองแขม","year":"2563","hy_lname":"คลองมหาศร","owner":"อุโมงค์ธนบุรี","name":"ประตูระบายน้ำคลองมหาศร","district":"หนองแขม"}},{"type":"Feature","id":29,"geometry":{"type":"Point","coordinates":[100.524043,13.680699]},"properties":{"gate_name":"ประตูระบายน้ำคลองวัดดอกไม้","district_t":"ยานนาวา","year":"2563","hy_lname":"คลองวัดดอกไม้","owner":"อาคารบังคับน้ำ 2","name":"ประตูระบายน้ำคลองวัดดอกไม้","district":"ยานนาวา"}},{"type":"Feature","id":30,"geometry":{"type":"Point","coordinates":[100.513859,13.681625]},"properties":{"gate_name":"ประตูระบายน้ำคลองบางบูน","district_t":"ราษฎร์บูรณะ","year":"2563","hy_lname":"คลองบางบูน","owner":"อาคารบังคับน้ำ ธนบุรี","name":"ประตูระบายน้ำคลองบางบูน","district":"ราษฎร์บูรณะ"}},{"type":"Feature","id":31,"geometry":{"type":"Point","coordinates":[100.522764,13.681741]},"properties":{"gate_name":"ประตูระบายน้ำคลองโรงกลั่นน้ำมัน","district_t":"ยานนาวา","year":"2563","hy_lname":"คลองโรงน้ำมัน","owner":"อาคารบังคับน้ำ 2","name":"ประตูระบายน้ำคลองโรงกลั่นน้ำมัน","district":"ยานนาวา"}},{"type":"Feature","id":32,"geometry":{"type":"Point","coordinates":[100.51223,13.682037]},"properties":{"gate_name":"ประตูระบายน้ำคลองข้างโรงแก้ว","district_t":"ราษฎร์บูรณะ","year":"2563","hy_lname":"คลองผู้ใหญ่สังข์","owner":"อาคารบังคับน้ำ ธนบุรี","name":"ประตูระบายน้ำคลองข้างโรงแก้ว","district":"ราษฎร์บูรณะ"}},{"type":"Feature","id":33,"geometry":{"type":"Point","coordinates":[100.673368,13.68125]},"properties":{"gate_name":"ประตูระบายน้ำคลองปลัดเปรียง","district_t":"ประเวศ","year":"2563","hy_lname":"คลองปลัดเปรียง","owner":"อุโมงค์พระนคร","name":"ประตูระบายน้ำคลองปลัดเปรียง","district":"ประเวศ"}},{"type":"Feature","id":34,"geometry":{"type":"Point","coordinates":[100.550586,13.683432]},"properties":{"gate_name":"ประตูระบายน้ำคลองหีบ","district_t":"ยานนาวา","year":"2563","hy_lname":"คลองหีบ","owner":"อาคารบังคับน้ำ 2","name":"ประตูระบายน้ำคลองหีบ","district":"ยานนาวา"}},{"type":"Feature","id":35,"geometry":{"type":"Point","coordinates":[100.6462,13.6835]},"properties":{"gate_name":"ประตูระบายน้ำคลองตาช้าง (ขาเข้า)","district_t":"ประเวศ","year":"2564","hy_lname":"คลองตาช้าง","owner":"อาคารบังคับน้ำ 2","name":"ประตูระบายน้ำคลองตาช้าง (ขาเข้า)","district":"ประเวศ"}},{"type":"Feature","id":36,"geometry":{"type":"Point","coordinates":[100.646759,13.683541]},"properties":{"gate_name":"ประตูระบายน้ำคลองตาช้าง (ขาออก)","district_t":"ประเวศ","year":"2563","hy_lname":"คลองตาช้าง","owner":"อาคารบังคับน้ำ 2","name":"ประตูระบายน้ำคลองตาช้าง (ขาออก)","district":"ประเวศ"}},{"type":"Feature","id":37,"geometry":{"type":"Point","coordinates":[100.521314,13.684661]},"properties":{"gate_name":"ประตูระบายน้ำคลองเสาหิน","district_t":"ยานนาวา","year":"2563","hy_lname":"คลองเสาหิน","owner":"อาคารบังคับน้ำ 2","name":"ประตูระบายน้ำคลองเสาหิน","district":"ยานนาวา"}},{"type":"Feature","id":38,"geometry":{"type":"Point","coordinates":[100.519447,13.685867]},"properties":{"gate_name":"ประตูระบายน้ำคลองมะนาว (ตอนสวนเฉลิมพระเกียรติ)","district_t":"บางคอแหลม","year":"2563","hy_lname":"คลองมะนาว","owner":"อาคารบังคับน้ำ 2","name":"ประตูระบายน้ำคลองมะนาว (ตอนสวนเฉลิมพระเกียรติ)","district":"บางคอแหลม"}},{"type":"Feature","id":89,"geometry":{"type":"Point","coordinates":[100.33086,13.713737]},"properties":{"gate_name":"ประตูระบายน้ำคลองแสงศิริ","district_t":"หนองแขม","year":"2563","hy_lname":"-","owner":"อุโมงค์ธนบุรี","name":"ประตูระบายน้ำคลองแสงศิริ","district":"หนองแขม"}},{"type":"Feature","id":39,"geometry":{"type":"Point","coordinates":[100.51306,13.686897]},"properties":{"gate_name":"ประตูระบายน้ำคลองลำกระโดง 8","district_t":"บางคอแหลม","year":"2563","hy_lname":"-","owner":"อาคารบังคับน้ำ 2","name":"ประตูระบายน้ำคลองลำกระโดง 8","district":"บางคอแหลม"}},{"type":"Feature","id":40,"geometry":{"type":"Point","coordinates":[100.513383,13.686868]},"properties":{"gate_name":"ประตูระบายน้ำคลองลำกระโดง 9 (คลองตาเหล็ก)","district_t":"บางคอแหลม","year":"2563","hy_lname":"คลองตาเหล็ก","owner":"อาคารบังคับน้ำ 2","name":"ประตูระบายน้ำคลองลำกระโดง 9 (คลองตาเหล็ก)","district":"บางคอแหลม"}},{"type":"Feature","id":41,"geometry":{"type":"Point","coordinates":[100.511108,13.687139]},"properties":{"gate_name":"ประตูระบายน้ำคลองบางโคล่วัด","district_t":"บางคอแหลม","year":"2563","hy_lname":"คลองบางโคล่วัด","owner":"อาคารบังคับน้ำ 2","name":"ประตูระบายน้ำคลองบางโคล่วัด","district":"บางคอแหลม"}},{"type":"Feature","id":42,"geometry":{"type":"Point","coordinates":[100.548071,13.686911]},"properties":{"gate_name":"ประตูระบายน้ำคลองตาห่วง","district_t":"ยานนาวา","year":"2563","hy_lname":"คลองถนนพระราม 3","owner":"อาคารบังคับน้ำ 2","name":"ประตูระบายน้ำคลองตาห่วง","district":"ยานนาวา"}},{"type":"Feature","id":43,"geometry":{"type":"Point","coordinates":[100.508047,13.687872]},"properties":{"gate_name":"ประตูระบายน้ำคลองบางโคล่สาร","district_t":"บางคอแหลม","year":"2563","hy_lname":"คลองบางโคล่สาร","owner":"อาคารบังคับน้ำ 2","name":"ประตูระบายน้ำคลองบางโคล่สาร","district":"บางคอแหลม"}},{"type":"Feature","id":44,"geometry":{"type":"Point","coordinates":[100.509198,13.687817]},"properties":{"gate_name":"ประตูระบายน้ำคลองบางโคล่ใหญ่","district_t":"บางคอแหลม","year":"2563","hy_lname":"คลองบางโคล่ใหญ่","owner":"อาคารบังคับน้ำ 2","name":"ประตูระบายน้ำคลองบางโคล่ใหญ่","district":"บางคอแหลม"}},{"type":"Feature","id":45,"geometry":{"type":"Point","coordinates":[100.504471,13.687918]},"properties":{"gate_name":"ประตูระบายน้ำคลองบางโคล่น้อย","district_t":"บางคอแหลม","year":"2563","hy_lname":"คลองบางโคล่น้อย","owner":"อาคารบังคับน้ำ 2","name":"ประตูระบายน้ำคลองบางโคล่น้อย","district":"บางคอแหลม"}},{"type":"Feature","id":46,"geometry":{"type":"Point","coordinates":[100.503559,13.688038]},"properties":{"gate_name":"ประตูระบายน้ำคลองข้างโรงเหล็ก","district_t":"บางคอแหลม","year":"2563","hy_lname":"คูน้ำแยกคูข้างหมู่บ้านภักดี","owner":"อาคารบังคับน้ำ 2","name":"ประตูระบายน้ำคลองข้างโรงเหล็ก","district":"บางคอแหลม"}},{"type":"Feature","id":47,"geometry":{"type":"Point","coordinates":[100.500558,13.688542]},"properties":{"gate_name":"ประตูระบายน้ำคลองวัดจันทร์นอก","district_t":"บางคอแหลม","year":"2563","hy_lname":"คลองวัดจันทร์ใน","owner":"อาคารบังคับน้ำ 2","name":"ประตูระบายน้ำคลองวัดจันทร์นอก","district":"บางคอแหลม"}},{"type":"Feature","id":48,"geometry":{"type":"Point","coordinates":[100.5505,13.688236]},"properties":{"gate_name":"ประตูระบายน้ำคลองลำกระโดงข้างเชียงกง","district_t":"ยานนาวา","year":"2563","hy_lname":"-","owner":"อาคารบังคับน้ำ 2","name":"ประตูระบายน้ำคลองลำกระโดงข้างเชียงกง","district":"ยานนาวา"}},{"type":"Feature","id":49,"geometry":{"type":"Point","coordinates":[100.498457,13.689267]},"properties":{"gate_name":"ประตูระบายน้ำคลองภาษี","district_t":"บางคอแหลม","year":"2563","hy_lname":"-","owner":"อาคารบังคับน้ำ 2","name":"ประตูระบายน้ำคลองภาษี","district":"บางคอแหลม"}},{"type":"Feature","id":50,"geometry":{"type":"Point","coordinates":[100.550361,13.68898]},"properties":{"gate_name":"ประตูระบายน้ำคลองยายหรั่ง","district_t":"ยานนาวา","year":"2563","hy_lname":"คลองยายหรั่ง","owner":"อาคารบังคับน้ำ 2","name":"ประตูระบายน้ำคลองยายหรั่ง","district":"ยานนาวา"}},{"type":"Feature","id":149,"geometry":{"type":"Point","coordinates":[100.488422,13.769613]},"properties":{"gate_name":"ประตูระบายน้ำคลองวัดดาวดึง","district_t":"บางพลัด","year":"2563","hy_lname":"-","owner":"อาคารบังคับน้ำ ธนบุรี","name":"ประตูระบายน้ำคลองวัดดาวดึง","district":"บางพลัด"}},{"type":"Feature","id":51,"geometry":{"type":"Point","coordinates":[100.497271,13.689841]},"properties":{"gate_name":"ประตูระบายน้ำคลองลำกระโดงสาธารณะ 7","district_t":"บางคอแหลม","year":"2563","hy_lname":"-","owner":"อาคารบังคับน้ำ 2","name":"ประตูระบายน้ำคลองลำกระโดงสาธารณะ 7","district":"บางคอแหลม"}},{"type":"Feature","id":52,"geometry":{"type":"Point","coordinates":[100.50358,13.690202]},"properties":{"gate_name":"ประตูระบายน้ำคลองหน้าหมู่บ้านภักดี","district_t":"บางคอแหลม","year":"2563","hy_lname":"คลองถนนพระราม 3","owner":"อาคารบังคับน้ำ 2","name":"ประตูระบายน้ำคลองหน้าหมู่บ้านภักดี","district":"บางคอแหลม"}},{"type":"Feature","id":53,"geometry":{"type":"Point","coordinates":[100.495937,13.690451]},"properties":{"gate_name":"ประตูระบายน้ำคลองบางคอแหลม","district_t":"บางคอแหลม","year":"2563","hy_lname":"คลองบางคอแหลม","owner":"อาคารบังคับน้ำ 2","name":"ประตูระบายน้ำคลองบางคอแหลม","district":"บางคอแหลม"}},{"type":"Feature","id":54,"geometry":{"type":"Point","coordinates":[100.494212,13.69143]},"properties":{"gate_name":"ประตูระบายน้ำคลองสวน","district_t":"บางคอแหลม","year":"2563","hy_lname":"-","owner":"อาคารบังคับน้ำ 2","name":"ประตูระบายน้ำคลองสวน","district":"บางคอแหลม"}},{"type":"Feature","id":55,"geometry":{"type":"Point","coordinates":[100.493289,13.69215]},"properties":{"gate_name":"ประตูระบายน้ำคลองถนนตก","district_t":"บางคอแหลม","year":"2563","hy_lname":"คลองโรงฆ่าสัตว์","owner":"อาคารบังคับน้ำ 2","name":"ประตูระบายน้ำคลองถนนตก","district":"บางคอแหลม"}},{"type":"Feature","id":56,"geometry":{"type":"Point","coordinates":[100.549679,13.692678]},"properties":{"gate_name":"ประตูระบายน้ำคลองวัดช่องนนทรี","district_t":"ยานนาวา","year":"2563","hy_lname":"คลองวัดช่องนนทรี","owner":"อาคารบังคับน้ำ 2","name":"ประตูระบายน้ำคลองวัดช่องนนทรี","district":"ยานนาวา"}},{"type":"Feature","id":57,"geometry":{"type":"Point","coordinates":[100.491913,13.693752]},"properties":{"gate_name":"ประตูระบายน้ำคลองลำกระโดงสาธารณะ 4","district_t":"บางคอแหลม","year":"2563","hy_lname":"ลำกระโดง","owner":"อาคารบังคับน้ำ 2","name":"ประตูระบายน้ำคลองลำกระโดงสาธารณะ 4","district":"บางคอแหลม"}},{"type":"Feature","id":58,"geometry":{"type":"Point","coordinates":[100.547252,13.693824]},"properties":{"gate_name":"ประตูระบายน้ำคลองเกาะกลางถนนพระราม 3","district_t":"ยานนาวา","year":"2563","hy_lname":"คลองถนนพระราม 3","owner":"อาคารบังคับน้ำ 2","name":"ประตูระบายน้ำคลองเกาะกลางถนนพระราม 3","district":"ยานนาวา"}},{"type":"Feature","id":59,"geometry":{"type":"Point","coordinates":[100.491743,13.695005]},"properties":{"gate_name":"ประตูระบายน้ำคลองลำกระโดงสาธารณะ 3","district_t":"บางคอแหลม","year":"2563","hy_lname":"คูน้ำมไหสวรรย์ ","owner":"อาคารบังคับน้ำ 2","name":"ประตูระบายน้ำคลองลำกระโดงสาธารณะ 3","district":"บางคอแหลม"}},{"type":"Feature","id":60,"geometry":{"type":"Point","coordinates":[100.709651,13.695195]},"properties":{"gate_name":"ประตูระบายน้ำคลองขันแตก","district_t":"ประเวศ","year":"2563","hy_lname":"คลองขันแตก","owner":"อุโมงค์พระนคร","name":"ประตูระบายน้ำคลองขันแตก","district":"ประเวศ"}},{"type":"Feature","id":61,"geometry":{"type":"Point","coordinates":[100.491689,13.696692]},"properties":{"gate_name":"ประตูระบายน้ำคลองลำกระโดงสาธารณะ 2","district_t":"บางคอแหลม","year":"2563","hy_lname":"คูน้ำซอยมาตานุสรณ์","owner":"อาคารบังคับน้ำ 2","name":"ประตูระบายน้ำคลองลำกระโดงสาธารณะ 2","district":"บางคอแหลม"}},{"type":"Feature","id":62,"geometry":{"type":"Point","coordinates":[100.489196,13.699278]},"properties":{"gate_name":"ประตูระบายน้ำคลองบุคคโล","district_t":"ธนบุรี","year":"2563","hy_lname":"คลองข้างวัดบุคคโล","owner":"อาคารบังคับน้ำ ธนบุรี","name":"ประตูระบายน้ำคลองบุคคโล","district":"ธนบุรี"}},{"type":"Feature","id":63,"geometry":{"type":"Point","coordinates":[100.492989,13.699168]},"properties":{"gate_name":"ประตูระบายน้ำคลองลำกระโดงสาธารณะ 1","district_t":"บางคอแหลม","year":"2563","hy_lname":"คูน้ำข้างกองฝึกกรมศุลกากร","owner":"อาคารบังคับน้ำ 2","name":"ประตูระบายน้ำคลองลำกระโดงสาธารณะ 1","district":"บางคอแหลม"}},{"type":"Feature","id":64,"geometry":{"type":"Point","coordinates":[100.489883,13.700675]},"properties":{"gate_name":"ประตูระบายน้ำคลองข้างโกดังหวั่งหลี","district_t":"ธนบุรี","year":"2563","hy_lname":"-","owner":"อาคารบังคับน้ำ ธนบุรี","name":"ประตูระบายน้ำคลองข้างโกดังหวั่งหลี","district":"ธนบุรี"}},{"type":"Feature","id":65,"geometry":{"type":"Point","coordinates":[100.549121,13.700333]},"properties":{"gate_name":"ประตูระบายน้ำคลองขุด","district_t":"ยานนาวา","year":"2563","hy_lname":"คลองขุด","owner":"อาคารบังคับน้ำ 2","name":"ประตูระบายน้ำคลองขุด","district":"ยานนาวา"}},{"type":"Feature","id":66,"geometry":{"type":"Point","coordinates":[100.540967,13.700355]},"properties":{"gate_name":"ประตูระบายน้ำคลองมะนาว (ตอนถนนนราธิวาสราชนครินทร์)","district_t":"ยานนาวา","year":"2564","hy_lname":"คลองมะนาว","owner":"อาคารบังคับน้ำ 2","name":"ประตูระบายน้ำคลองมะนาว (ตอนถนนนราธิวาสราชนครินทร์)","district":"ยานนาวา"}},{"type":"Feature","id":67,"geometry":{"type":"Point","coordinates":[100.509107,13.701069]},"properties":{"gate_name":"ประตูระบายน้ำคลองวัดทองนพคุณ","district_t":"บางคอแหลม","year":"2564","hy_lname":"-","owner":"อาคารบังคับน้ำ ธนบุรี","name":"ประตูระบายน้ำคลองวัดทองนพคุณ","district":"บางคอแหลม"}},{"type":"Feature","id":68,"geometry":{"type":"Point","coordinates":[100.468275,13.701643]},"properties":{"gate_name":"ประตูระบายน้ำคลองบางค้อ (ตอนถนนวุฒากาศ)","district_t":"จอมทอง","year":"2564","hy_lname":"คลองบางค้อ","owner":"อาคารบังคับน้ำ ธนบุรี","name":"ประตูระบายน้ำคลองบางค้อ (ตอนถนนวุฒากาศ)","district":"จอมทอง"}},{"type":"Feature","id":69,"geometry":{"type":"Point","coordinates":[100.464847,13.701818]},"properties":{"gate_name":"ประตูระบายน้ำคลองวัดราชโอรส","district_t":"จอมทอง","year":"2563","hy_lname":"-","owner":"อาคารบังคับน้ำ ธนบุรี","name":"ประตูระบายน้ำคลองวัดราชโอรส","district":"จอมทอง"}},{"type":"Feature","id":70,"geometry":{"type":"Point","coordinates":[100.646356,13.702606]},"properties":{"gate_name":"ประตูระบายน้ำคลองตาสาด","district_t":"ประเวศ","year":"2563","hy_lname":"คลองตาสาด","owner":"อาคารบังคับน้ำ 2","name":"ประตูระบายน้ำคลองตาสาด","district":"ประเวศ"}},{"type":"Feature","id":71,"geometry":{"type":"Point","coordinates":[100.58692,13.704454]},"properties":{"gate_name":"ประตูระบายน้ำคลองพลับ","district_t":"คลองเตย","year":"2563","hy_lname":"คลองพลับ","owner":"อาคารบังคับน้ำ 1","name":"ประตูระบายน้ำคลองพลับ","district":"คลองเตย"}},{"type":"Feature","id":72,"geometry":{"type":"Point","coordinates":[100.496509,13.706612]},"properties":{"gate_name":"ประตูระบายน้ำคลองสะพานพลอย","district_t":"ธนบุรี","year":"2563","hy_lname":"-","owner":"อาคารบังคับน้ำ ธนบุรี","name":"ประตูระบายน้ำคลองสะพานพลอย","district":"ธนบุรี"}},{"type":"Feature","id":73,"geometry":{"type":"Point","coordinates":[100.590314,13.706467]},"properties":{"gate_name":"ประตูระบายน้ำโรงฟอกหนัง","district_t":"คลองเตย","year":"2564","hy_lname":"คลองพระโขนง","owner":"อาคารบังคับน้ำ 2","name":"ประตูระบายน้ำโรงฟอกหนัง","district":"คลองเตย"}},{"type":"Feature","id":74,"geometry":{"type":"Point","coordinates":[100.501282,13.708464]},"properties":{"gate_name":"ประตูระบายน้ำคลองโรงปลา (เจริญนคร 49)","district_t":"คลองสาน","year":"2564","hy_lname":"คลองโรงปลา","owner":"อาคารบังคับน้ำ ธนบุรี","name":"ประตูระบายน้ำคลองโรงปลา (เจริญนคร 49)","district":"คลองสาน"}},{"type":"Feature","id":75,"geometry":{"type":"Point","coordinates":[100.506302,13.708308]},"properties":{"gate_name":"ประตูระบายน้ำคลองบ้านใหม่","district_t":"บางคอแหลม","year":"2563","hy_lname":"คลองขวางบ้านใหม่","owner":"อาคารบังคับน้ำ 2","name":"ประตูระบายน้ำคลองบ้านใหม่","district":"บางคอแหลม"}},{"type":"Feature","id":76,"geometry":{"type":"Point","coordinates":[100.49941,13.708717]},"properties":{"gate_name":"ประตูระบายน้ำคลองโรงภาษี (เจริญนคร 53)","district_t":"คลองสาน","year":"2563","hy_lname":"คลองโรงภาษี","owner":"อาคารบังคับน้ำ ธนบุรี","name":"ประตูระบายน้ำคลองโรงภาษี (เจริญนคร 53)","district":"คลองสาน"}},{"type":"Feature","id":77,"geometry":{"type":"Point","coordinates":[100.46668,13.70924]},"properties":{"gate_name":"ประตูระบายน้ำคลองต้นไทร(ตอนถนนวุฒากาศ)","district_t":"จอมทอง","year":"2563","hy_lname":"คลองต้นไทร","owner":"อาคารบังคับน้ำ ธนบุรี","name":"ประตูระบายน้ำคลองต้นไทร(ตอนถนนวุฒากาศ)","district":"จอมทอง"}},{"type":"Feature","id":78,"geometry":{"type":"Point","coordinates":[100.591518,13.708474]},"properties":{"gate_name":"ประตูระบายน้ำคลองยายสร้อย","district_t":"คลองเตย","year":"2564","hy_lname":"คลองยายสร้อย","owner":"อุโมงค์พระนคร","name":"ประตูระบายน้ำคลองยายสร้อย","district":"คลองเตย"}},{"type":"Feature","id":79,"geometry":{"type":"Point","coordinates":[100.502824,13.709573]},"properties":{"gate_name":"ประตูระบายน้ำคลองหลังซอยจำเริญ(เจริญนคร 39)","district_t":"คลองสาน","year":"2564","hy_lname":"คลองโรงหนัง","owner":"อาคารบังคับน้ำ ธนบุรี","name":"ประตูระบายน้ำคลองหลังซอยจำเริญ(เจริญนคร 39)","district":"คลองสาน"}},{"type":"Feature","id":80,"geometry":{"type":"Point","coordinates":[100.371486,13.710934]},"properties":{"gate_name":"ประตูระบายน้ำคลองบางจาก","district_t":"หนองแขม","year":"2563","hy_lname":"คลองบางจาก","owner":"อุโมงค์ธนบุรี","name":"ประตูระบายน้ำคลองบางจาก","district":"หนองแขม"}},{"type":"Feature","id":81,"geometry":{"type":"Point","coordinates":[100.5943,13.7096]},"properties":{"gate_name":"ประตูระบายน้ำปิยวัชร","district_t":"คลองเตย","year":"2564","hy_lname":"คลองพระโขนง","owner":"อุโมงค์พระนคร","name":"ประตูระบายน้ำปิยวัชร","district":"คลองเตย"}},{"type":"Feature","id":82,"geometry":{"type":"Point","coordinates":[100.467072,13.710625]},"properties":{"gate_name":"ประตูระบายน้ำคลองจีน (ตอนถนนวุฒากาศ)","district_t":"จอมทอง","year":"2564","hy_lname":"คลองจีน","owner":"อาคารบังคับน้ำ ธนบุรี","name":"ประตูระบายน้ำคลองจีน (ตอนถนนวุฒากาศ)","district":"จอมทอง"}},{"type":"Feature","id":83,"geometry":{"type":"Point","coordinates":[100.467665,13.710457]},"properties":{"gate_name":"ประตูระบายน้ำคลองวัดใหม่ยายนุ้ย 1 (คลองด่าน)","district_t":"จอมทอง","year":"2564","hy_lname":"-","owner":"อาคารบังคับน้ำ ธนบุรี","name":"ประตูระบายน้ำคลองวัดใหม่ยายนุ้ย 1 (คลองด่าน)","district":"จอมทอง"}},{"type":"Feature","id":84,"geometry":{"type":"Point","coordinates":[100.466309,13.710952]},"properties":{"gate_name":"ประตูระบายน้ำคลองตาแผลง","district_t":"จอมทอง","year":"2563","hy_lname":"คลองตาแผลง","owner":"อาคารบังคับน้ำ ธนบุรี","name":"ประตูระบายน้ำคลองตาแผลง","district":"จอมทอง"}},{"type":"Feature","id":85,"geometry":{"type":"Point","coordinates":[100.500529,13.71073]},"properties":{"gate_name":"ประตูระบายน้ำคลองโรงน้ำแข็ง (เจริญนคร 41)","district_t":"คลองสาน","year":"2563","hy_lname":"คลองข้างโรงน้ำแข็ง","owner":"อาคารบังคับน้ำ ธนบุรี","name":"ประตูระบายน้ำคลองโรงน้ำแข็ง (เจริญนคร 41)","district":"คลองสาน"}},{"type":"Feature","id":86,"geometry":{"type":"Point","coordinates":[100.469194,13.712101]},"properties":{"gate_name":"ประตูระบายน้ำคลองวัดใหม่ยายนุ้ย 2 (คลองด่าน)","district_t":"ธนบุรี","year":"2564","hy_lname":"คลองศาลเจ้าต้นโพธิ์","owner":"อาคารบังคับน้ำ ธนบุรี","name":"ประตูระบายน้ำคลองวัดใหม่ยายนุ้ย 2 (คลองด่าน)","district":"ธนบุรี"}},{"type":"Feature","id":87,"geometry":{"type":"Point","coordinates":[100.636914,13.711153]},"properties":{"gate_name":"ประตูระบายน้ำคลองศาลเจ้า","district_t":"สวนหลวง","year":"2563","hy_lname":"คลองศาลเจ้า","owner":"อาคารบังคับน้ำ 2","name":"ประตูระบายน้ำคลองศาลเจ้า","district":"สวนหลวง"}},{"type":"Feature","id":88,"geometry":{"type":"Point","coordinates":[100.46961,13.712669]},"properties":{"gate_name":"ประตูระบายน้ำคลองห้าเจดีย์","district_t":"ธนบุรี","year":"2564","hy_lname":"คลองศิริจันทร์","owner":"อาคารบังคับน้ำ ธนบุรี","name":"ประตูระบายน้ำคลองห้าเจดีย์","district":"ธนบุรี"}},{"type":"Feature","id":90,"geometry":{"type":"Point","coordinates":[100.468635,13.713092]},"properties":{"gate_name":"ประตูระบายน้ำคลองตาม่วง","district_t":"จอมทอง","year":"2563","hy_lname":"คลองด่าน","owner":"อาคารบังคับน้ำ ธนบุรี","name":"ประตูระบายน้ำคลองตาม่วง","district":"จอมทอง"}},{"type":"Feature","id":91,"geometry":{"type":"Point","coordinates":[100.50722,13.713346]},"properties":{"gate_name":"ประตูระบายน้ำปากคลองบางลำภูล่าง","district_t":"คลองสาน","year":"2563","hy_lname":"คลองบางลำภูล่าง","owner":"อาคารบังคับน้ำ ธนบุรี","name":"ประตูระบายน้ำปากคลองบางลำภูล่าง","district":"คลองสาน"}},{"type":"Feature","id":92,"geometry":{"type":"Point","coordinates":[100.468969,13.715225]},"properties":{"gate_name":"ประตูระบายน้ำคลองซอยด่านแปด","district_t":"จอมทอง","year":"2563","hy_lname":"-","owner":"อาคารบังคับน้ำ ธนบุรี","name":"ประตูระบายน้ำคลองซอยด่านแปด","district":"จอมทอง"}},{"type":"Feature","id":93,"geometry":{"type":"Point","coordinates":[100.508634,13.715342]},"properties":{"gate_name":"ประตูระบายน้ำคลองข้างสายชลแมนชั่น","district_t":"คลองสาน","year":"2563","hy_lname":"-","owner":"อาคารบังคับน้ำ ธนบุรี","name":"ประตูระบายน้ำคลองข้างสายชลแมนชั่น","district":"คลองสาน"}},{"type":"Feature","id":94,"geometry":{"type":"Point","coordinates":[100.470861,13.715772]},"properties":{"gate_name":"ประตูระบายน้ำคลองข้างธนาคารนครหลวงไทย","district_t":"ธนบุรี","year":"2564","hy_lname":"คลองข้างธนาคารนครหลวงไทย","owner":"อาคารบังคับน้ำ ธนบุรี","name":"ประตูระบายน้ำคลองข้างธนาคารนครหลวงไทย","district":"ธนบุรี"}},{"type":"Feature","id":95,"geometry":{"type":"Point","coordinates":[100.543966,13.725924]},"properties":{"gate_name":"ประตูระบายน้ำสาทรช่วงสะพานไทย-เบลเยี่ยม","district_t":"บางรัก","year":"2563","hy_lname":"คลองสาทร","owner":"อาคารบังคับน้ำ 2","name":"ประตูระบายน้ำสาทรช่วงสะพานไทย-เบลเยี่ยม","district":"บางรัก"}},{"type":"Feature","id":96,"geometry":{"type":"Point","coordinates":[100.4684,13.716021]},"properties":{"gate_name":"ประตูระบายน้ำวัดนางชี","district_t":"จอมทอง","year":"2563","hy_lname":"คลองวัดเพลง-วัดนางชี","owner":"อาคารบังคับน้ำ ธนบุรี","name":"ประตูระบายน้ำวัดนางชี","district":"จอมทอง"}},{"type":"Feature","id":97,"geometry":{"type":"Point","coordinates":[100.361392,13.71715]},"properties":{"gate_name":"ประตูระบายน้ำคลองราษฎร์เจริญสุข (โรงบำบัดน้ำเสียหนองแขม)","district_t":"หนองแขม","year":"2563","hy_lname":"คลองราษฏร์เจริญสุข","owner":"อุโมงค์ธนบุรี","name":"ประตูระบายน้ำคลองราษฎร์เจริญสุข (โรงบำบัดน้ำเสียหนองแขม)","district":"หนองแขม"}},{"type":"Feature","id":98,"geometry":{"type":"Point","coordinates":[100.466301,13.716767]},"properties":{"gate_name":"ประตูระบายน้ำคลองวัดนาคปรก","district_t":"จอมทอง","year":"2563","hy_lname":"คลองวัดเพลง-วัดนางชี","owner":"อาคารบังคับน้ำ ธนบุรี","name":"ประตูระบายน้ำคลองวัดนาคปรก","district":"จอมทอง"}},{"type":"Feature","id":99,"geometry":{"type":"Point","coordinates":[100.468946,13.717596]},"properties":{"gate_name":"ประตูระบายน้ำคลองด่าน 8 (ปากคลองนาคปรก)","district_t":"จอมทอง","year":"2563","hy_lname":"คลองวัดเพลง-วัดนางชี","owner":"อาคารบังคับน้ำ ธนบุรี","name":"ประตูระบายน้ำคลองด่าน 8 (ปากคลองนาคปรก)","district":"จอมทอง"}},{"type":"Feature","id":100,"geometry":{"type":"Point","coordinates":[100.367777,13.718636]},"properties":{"gate_name":"ประตูระบายน้ำคลองราษฎร์เจริญสุข (คลองทวีวัฒนา)","district_t":"หนองแขม","year":"2564","hy_lname":"คลองราษฏร์เจริญสุข","owner":"อุโมงค์ธนบุรี","name":"ประตูระบายน้ำคลองราษฎร์เจริญสุข (คลองทวีวัฒนา)","district":"หนองแขม"}},{"type":"Feature","id":101,"geometry":{"type":"Point","coordinates":[100.510043,13.717817]},"properties":{"gate_name":"ประตูระบายน้ำปากคลองต้นไทร","district_t":"คลองสาน","year":"2563","hy_lname":"คลองต้นไทร","owner":"อาคารบังคับน้ำ ธนบุรี","name":"ประตูระบายน้ำปากคลองต้นไทร","district":"คลองสาน"}},{"type":"Feature","id":102,"geometry":{"type":"Point","coordinates":[100.482116,13.722448]},"properties":{"gate_name":"ประตูระบายน้ำคลองสำเหร่ (ถนนเทอดไท)","district_t":"ธนบุรี","year":"2564","hy_lname":"คลองสำเหร่","owner":"อาคารบังคับน้ำ ธนบุรี","name":"ประตูระบายน้ำคลองสำเหร่ (ถนนเทอดไท)","district":"ธนบุรี"}},{"type":"Feature","id":103,"geometry":{"type":"Point","coordinates":[100.506747,13.723416]},"properties":{"gate_name":"ประตูระบายน้ำคลองรางจาก","district_t":"คลองสาน","year":"2563","hy_lname":"คลองวัดสุวรรณ","owner":"อาคารบังคับน้ำ ธนบุรี","name":"ประตูระบายน้ำคลองรางจาก","district":"คลองสาน"}},{"type":"Feature","id":104,"geometry":{"type":"Point","coordinates":[100.508763,13.723461]},"properties":{"gate_name":"ประตูระบายน้ำคลองวัดสุวรรณ(เจริญนคร 2  1/2)","district_t":"คลองสาน","year":"2564","hy_lname":"คลองวัดสุวรรณ","owner":"อาคารบังคับน้ำ ธนบุรี","name":"ประตูระบายน้ำคลองวัดสุวรรณ(เจริญนคร 2  1/2)","district":"คลองสาน"}},{"type":"Feature","id":105,"geometry":{"type":"Point","coordinates":[100.48562,13.724717]},"properties":{"gate_name":"ประตูระบายน้ำสุเหร่าสวนพลู","district_t":"ธนบุรี","year":"2563","hy_lname":"คลองสุเหร่าสวนพลู","owner":"อาคารบังคับน้ำ ธนบุรี","name":"ประตูระบายน้ำสุเหร่าสวนพลู","district":"ธนบุรี"}},{"type":"Feature","id":106,"geometry":{"type":"Point","coordinates":[100.6896,13.724]},"properties":{"gate_name":"ประตูระบายน้ำประเวศบุรีรมย์ (ตอนกระทุ่มเสือปลา)","district_t":"ประเวศ","year":"2563","hy_lname":"คลองประเวศบุรีรมย์","owner":"กลุ่มงานตะวันออก","name":"ประตูระบายน้ำประเวศบุรีรมย์ (ตอนกระทุ่มเสือปลา)","district":"ประเวศ"}},{"type":"Feature","id":107,"geometry":{"type":"Point","coordinates":[100.749869,13.724129]},"properties":{"gate_name":"ประตูระบายน้ำลาดกระบัง","district_t":"ลาดกระบัง","year":"2563","hy_lname":"คลองประเวศบุรีรมย์","owner":"กลุ่มงานตะวันออก","name":"ประตูระบายน้ำลาดกระบัง","district":"ลาดกระบัง"}},{"type":"Feature","id":108,"geometry":{"type":"Point","coordinates":[100.511451,13.725779]},"properties":{"gate_name":"ประตูระบายน้ำปากคลองวัดทองเพลง","district_t":"คลองสาน","year":"2563","hy_lname":"คลองวัดทองเพลง","owner":"อาคารบังคับน้ำ ธนบุรี","name":"ประตูระบายน้ำปากคลองวัดทองเพลง","district":"คลองสาน"}},{"type":"Feature","id":109,"geometry":{"type":"Point","coordinates":[100.511461,13.728272]},"properties":{"gate_name":"ประตูระบายน้ำคลองเทพา","district_t":"คลองสาน","year":"2563","hy_lname":"คลองเทพา","owner":"อาคารบังคับน้ำ ธนบุรี","name":"ประตูระบายน้ำคลองเทพา","district":"คลองสาน"}},{"type":"Feature","id":110,"geometry":{"type":"Point","coordinates":[100.513319,13.72966]},"properties":{"gate_name":"ประตูระบายน้ำข้างโซฟิเทล","district_t":"บางรัก","year":"2563","hy_lname":"-","owner":"อาคารบังคับน้ำ ธนบุรี","name":"ประตูระบายน้ำข้างโซฟิเทล","district":"บางรัก"}},{"type":"Feature","id":111,"geometry":{"type":"Point","coordinates":[100.510255,13.732258]},"properties":{"gate_name":"ประตูระบายน้ำซอยสมเด็จเจ้าพระยา 17","district_t":"คลองสาน","year":"2563","hy_lname":"ลำกระโดง","owner":"อาคารบังคับน้ำ ธนบุรี","name":"ประตูระบายน้ำซอยสมเด็จเจ้าพระยา 17","district":"คลองสาน"}},{"type":"Feature","id":112,"geometry":{"type":"Point","coordinates":[100.509628,13.733271]},"properties":{"gate_name":"ประตูระบายน้ำคลองข้างวัดทองนพคุณ","district_t":"คลองสาน","year":"2564","hy_lname":"คลองวัดทองนพคุณล่าง","owner":"อาคารบังคับน้ำ ธนบุรี","name":"ประตูระบายน้ำคลองข้างวัดทองนพคุณ","district":"คลองสาน"}},{"type":"Feature","id":113,"geometry":{"type":"Point","coordinates":[100.348249,13.73565]},"properties":{"gate_name":"ประตูระบายน้ำคลองกำนันประทีป","district_t":"หนองแขม","year":"2563","hy_lname":"คลองกำนันประทีป","owner":"อุโมงค์ธนบุรี","name":"ประตูระบายน้ำคลองกำนันประทีป","district":"หนองแขม"}},{"type":"Feature","id":114,"geometry":{"type":"Point","coordinates":[100.507336,13.735185]},"properties":{"gate_name":"ประตูระบายน้ำคลองวัดทองธรรมชาติ","district_t":"คลองสาน","year":"2563","hy_lname":"-","owner":"อาคารบังคับน้ำ ธนบุรี","name":"ประตูระบายน้ำคลองวัดทองธรรมชาติ","district":"คลองสาน"}},{"type":"Feature","id":115,"geometry":{"type":"Point","coordinates":[100.505959,13.735777]},"properties":{"gate_name":"ประตูระบายน้ำคลองบ้านหลวงวารี","district_t":"คลองสาน","year":"2563","hy_lname":"คลองหลวงวารี (ช่วงที่ 2)","owner":"อาคารบังคับน้ำ ธนบุรี","name":"ประตูระบายน้ำคลองบ้านหลวงวารี","district":"คลองสาน"}},{"type":"Feature","id":116,"geometry":{"type":"Point","coordinates":[100.488925,13.737312]},"properties":{"gate_name":"ประตูระบายน้ำคลองบุบผาราม","district_t":"ธนบุรี","year":"2564","hy_lname":"คลองบุปผาราม","owner":"อาคารบังคับน้ำ ธนบุรี","name":"ประตูระบายน้ำคลองบุบผาราม","district":"ธนบุรี"}},{"type":"Feature","id":117,"geometry":{"type":"Point","coordinates":[100.492942,13.739862]},"properties":{"gate_name":"ประตูระบายน้ำคลองกุฎีจีน","district_t":"ธนบุรี","year":"2563","hy_lname":"คลองกุฎีจีน","owner":"อาคารบังคับน้ำ ธนบุรี","name":"ประตูระบายน้ำคลองกุฎีจีน","district":"ธนบุรี"}},{"type":"Feature","id":118,"geometry":{"type":"Point","coordinates":[100.8786,13.7379]},"properties":{"gate_name":"ทำนบและประตูระบายน้ำคลองลำตาแฝง","district_t":"หนองจอก","year":"2563","hy_lname":"คลองหลวงแพ่ง","owner":"กลุ่มงานตะวันออก","name":"ทำนบและประตูระบายน้ำคลองลำตาแฝง","district":"หนองจอก"}},{"type":"Feature","id":120,"geometry":{"type":"Point","coordinates":[100.8798,13.7403]},"properties":{"gate_name":"ทำนบและประตูระบายน้ำคลองลำตาอิน","district_t":"หนองจอก","year":"2563","hy_lname":"คลองแยกคลองลำวังคา","owner":"กลุ่มงานตะวันออก","name":"ทำนบและประตูระบายน้ำคลองลำตาอิน","district":"หนองจอก"}},{"type":"Feature","id":121,"geometry":{"type":"Point","coordinates":[100.610453,13.743525]},"properties":{"gate_name":"ประตูระบายน้ำคลองสะแก (ตอนถนนนพระราม 9)","district_t":"สวนหลวง","year":"2563","hy_lname":"คลองกะจะ","owner":"อาคารบังคับน้ำ 2","name":"ประตูระบายน้ำคลองสะแก (ตอนถนนนพระราม 9)","district":"สวนหลวง"}},{"type":"Feature","id":122,"geometry":{"type":"Point","coordinates":[100.487015,13.744639]},"properties":{"gate_name":"ประตูระบายน้ำคลองวัดอรุณ","district_t":"บางกอกใหญ่","year":"2563","hy_lname":"คลองวัดอรุณ","owner":"อาคารบังคับน้ำ ธนบุรี","name":"ประตูระบายน้ำคลองวัดอรุณ","district":"บางกอกใหญ่"}},{"type":"Feature","id":123,"geometry":{"type":"Point","coordinates":[100.485127,13.747142]},"properties":{"gate_name":"ประตูระบายน้ำวัดระฆัง (สถานีสูบน้ำคลองมอญ)","district_t":"บางกอกใหญ่","year":"2563","hy_lname":"คลองมอญ","owner":"อาคารบังคับน้ำ ธนบุรี","name":"ประตูระบายน้ำวัดระฆัง (สถานีสูบน้ำคลองมอญ)","district":"บางกอกใหญ่"}},{"type":"Feature","id":124,"geometry":{"type":"Point","coordinates":[100.643986,13.746494]},"properties":{"gate_name":"ประตูระบายน้ำคลองกะจะ (ตอนถนนศรีนครินทร์)","district_t":"บางกะปิ","year":"2563","hy_lname":"คลองกะจะ","owner":"อาคารบังคับน้ำ 2","name":"ประตูระบายน้ำคลองกะจะ (ตอนถนนศรีนครินทร์)","district":"บางกะปิ"}},{"type":"Feature","id":162,"geometry":{"type":"Point","coordinates":[100.521235,13.777814]},"properties":{"gate_name":"ประตูระบายน้ำดุสิต","district_t":"ดุสิต","year":"2564","hy_lname":"คลองเปรมประชากร","owner":"อาคารบังคับน้ำ 1","name":"ประตูระบายน้ำดุสิต","district":"ดุสิต"}},{"type":"Feature","id":125,"geometry":{"type":"Point","coordinates":[100.503804,13.747799]},"properties":{"gate_name":"ประตูระบายน้ำวัดราชบพิธ","district_t":"พระนคร","year":"2564","hy_lname":"คลองหลอดวัดราชบพิธ","owner":"อาคารบังคับน้ำ 2","name":"ประตูระบายน้ำวัดราชบพิธ","district":"พระนคร"}},{"type":"Feature","id":126,"geometry":{"type":"Point","coordinates":[100.569226,13.747902]},"properties":{"gate_name":"ประตูระบายน้ำคลองบางกะปิ (ตอนถนนเพชรบุรี)","district_t":"ห้วยขวาง","year":"2563","hy_lname":"คลองบางกะปิ","owner":"อุโมงค์พระนคร","name":"ประตูระบายน้ำคลองบางกะปิ (ตอนถนนเพชรบุรี)","district":"ห้วยขวาง"}},{"type":"Feature","id":127,"geometry":{"type":"Point","coordinates":[100.524227,13.748906]},"properties":{"gate_name":"ประตูระบายน้ำคลองสวนหลวง (ตอนคลองแสนแสบ)","district_t":"ปทุมวัน","year":"2564","hy_lname":"คลองนางหงษ์","owner":"อาคารบังคับน้ำ 2","name":"ประตูระบายน้ำคลองสวนหลวง (ตอนคลองแสนแสบ)","district":"ปทุมวัน"}},{"type":"Feature","id":128,"geometry":{"type":"Point","coordinates":[100.569622,13.749132]},"properties":{"gate_name":"ประตูระบายน้ำคลองบางกะปิ (ตอนวัดอุทัยทาราม)","district_t":"ห้วยขวาง","year":"2563","hy_lname":"คลองบางกะปิ","owner":"อุโมงค์พระนคร","name":"ประตูระบายน้ำคลองบางกะปิ (ตอนวัดอุทัยทาราม)","district":"ห้วยขวาง"}},{"type":"Feature","id":129,"geometry":{"type":"Point","coordinates":[100.562426,13.752972]},"properties":{"gate_name":"ประตูระบายน้ำบึงมักกะสัน (ด้านทิศตะวันออก)","district_t":"ราชเทวี","year":"2563","hy_lname":"-","owner":"อาคารบังคับน้ำ 1","name":"ประตูระบายน้ำบึงมักกะสัน (ด้านทิศตะวันออก)","district":"ราชเทวี"}},{"type":"Feature","id":130,"geometry":{"type":"Point","coordinates":[100.505338,13.753831]},"properties":{"gate_name":"ประตูระบายน้ำวัดเทพธิดา","district_t":"พระนคร","year":"2564","hy_lname":"คลอดหลอดวัดราชนัดดา","owner":"อาคารบังคับน้ำ 2","name":"ประตูระบายน้ำวัดเทพธิดา","district":"พระนคร"}},{"type":"Feature","id":131,"geometry":{"type":"Point","coordinates":[100.607163,13.754216]},"properties":{"gate_name":"ประตูระบายน้ำคลองพลับพลา (ตอนคลองแสนแสบ)","district_t":"วังทองหลาง","year":"2563","hy_lname":"คลองพลับพลา","owner":"อาคารบังคับน้ำ 1","name":"ประตูระบายน้ำคลองพลับพลา (ตอนคลองแสนแสบ)","district":"วังทองหลาง"}},{"type":"Feature","id":132,"geometry":{"type":"Point","coordinates":[100.598963,13.756574]},"properties":{"gate_name":"ประตูระบายน้ำคลองพลับ","district_t":"วังทองหลาง","year":"2564","hy_lname":"ลำรางทางกระบือ","owner":"อาคารบังคับน้ำ 2","name":"ประตูระบายน้ำคลองพลับ","district":"วังทองหลาง"}},{"type":"Feature","id":133,"geometry":{"type":"Point","coordinates":[100.511592,13.761622]},"properties":{"gate_name":"ประตูระบายน้ำคูคลองข้างทำเนียบ","district_t":"ดุสิต","year":"2563","hy_lname":"คลองผดุงกรุงเกษม","owner":"อาคารบังคับน้ำ 2","name":"ประตูระบายน้ำคูคลองข้างทำเนียบ","district":"ดุสิต"}},{"type":"Feature","id":134,"geometry":{"type":"Point","coordinates":[100.48404,13.761964]},"properties":{"gate_name":"ประตูระบายน้ำคลองขนมจีน","district_t":"บางกอกน้อย","year":"2563","hy_lname":"คลองขนมจีน","owner":"อาคารบังคับน้ำ ธนบุรี","name":"ประตูระบายน้ำคลองขนมจีน","district":"บางกอกน้อย"}},{"type":"Feature","id":135,"geometry":{"type":"Point","coordinates":[100.488222,13.762004]},"properties":{"gate_name":"ประตูระบายน้ำคลองข้าง รร.วัดดุสิต (สถานีสูบน้ำคลองดุสิด)","district_t":"บางกอกน้อย","year":"2563","hy_lname":"คลองบ้านขนมจีน","owner":"อาคารบังคับน้ำ ธนบุรี","name":"ประตูระบายน้ำคลองข้าง รร.วัดดุสิต (สถานีสูบน้ำคลองดุสิด)","district":"บางกอกน้อย"}},{"type":"Feature","id":136,"geometry":{"type":"Point","coordinates":[100.482321,13.762011]},"properties":{"gate_name":"ประตูระบายน้ำแผนกเรือราชพิธี","district_t":"บางกอกน้อย","year":"2563","hy_lname":"-","owner":"อาคารบังคับน้ำ ธนบุรี","name":"ประตูระบายน้ำแผนกเรือราชพิธี","district":"บางกอกน้อย"}},{"type":"Feature","id":137,"geometry":{"type":"Point","coordinates":[100.480629,13.762639]},"properties":{"gate_name":"ประตูระบายน้ำคลองคราม","district_t":"บางกอกน้อย","year":"2563","hy_lname":"คลองคราม","owner":"อาคารบังคับน้ำ ธนบุรี","name":"ประตูระบายน้ำคลองคราม","district":"บางกอกน้อย"}},{"type":"Feature","id":138,"geometry":{"type":"Point","coordinates":[100.490535,13.763914]},"properties":{"gate_name":"ประตูระบายน้ำคลองเจ้าครุฑ","district_t":"บางพลัด","year":"2563","hy_lname":"คลองเจ้าครุฑ","owner":"อาคารบังคับน้ำ ธนบุรี","name":"ประตูระบายน้ำคลองเจ้าครุฑ","district":"บางพลัด"}},{"type":"Feature","id":139,"geometry":{"type":"Point","coordinates":[100.47844,13.763898]},"properties":{"gate_name":"ประตูระบายน้ำคลองข้าง ส.คลองน้ำตาล (ชุมชนสันติสงเคราะห์)","district_t":"บางกอกน้อย","year":"2563","hy_lname":"คลองน้ำตาล","owner":"อาคารบังคับน้ำ ธนบุรี","name":"ประตูระบายน้ำคลองข้าง ส.คลองน้ำตาล (ชุมชนสันติสงเคราะห์)","district":"บางกอกน้อย"}},{"type":"Feature","id":140,"geometry":{"type":"Point","coordinates":[100.474681,13.765629]},"properties":{"gate_name":"ประตูระบายน้ำคลองวัดใหม่ยายแป้น","district_t":"บางกอกน้อย","year":"2563","hy_lname":"-","owner":"อาคารบังคับน้ำ ธนบุรี","name":"ประตูระบายน้ำคลองวัดใหม่ยายแป้น","district":"บางกอกน้อย"}},{"type":"Feature","id":141,"geometry":{"type":"Point","coordinates":[100.4763,13.7656]},"properties":{"gate_name":"ประตูระบายน้ำคลองข้าง ส.คลองพิณพาทย์ (ชุมชนสันติสงเคราะห์)","district_t":"บางกอกน้อย","year":"2563","hy_lname":"คลองพิณพาทย์","owner":"อาคารบังคับน้ำ ธนบุรี","name":"ประตูระบายน้ำคลองข้าง ส.คลองพิณพาทย์ (ชุมชนสันติสงเคราะห์)","district":"บางกอกน้อย"}},{"type":"Feature","id":142,"geometry":{"type":"Point","coordinates":[100.492963,13.765772]},"properties":{"gate_name":"ประตูระบายน้ำคลองวัดคฤหบดี","district_t":"บางพลัด","year":"2563","hy_lname":"คลองวัดดาวดึงษาราม","owner":"อาคารบังคับน้ำ ธนบุรี","name":"ประตูระบายน้ำคลองวัดคฤหบดี","district":"บางพลัด"}},{"type":"Feature","id":143,"geometry":{"type":"Point","coordinates":[100.507427,13.765852]},"properties":{"gate_name":"ระบบส่งน้ำเข้าพระที่นั่งวิมานเมฆ","district_t":"ดุสิต","year":"2563","hy_lname":"คลองผดุงกรุงเกษม","owner":"อาคารบังคับน้ำ 2","name":"ระบบส่งน้ำเข้าพระที่นั่งวิมานเมฆ","district":"ดุสิต"}},{"type":"Feature","id":144,"geometry":{"type":"Point","coordinates":[100.475058,13.766442]},"properties":{"gate_name":"ประตูระบายน้ำคลองต้นไทร","district_t":"บางกอกน้อย","year":"2564","hy_lname":"-","owner":"อาคารบังคับน้ำ ธนบุรี","name":"ประตูระบายน้ำคลองต้นไทร","district":"บางกอกน้อย"}},{"type":"Feature","id":145,"geometry":{"type":"Point","coordinates":[100.47414,13.767533]},"properties":{"gate_name":"ประตูระบายน้ำคลองมะนาว","district_t":"บางกอกน้อย","year":"2563","hy_lname":"คลองมะนาว","owner":"อาคารบังคับน้ำ ธนบุรี","name":"ประตูระบายน้ำคลองมะนาว","district":"บางกอกน้อย"}},{"type":"Feature","id":146,"geometry":{"type":"Point","coordinates":[100.473671,13.768554]},"properties":{"gate_name":"ประตูระบายน้ำคลองดอกไม้","district_t":"บางกอกน้อย","year":"2563","hy_lname":"คลองน้ำดอกไม้","owner":"อาคารบังคับน้ำ ธนบุรี","name":"ประตูระบายน้ำคลองดอกไม้","district":"บางกอกน้อย"}},{"type":"Feature","id":147,"geometry":{"type":"Point","coordinates":[100.4697,13.7689]},"properties":{"gate_name":"ประตูระบายน้ำปากคลองบางขุนนนท์","district_t":"บางกอกน้อย","year":"2564","hy_lname":"คลองบางขุนนนท์","owner":"อาคารบังคับน้ำ ธนบุรี","name":"ประตูระบายน้ำปากคลองบางขุนนนท์","district":"บางกอกน้อย"}},{"type":"Feature","id":148,"geometry":{"type":"Point","coordinates":[100.472998,13.76909]},"properties":{"gate_name":"ประตูระบายน้ำคลองข้างพาณิชย์จรัล","district_t":"บางกอกน้อย","year":"2563","hy_lname":"คลองวัดปฐมบุตรอิศราราม","owner":"อาคารบังคับน้ำ ธนบุรี","name":"ประตูระบายน้ำคลองข้างพาณิชย์จรัล","district":"บางกอกน้อย"}},{"type":"Feature","id":150,"geometry":{"type":"Point","coordinates":[100.472447,13.771851]},"properties":{"gate_name":"ประตูระบายน้ำคลองพริกป่น","district_t":"บางกอกน้อย","year":"2563","hy_lname":"คลองพริกป่น","owner":"อาคารบังคับน้ำ ธนบุรี","name":"ประตูระบายน้ำคลองพริกป่น","district":"บางกอกน้อย"}},{"type":"Feature","id":151,"geometry":{"type":"Point","coordinates":[100.898136,13.770037]},"properties":{"gate_name":"ทำนบและประตูระบายน้ำคลองปากคลองลำต้อยติ่ง","district_t":"หนองจอก","year":"2563","hy_lname":"คลองหลวงแพ่ง","owner":"กลุ่มงานตะวันออก","name":"ทำนบและประตูระบายน้ำคลองปากคลองลำต้อยติ่ง","district":"หนองจอก"}},{"type":"Feature","id":152,"geometry":{"type":"Point","coordinates":[100.496546,13.772636]},"properties":{"gate_name":"ประตูระบายน้ำคลองข้างวัดคฤหบดี","district_t":"บางพลัด","year":"2563","hy_lname":"คลองวัดคฤหบดี","owner":"อาคารบังคับน้ำ ธนบุรี","name":"ประตูระบายน้ำคลองข้างวัดคฤหบดี","district":"บางพลัด"}},{"type":"Feature","id":153,"geometry":{"type":"Point","coordinates":[100.470035,13.774882]},"properties":{"gate_name":"ประตูระบายน้ำคลองสวนมะม่วง","district_t":"บางกอกน้อย","year":"2564","hy_lname":"-","owner":"อาคารบังคับน้ำ ธนบุรี","name":"ประตูระบายน้ำคลองสวนมะม่วง","district":"บางกอกน้อย"}},{"type":"Feature","id":154,"geometry":{"type":"Point","coordinates":[100.471108,13.774798]},"properties":{"gate_name":"ประตูระบายน้ำคูน้ำข้างวัดนายโรง","district_t":"บางกอกน้อย","year":"2563","hy_lname":"-","owner":"อาคารบังคับน้ำ ธนบุรี","name":"ประตูระบายน้ำคูน้ำข้างวัดนายโรง","district":"บางกอกน้อย"}},{"type":"Feature","id":155,"geometry":{"type":"Point","coordinates":[100.502539,13.775027]},"properties":{"gate_name":"ประตูระบายน้ำท่าวาสุกรี","district_t":"ดุสิต","year":"2564","hy_lname":"คลองท่าวาสุกรี","owner":"อาคารบังคับน้ำ 1","name":"ประตูระบายน้ำท่าวาสุกรี","district":"ดุสิต"}},{"type":"Feature","id":156,"geometry":{"type":"Point","coordinates":[100.498407,13.775614]},"properties":{"gate_name":"ประตูระบายน้ำคลองวัดบวรมงคล","district_t":"บางพลัด","year":"2563","hy_lname":"คลองวัดบวรมงคล","owner":"อาคารบังคับน้ำ ธนบุรี","name":"ประตูระบายน้ำคลองวัดบวรมงคล","district":"บางพลัด"}},{"type":"Feature","id":157,"geometry":{"type":"Point","coordinates":[100.470709,13.776433]},"properties":{"gate_name":"ประตูระบายน้ำบริเวณข้างหมู่บ้านพันธุ์ศักดิ์","district_t":"บางกอกน้อย","year":"2563","hy_lname":"-","owner":"อาคารบังคับน้ำ ธนบุรี","name":"ประตูระบายน้ำบริเวณข้างหมู่บ้านพันธุ์ศักดิ์","district":"บางกอกน้อย"}},{"type":"Feature","id":158,"geometry":{"type":"Point","coordinates":[100.469726,13.776709]},"properties":{"gate_name":"ประตูระบายน้ำคลองวัดใหม่ภาวนา (ปากคลอง)","district_t":"บางกอกน้อย","year":"2563","hy_lname":"คลองวัดใหม่ภาวนา","owner":"อาคารบังคับน้ำ ธนบุรี","name":"ประตูระบายน้ำคลองวัดใหม่ภาวนา (ปากคลอง)","district":"บางกอกน้อย"}},{"type":"Feature","id":159,"geometry":{"type":"Point","coordinates":[100.502606,13.776564]},"properties":{"gate_name":"ประตูระบายน้ำวัดราชาธิวาส","district_t":"ดุสิต","year":"2563","hy_lname":"คลองวัดราชาธิวาส","owner":"อาคารบังคับน้ำ 1","name":"ประตูระบายน้ำวัดราชาธิวาส","district":"ดุสิต"}},{"type":"Feature","id":160,"geometry":{"type":"Point","coordinates":[100.652412,13.776879]},"properties":{"gate_name":"ประตูระบายน้ำคลองลำพังพวย (ตอนเชื่อมบึงลำพังพวย)","district_t":"บางกะปิ","year":"2563","hy_lname":"คลองลำพังพวย","owner":"อาคารบังคับน้ำ 1","name":"ประตูระบายน้ำคลองลำพังพวย (ตอนเชื่อมบึงลำพังพวย)","district":"บางกะปิ"}},{"type":"Feature","id":161,"geometry":{"type":"Point","coordinates":[100.344027,13.778814]},"properties":{"gate_name":"ประตูระบายน้ำคลองสวัสดิ์","district_t":"ทวีวัฒนา","year":"2563","hy_lname":"คลองศรีศุภผล","owner":"อาคารบังคับน้ำ ธนบุรี","name":"ประตูระบายน้ำคลองสวัสดิ์","district":"ทวีวัฒนา"}},{"type":"Feature","id":163,"geometry":{"type":"Point","coordinates":[100.470348,13.778464]},"properties":{"gate_name":"ประตูระบายน้ำบริเวณข้างคลองพิกุล","district_t":"บางกอกน้อย","year":"2563","hy_lname":"คลองวัดพิกุล","owner":"อาคารบังคับน้ำ ธนบุรี","name":"ประตูระบายน้ำบริเวณข้างคลองพิกุล","district":"บางกอกน้อย"}},{"type":"Feature","id":164,"geometry":{"type":"Point","coordinates":[100.466479,13.778666]},"properties":{"gate_name":"ประตูระบายน้ำคลองวัดเจ้าอาม","district_t":"บางกอกน้อย","year":"2564","hy_lname":"คลองวัดเจ้าอาม","owner":"อาคารบังคับน้ำ ธนบุรี","name":"ประตูระบายน้ำคลองวัดเจ้าอาม","district":"บางกอกน้อย"}},{"type":"Feature","id":165,"geometry":{"type":"Point","coordinates":[100.499021,13.778662]},"properties":{"gate_name":"ประตูระบายน้ำคลองข้างวัดภคคิณี","district_t":"บางพลัด","year":"2563","hy_lname":"คลองบางจาก","owner":"อาคารบังคับน้ำ ธนบุรี","name":"ประตูระบายน้ำคลองข้างวัดภคคิณี","district":"บางพลัด"}},{"type":"Feature","id":166,"geometry":{"type":"Point","coordinates":[100.469321,13.779149]},"properties":{"gate_name":"ประตูระบายน้ำคลองตราชู","district_t":"บางกอกน้อย","year":"2563","hy_lname":"-","owner":"อาคารบังคับน้ำ ธนบุรี","name":"ประตูระบายน้ำคลองตราชู","district":"บางกอกน้อย"}},{"type":"Feature","id":167,"geometry":{"type":"Point","coordinates":[100.514108,13.779552]},"properties":{"gate_name":"ประตูระบายน้ำคลองเม่งเส็ง (ติดคลองสามเสน)","district_t":"ดุสิต","year":"2564","hy_lname":"คลองรางเงิน (เม่งเส็ง)","owner":"อาคารบังคับน้ำ 2","name":"ประตูระบายน้ำคลองเม่งเส็ง (ติดคลองสามเสน)","district":"ดุสิต"}},{"type":"Feature","id":168,"geometry":{"type":"Point","coordinates":[100.338724,13.781841]},"properties":{"gate_name":"ประตูระบายน้ำวังทวีวัฒนา","district_t":"ทวีวัฒนา","year":"2563","hy_lname":"-","owner":"อาคารบังคับน้ำ ธนบุรี","name":"ประตูระบายน้ำวังทวีวัฒนา","district":"ทวีวัฒนา"}},{"type":"Feature","id":169,"geometry":{"type":"Point","coordinates":[100.466523,13.780357]},"properties":{"gate_name":"ประตูระบายน้ำศาลเจ้าแม่ทับทิม","district_t":"ตลิ่งชัน","year":"2563","hy_lname":"คลองทับทิม","owner":"อาคารบังคับน้ำ ธนบุรี","name":"ประตูระบายน้ำศาลเจ้าแม่ทับทิม","district":"ตลิ่งชัน"}},{"type":"Feature","id":170,"geometry":{"type":"Point","coordinates":[100.467318,13.781136]},"properties":{"gate_name":"ประตูระบายน้ำคลองวัดสุวรรณคีรี","district_t":"บางกอกน้อย","year":"2563","hy_lname":"-","owner":"อาคารบังคับน้ำ ธนบุรี","name":"ประตูระบายน้ำคลองวัดสุวรรณคีรี","district":"บางกอกน้อย"}},{"type":"Feature","id":171,"geometry":{"type":"Point","coordinates":[100.514745,13.780961]},"properties":{"gate_name":"ประตูระบายน้ำคลองรางเงิน (หลังสวนอัมพร)","district_t":"ดุสิต","year":"2563","hy_lname":"คลองรางเงิน (เม่งเส็ง)","owner":"อาคารบังคับน้ำ 2","name":"ประตูระบายน้ำคลองรางเงิน (หลังสวนอัมพร)","district":"ดุสิต"}},{"type":"Feature","id":172,"geometry":{"type":"Point","coordinates":[100.500574,13.781282]},"properties":{"gate_name":"ประตูระบายน้ำคลองข้างโรงแรมริเวอร์ไซด์ (K6/2)","district_t":"บางพลัด","year":"2563","hy_lname":"คูน้ำต้นซอยราชวิถี 21","owner":"อาคารบังคับน้ำ ธนบุรี","name":"ประตูระบายน้ำคลองข้างโรงแรมริเวอร์ไซด์ (K6/2)","district":"บางพลัด"}},{"type":"Feature","id":173,"geometry":{"type":"Point","coordinates":[100.467563,13.781667]},"properties":{"gate_name":"ประตูระบายน้ำคูข้างวัดศรีสุดาราม","district_t":"บางกอกน้อย","year":"2563","hy_lname":"-","owner":"อาคารบังคับน้ำ ธนบุรี","name":"ประตูระบายน้ำคูข้างวัดศรีสุดาราม","district":"บางกอกน้อย"}},{"type":"Feature","id":174,"geometry":{"type":"Point","coordinates":[100.467016,13.783225]},"properties":{"gate_name":"ประตูระบายน้ำข้างเพลสซิเด้นท์คอนโดทาวน์","district_t":"บางกอกน้อย","year":"2563","hy_lname":"คลองน้ำอ้อย","owner":"อาคารบังคับน้ำ ธนบุรี","name":"ประตูระบายน้ำข้างเพลสซิเด้นท์คอนโดทาวน์","district":"บางกอกน้อย"}},{"type":"Feature","id":175,"geometry":{"type":"Point","coordinates":[100.500052,13.783061]},"properties":{"gate_name":"ประตูระบายน้ำคลองข้างโรงแรมรอยัลริเวอร์ (K6/1)","district_t":"บางพลัด","year":"2564","hy_lname":"คลองซอยเทพนิมิตร","owner":"อาคารบังคับน้ำ ธนบุรี","name":"ประตูระบายน้ำคลองข้างโรงแรมรอยัลริเวอร์ (K6/1)","district":"บางพลัด"}},{"type":"Feature","id":176,"geometry":{"type":"Point","coordinates":[100.501888,13.7839]},"properties":{"gate_name":"ประตูระบายน้ำคลองวัดเทพนารี","district_t":"บางพลัด","year":"2563","hy_lname":"-","owner":"อาคารบังคับน้ำ ธนบุรี","name":"ประตูระบายน้ำคลองวัดเทพนารี","district":"บางพลัด"}},{"type":"Feature","id":177,"geometry":{"type":"Point","coordinates":[100.650151,13.78426]},"properties":{"gate_name":"ประตูระบายน้ำลำรางสาธารณะ (ตอนบึงลำพังพวย นวมินทร์ 22)","district_t":"บึงกุ่ม","year":"2563","hy_lname":"ลำรางแยกคลองพังพวย ตอน 1","owner":"อาคารบังคับน้ำ 1","name":"ประตูระบายน้ำลำรางสาธารณะ (ตอนบึงลำพังพวย นวมินทร์ 22)","district":"บึงกุ่ม"}},{"type":"Feature","id":178,"geometry":{"type":"Point","coordinates":[100.650151,13.78426]},"properties":{"gate_name":"ประตูระบายน้ำลำรางสาธารณะ (ตอนบึงกุ่ม)","district_t":"บึงกุ่ม","year":"2563","hy_lname":"ลำรางแยกคลองพังพวย ตอน 1","owner":"กลุ่มงานตะวันออก","name":"ประตูระบายน้ำลำรางสาธารณะ (ตอนบึงกุ่ม)","district":"บึงกุ่ม"}},{"type":"Feature","id":179,"geometry":{"type":"Point","coordinates":[100.648144,13.784652]},"properties":{"gate_name":"ประตูระบายน้ำบึงลำพังพวย (ตอนถนนนวมินทร์)","district_t":"บึงกุ่ม","year":"2563","hy_lname":"ลำรางแยกคลองพังพวย ตอน 1","owner":"อาคารบังคับน้ำ 1","name":"ประตูระบายน้ำบึงลำพังพวย (ตอนถนนนวมินทร์)","district":"บึงกุ่ม"}},{"type":"Feature","id":180,"geometry":{"type":"Point","coordinates":[100.661714,13.784552]},"properties":{"gate_name":"ประตูระบายน้ำลำรางสาธารณะ (ตอนบึงกุ่ม นวมินทร์ 24)","district_t":"บึงกุ่ม","year":"2563","hy_lname":"คลองบางเตย","owner":"กลุ่มงานตะวันออก","name":"ประตูระบายน้ำลำรางสาธารณะ (ตอนบึงกุ่ม นวมินทร์ 24)","district":"บึงกุ่ม"}},{"type":"Feature","id":181,"geometry":{"type":"Point","coordinates":[100.503414,13.787036]},"properties":{"gate_name":"ประตูระบายน้ำบริเวณบางกอกมารีน่าคอนโดและชุมชนข้างวัดเทพากร","district_t":"บางพลัด","year":"2563","hy_lname":"-","owner":"อาคารบังคับน้ำ ธนบุรี","name":"ประตูระบายน้ำบริเวณบางกอกมารีน่าคอนโดและชุมชนข้างวัดเทพากร","district":"บางพลัด"}},{"type":"Feature","id":182,"geometry":{"type":"Point","coordinates":[100.505697,13.78835]},"properties":{"gate_name":"ประตูระบายน้ำคลอง K5/1","district_t":"บางพลัด","year":"2563","hy_lname":"คูน้ำซอยจรัญฯ 70/3","owner":"อาคารบังคับน้ำ ธนบุรี","name":"ประตูระบายน้ำคลอง K5/1","district":"บางพลัด"}},{"type":"Feature","id":183,"geometry":{"type":"Point","coordinates":[100.907285,13.786524]},"properties":{"gate_name":"ทำนบและประตูระบายน้ำคลองสอง","district_t":"หนองจอก","year":"2563","hy_lname":"คลองหลวงแพ่ง","owner":"กลุ่มงานตะวันออก","name":"ทำนบและประตูระบายน้ำคลองสอง","district":"หนองจอก"}},{"type":"Feature","id":184,"geometry":{"type":"Point","coordinates":[100.46833,13.793599]},"properties":{"gate_name":"ประตูระบายน้ำคลองยายวาด","district_t":"ตลิ่งชัน","year":"2563","hy_lname":"คลองยายวาด","owner":"อาคารบังคับน้ำ ธนบุรี","name":"ประตูระบายน้ำคลองยายวาด","district":"ตลิ่งชัน"}},{"type":"Feature","id":186,"geometry":{"type":"Point","coordinates":[100.6677,13.7946]},"properties":{"gate_name":"ประตูระบายน้ำคลองลำรางสาธารณะ (หมู่บ้านเอื้ออาทร)","district_t":"บึงกุ่ม","year":"2563","hy_lname":"ลำรางนาป่า","owner":"กลุ่มงานตะวันออก","name":"ประตูระบายน้ำคลองลำรางสาธารณะ (หมู่บ้านเอื้ออาทร)","district":"บึงกุ่ม"}},{"type":"Feature","id":187,"geometry":{"type":"Point","coordinates":[100.462479,13.796627]},"properties":{"gate_name":"ประตูระบายน้ำคลองผู้ใหญ่น่วม (ตอนคลองมหาสวัสดิ์)","district_t":"ตลิ่งชัน","year":"2564","hy_lname":"คลองผู้ใหญ่น่วม","owner":"อาคารบังคับน้ำ ธนบุรี","name":"ประตูระบายน้ำคลองผู้ใหญ่น่วม (ตอนคลองมหาสวัสดิ์)","district":"ตลิ่งชัน"}},{"type":"Feature","id":188,"geometry":{"type":"Point","coordinates":[100.566942,13.796584]},"properties":{"gate_name":"ประตูระบายน้ำคลองพญาเวิก (ตอนซอยโชคชัยร่วมมิตร)","district_t":"ดินแดง","year":"2564","hy_lname":"คลองพญาเวิก","owner":"อาคารบังคับน้ำ 1","name":"ประตูระบายน้ำคลองพญาเวิก (ตอนซอยโชคชัยร่วมมิตร)","district":"ดินแดง"}},{"type":"Feature","id":189,"geometry":{"type":"Point","coordinates":[100.512751,13.796814]},"properties":{"gate_name":"ประตูระบายน้ำคลองมอญ","district_t":"บางพลัด","year":"2563","hy_lname":"คลองมอญ","owner":"อาคารบังคับน้ำ ธนบุรี","name":"ประตูระบายน้ำคลองมอญ","district":"บางพลัด"}},{"type":"Feature","id":190,"geometry":{"type":"Point","coordinates":[100.532063,13.797721]},"properties":{"gate_name":"ประตูระบายน้ำสรรพาวุธ","district_t":"ดุสิต","year":"2563","hy_lname":"คลองเปรมประชากร","owner":"อาคารบังคับน้ำ 1","name":"ประตูระบายน้ำสรรพาวุธ","district":"ดุสิต"}},{"type":"Feature","id":194,"geometry":{"type":"Point","coordinates":[100.533333,13.800112]},"properties":{"gate_name":"ประตูระบายน้ำหน้าตลาดบางซื่อ","district_t":"บางซื่อ","year":"2563","hy_lname":"คลองเปรมประชากร","owner":"อาคารบังคับน้ำ 1","name":"ประตูระบายน้ำหน้าตลาดบางซื่อ","district":"บางซื่อ"}},{"type":"Feature","id":195,"geometry":{"type":"Point","coordinates":[100.4042,13.8013]},"properties":{"gate_name":"ประตูระบายน้ำคลองโพธิ์ (ริมคลองมหาสวัสดิ์)","district_t":"ทวีวัฒนา","year":"2563","hy_lname":"คลองโพธิ์","owner":"อาคารบังคับน้ำ ธนบุรี","name":"ประตูระบายน้ำคลองโพธิ์ (ริมคลองมหาสวัสดิ์)","district":"ทวีวัฒนา"}},{"type":"Feature","id":196,"geometry":{"type":"Point","coordinates":[100.922251,13.79803]},"properties":{"gate_name":"ทำนบและประตูระบายน้ำคลองหนึ่ง","district_t":"หนองจอก","year":"2563","hy_lname":"คลองหลวงแพ่ง","owner":"กลุ่มงานตะวันออก","name":"ทำนบและประตูระบายน้ำคลองหนึ่ง","district":"หนองจอก"}},{"type":"Feature","id":198,"geometry":{"type":"Point","coordinates":[100.380259,13.802042]},"properties":{"gate_name":"ประตูระบายน้ำคลองควาย (ริมคลองมหาสวัสดิ์)","district_t":"ทวีวัฒนา","year":"2563","hy_lname":"คลองควาย","owner":"อาคารบังคับน้ำ ธนบุรี","name":"ประตูระบายน้ำคลองควาย (ริมคลองมหาสวัสดิ์)","district":"ทวีวัฒนา"}},{"type":"Feature","id":192,"geometry":{"type":"Point","coordinates":[100.416127,13.799667]},"properties":{"gate_name":"ประตูระบายน้ำคลองบัว  (ตอนทางรถไฟสายใต้)","district_t":"ตลิ่งชัน","year":"2564","hy_lname":"คลองบัว","owner":"อาคารบังคับน้ำ ธนบุรี","name":"ประตูระบายน้ำคลองบัว  (ตอนทางรถไฟสายใต้)","district":"ตลิ่งชัน"}},{"type":"Feature","id":197,"geometry":{"type":"Point","coordinates":[100.744762,13.799563]},"properties":{"gate_name":"ประตูระบายน้ำคลองลำบึงขวาง","district_t":"มีนบุรี","year":"2563","hy_lname":"คลองลำบึงขวาง","owner":"กลุ่มงานตะวันออก","name":"ประตูระบายน้ำคลองลำบึงขวาง","district":"มีนบุรี"}},{"type":"Feature","id":191,"geometry":{"type":"Point","coordinates":[100.704528,13.797303]},"properties":{"gate_name":"ประตูระบายน้ำบางชัน (ตอนคลองแสนแสบ)","district_t":"คันนายาว","year":"2563","hy_lname":"คลองแสนแสบ","owner":"กลุ่มงานตะวันออก","name":"ประตูระบายน้ำบางชัน (ตอนคลองแสนแสบ)","district":"คันนายาว"}},{"type":"Feature","id":199,"geometry":{"type":"Point","coordinates":[100.348529,13.802932]},"properties":{"gate_name":"ประตูระบายน้ำคลองซอย (ริมคลองมหาสวัสดิ์)","district_t":"ทวีวัฒนา","year":"2563","hy_lname":"คลองซอย","owner":"อาคารบังคับน้ำ ธนบุรี","name":"ประตูระบายน้ำคลองซอย (ริมคลองมหาสวัสดิ์)","district":"ทวีวัฒนา"}},{"type":"Feature","id":200,"geometry":{"type":"Point","coordinates":[100.370723,13.802484]},"properties":{"gate_name":"ประตูระบายน้ำคลองขุนศรีบุรีรักษ์ (ริมคลองมหาสวัสดิ์)","district_t":"ทวีวัฒนา","year":"2563","hy_lname":"คลองบางคูเวียง","owner":"อาคารบังคับน้ำ ธนบุรี","name":"ประตูระบายน้ำคลองขุนศรีบุรีรักษ์ (ริมคลองมหาสวัสดิ์)","district":"ทวีวัฒนา"}},{"type":"Feature","id":193,"geometry":{"type":"Point","coordinates":[100.329724,13.800479]},"properties":{"gate_name":"ประตูระบายน้ำคลองทวีวัฒนา","district_t":"ทวีวัฒนา","year":"2563","hy_lname":"คลองทวีวัฒนา","owner":"อาคารบังคับน้ำ ธนบุรี","name":"ประตูระบายน้ำคลองทวีวัฒนา","district":"ทวีวัฒนา"}},{"type":"Feature","id":185,"geometry":{"type":"Point","coordinates":[100.58931,13.794336]},"properties":{"gate_name":"ประตูระบายน้ำลาดพร้าว 56","district_t":"วังทองหลาง","year":"2563","hy_lname":"คลองลาดพร้าว","owner":"อุโมงค์พระนคร","name":"ประตูระบายน้ำลาดพร้าว 56","district":"วังทองหลาง"}},{"type":"Feature","id":119,"geometry":{"type":"Point","coordinates":[100.596383,13.741144]},"properties":{"gate_name":"ประตูระบายน้ำแสนแสบเก่า","district_t":"ห้วยขวาง","year":"2563","hy_lname":"คลองแสนแสบ","owner":"อุโมงค์พระนคร","name":"ประตูระบายน้ำแสนแสบเก่า","district":"ห้วยขวาง"}},{"type":"Feature","id":201,"geometry":{"type":"Point","coordinates":[100.584821,13.802803]},"properties":{"gate_name":"ประตูระบายน้ำคลองบางน้ำแก้ว (ตอนซอยลาดพร้าว 41)","district_t":"ห้วยขวาง","year":"2564","hy_lname":"คลองน้ำแก้ว","owner":"อาคารบังคับน้ำ 1","name":"ประตูระบายน้ำคลองบางน้ำแก้ว (ตอนซอยลาดพร้าว 41)","district":"ห้วยขวาง"}},{"type":"Feature","id":202,"geometry":{"type":"Point","coordinates":[100.515801,13.803864]},"properties":{"gate_name":"ประตูระบายน้ำคลอง K 3","district_t":"บางพลัด","year":"2563","hy_lname":"คลองสวนแดน 2","owner":"อาคารบังคับน้ำ ธนบุรี","name":"ประตูระบายน้ำคลอง K 3","district":"บางพลัด"}},{"type":"Feature","id":203,"geometry":{"type":"Point","coordinates":[100.70014,13.802688]},"properties":{"gate_name":"ประตูระบายน้ำคลองหลอแหล 2","district_t":"คันนายาว","year":"2563","hy_lname":"คลองหลอแหล","owner":"กลุ่มงานตะวันออก","name":"ประตูระบายน้ำคลองหลอแหล 2","district":"คันนายาว"}},{"type":"Feature","id":204,"geometry":{"type":"Point","coordinates":[100.691691,13.803266]},"properties":{"gate_name":"ประตูระบายน้ำบางชัน (ตอนสวนสยาม)","district_t":"คันนายาว","year":"2563","hy_lname":"คลองบ้านเกาะ","owner":"กลุ่มงานตะวันออก","name":"ประตูระบายน้ำบางชัน (ตอนสวนสยาม)","district":"คันนายาว"}},{"type":"Feature","id":205,"geometry":{"type":"Point","coordinates":[100.515891,13.804843]},"properties":{"gate_name":"ประตูระบายน้ำคลองเตย","district_t":"บางพลัด","year":"2563","hy_lname":"คลองเตย","owner":"อาคารบังคับน้ำ ธนบุรี","name":"ประตูระบายน้ำคลองเตย","district":"บางพลัด"}},{"type":"Feature","id":206,"geometry":{"type":"Point","coordinates":[100.700166,13.804485]},"properties":{"gate_name":"ประตูระบายน้ำคลองหลอแหล 1","district_t":"คันนายาว","year":"2563","hy_lname":"ลำรางแยกคลองบ้านเกาะ","owner":"กลุ่มงานตะวันออก","name":"ประตูระบายน้ำคลองหลอแหล 1","district":"คันนายาว"}},{"type":"Feature","id":207,"geometry":{"type":"Point","coordinates":[100.666394,13.804979]},"properties":{"gate_name":"ประตูระบายน้ำคลองหนองแขม","district_t":"บึงกุ่ม","year":"2563","hy_lname":"คลองกุ่ม","owner":"กลุ่มงานตะวันออก","name":"ประตูระบายน้ำคลองหนองแขม","district":"บึงกุ่ม"}},{"type":"Feature","id":208,"geometry":{"type":"Point","coordinates":[100.51589,13.806811]},"properties":{"gate_name":"ประตูระบายน้ำสวนแดน","district_t":"บางพลัด","year":"2564","hy_lname":"คลองสวนแดน","owner":"อาคารบังคับน้ำ ธนบุรี","name":"ประตูระบายน้ำสวนแดน","district":"บางพลัด"}},{"type":"Feature","id":209,"geometry":{"type":"Point","coordinates":[100.701174,13.805827]},"properties":{"gate_name":"ประตูระบายน้ำบึงตาเกตุ","district_t":"มีนบุรี","year":"2563","hy_lname":"คลองบางชัน","owner":"กลุ่มงานตะวันออก","name":"ประตูระบายน้ำบึงตาเกตุ","district":"มีนบุรี"}},{"type":"Feature","id":210,"geometry":{"type":"Point","coordinates":[100.515992,13.808178]},"properties":{"gate_name":"ประตูระบายน้ำคลองตาเพชร","district_t":"บางพลัด","year":"2563","hy_lname":"คลองตาเพชร","owner":"อาคารบังคับน้ำ ธนบุรี","name":"ประตูระบายน้ำคลองตาเพชร","district":"บางพลัด"}},{"type":"Feature","id":211,"geometry":{"type":"Point","coordinates":[100.518704,13.809832]},"properties":{"gate_name":"ประตูระบายน้ำบางโพขวาง","district_t":"บางซื่อ","year":"2564","hy_lname":"คลองบางโพขวาง","owner":"อาคารบังคับน้ำ 1","name":"ประตูระบายน้ำบางโพขวาง","district":"บางซื่อ"}},{"type":"Feature","id":212,"geometry":{"type":"Point","coordinates":[100.516974,13.813921]},"properties":{"gate_name":"ประตูระบายน้ำคลองซุง","district_t":"บางซื่อ","year":"2563","hy_lname":"คลองซุง","owner":"อาคารบังคับน้ำ 1","name":"ประตูระบายน้ำคลองซุง","district":"บางซื่อ"}},{"type":"Feature","id":213,"geometry":{"type":"Point","coordinates":[100.662355,13.814032]},"properties":{"gate_name":"ประตูระบายน้ำคลองบวบขม (ตอนคลองลำชะล่า)","district_t":"บึงกุ่ม","year":"2563","hy_lname":"คลองหนองแขม","owner":"กลุ่มงานตะวันออก","name":"ประตูระบายน้ำคลองบวบขม (ตอนคลองลำชะล่า)","district":"บึงกุ่ม"}},{"type":"Feature","id":214,"geometry":{"type":"Point","coordinates":[100.871892,13.815825]},"properties":{"gate_name":"ประตูระบายน้ำคลองสองลำปลาทิว","district_t":"หนองจอก","year":"2563","hy_lname":"คลองสอง","owner":"กลุ่มงานตะวันออก","name":"ประตูระบายน้ำคลองสองลำปลาทิว","district":"หนองจอก"}},{"type":"Feature","id":215,"geometry":{"type":"Point","coordinates":[100.74738,13.820963]},"properties":{"gate_name":"ประตูระบายน้ำแสนแสบ (ตอนมีนบุรี)","district_t":"มีนบุรี","year":"2563","hy_lname":"คลองแสนแสบ","owner":"กลุ่มงานตะวันออก","name":"ประตูระบายน้ำแสนแสบ (ตอนมีนบุรี)","district":"มีนบุรี"}},{"type":"Feature","id":216,"geometry":{"type":"Point","coordinates":[100.6494,13.8227]},"properties":{"gate_name":"ประตูระบายน้ำคลองดอนอีกา","district_t":"บึงกุ่ม","year":"2563","hy_lname":"คลองดอนอีกา","owner":"กลุ่มงานตะวันออก","name":"ประตูระบายน้ำคลองดอนอีกา","district":"บึงกุ่ม"}},{"type":"Feature","id":217,"geometry":{"type":"Point","coordinates":[100.928326,13.821943]},"properties":{"gate_name":"ทำนบและประตูระบายน้ำคลองตาวง","district_t":"หนองจอก","year":"2563","hy_lname":"คลองตาวงษ์","owner":"กลุ่มงานตะวันออก","name":"ทำนบและประตูระบายน้ำคลองตาวง","district":"หนองจอก"}},{"type":"Feature","id":218,"geometry":{"type":"Point","coordinates":[100.924922,13.824614]},"properties":{"gate_name":"ทำนบและประตูระบายน้ำคลองตาพ่วง","district_t":"หนองจอก","year":"2563","hy_lname":"คลองนครเนื่องเขต","owner":"กลุ่มงานตะวันออก","name":"ทำนบและประตูระบายน้ำคลองตาพ่วง","district":"หนองจอก"}},{"type":"Feature","id":219,"geometry":{"type":"Point","coordinates":[100.8699,13.8286]},"properties":{"gate_name":"ประตูระบายน้ำคลองหนึ่งลำปลาทิว","district_t":"หนองจอก","year":"2563","hy_lname":"คลองหนึ่ง","owner":"กลุ่มงานตะวันออก","name":"ประตูระบายน้ำคลองหนึ่งลำปลาทิว","district":"หนองจอก"}},{"type":"Feature","id":220,"geometry":{"type":"Point","coordinates":[100.910004,13.836109]},"properties":{"gate_name":"ทำนบและประตูระบายน้ำคลองโต๊ะนิล","district_t":"หนองจอก","year":"2563","hy_lname":"คลองนครเนื่องเขต","owner":"กลุ่มงานตะวันออก","name":"ทำนบและประตูระบายน้ำคลองโต๊ะนิล","district":"หนองจอก"}},{"type":"Feature","id":221,"geometry":{"type":"Point","coordinates":[100.9081,13.8374]},"properties":{"gate_name":"ทำนบและประตูระบายน้ำคลองบึงนายรุ่ง","district_t":"หนองจอก","year":"2563","hy_lname":"คลองบึงนายรุ่ง","owner":"กลุ่มงานตะวันออก","name":"ทำนบและประตูระบายน้ำคลองบึงนายรุ่ง","district":"หนองจอก"}},{"type":"Feature","id":222,"geometry":{"type":"Point","coordinates":[100.898271,13.845363]},"properties":{"gate_name":"ทำนบและประตูระบายน้ำคลองหลวงณรงค์","district_t":"หนองจอก","year":"2563","hy_lname":"คลองนครเนื่องเขต","owner":"กลุ่มงานตะวันออก","name":"ทำนบและประตูระบายน้ำคลองหลวงณรงค์","district":"หนองจอก"}},{"type":"Feature","id":223,"geometry":{"type":"Point","coordinates":[100.893984,13.848607]},"properties":{"gate_name":"ทำนบและประตูระบายน้ำคลองลำรางสาธารณะ","district_t":"หนองจอก","year":"2563","hy_lname":"คลองนครเนื่องเขต","owner":"กลุ่มงานตะวันออก","name":"ทำนบและประตูระบายน้ำคลองลำรางสาธารณะ","district":"หนองจอก"}},{"type":"Feature","id":224,"geometry":{"type":"Point","coordinates":[100.6781,13.8508]},"properties":{"gate_name":"ประตูระบายน้ำพระยาสุเรนทร์ (เหนือ)","district_t":"คันนายาว","year":"2563","hy_lname":"คลองบางชัน","owner":"กลุ่มงานตะวันออก","name":"ประตูระบายน้ำพระยาสุเรนทร์ (เหนือ)","district":"คันนายาว"}},{"type":"Feature","id":225,"geometry":{"type":"Point","coordinates":[100.748225,13.913684]},"properties":{"gate_name":"ทำนบกั้นน้ำคลองลำกระดาน 2","district_t":"คลองสามวา","year":"2563","hy_lname":"-","owner":"กลุ่มงานตะวันออก","name":"ทำนบกั้นน้ำคลองลำกระดาน 2","district":"คลองสามวา"}},{"type":"Feature","id":226,"geometry":{"type":"Point","coordinates":[100.733126,13.850574]},"properties":{"gate_name":"ประตูระบายน้ำคลองหนึ่งฝั่งตะวันออก","district_t":"คลองสามวา","year":"2563","hy_lname":"คลองหนึ่งตะวันออก","owner":"กลุ่มงานตะวันออก","name":"ประตูระบายน้ำคลองหนึ่งฝั่งตะวันออก","district":"คลองสามวา"}},{"type":"Feature","id":227,"geometry":{"type":"Point","coordinates":[100.559897,13.854687]},"properties":{"gate_name":"ประตูระบายน้ำคลองลาดโตนด (ตอนคลองบางเขน)","district_t":"หลักสี่","year":"2564","hy_lname":"คลองบางเขน","owner":"อาคารบังคับน้ำ 1","name":"ประตูระบายน้ำคลองลาดโตนด (ตอนคลองบางเขน)","district":"หลักสี่"}},{"type":"Feature","id":228,"geometry":{"type":"Point","coordinates":[100.723113,13.864014]},"properties":{"gate_name":"ประตูระบายน้ำคลองสองตะวันตก","district_t":"คลองสามวา","year":"2563","hy_lname":"คลองสองตะวันตก","owner":"กลุ่มงานตะวันออก","name":"ประตูระบายน้ำคลองสองตะวันตก","district":"คลองสามวา"}},{"type":"Feature","id":229,"geometry":{"type":"Point","coordinates":[100.732056,13.86501]},"properties":{"gate_name":"ทำนบกั้นน้ำคลองสองตะวันออก (ตอนถนนนิมิตรใหม่)","district_t":"คลองสามวา","year":"2563","hy_lname":"คลองสองตะวันออก","owner":"กลุ่มงานตะวันออก","name":"ทำนบกั้นน้ำคลองสองตะวันออก (ตอนถนนนิมิตรใหม่)","district":"คลองสามวา"}},{"type":"Feature","id":230,"geometry":{"type":"Point","coordinates":[100.722793,13.879527]},"properties":{"gate_name":"ประตูระบายน้ำคลองสามตะวันตก","district_t":"คลองสามวา","year":"2563","hy_lname":"คลองสามตะวันตก","owner":"กลุ่มงานตะวันออก","name":"ประตูระบายน้ำคลองสามตะวันตก","district":"คลองสามวา"}},{"type":"Feature","id":231,"geometry":{"type":"Point","coordinates":[100.731966,13.880243]},"properties":{"gate_name":"ทำนบกั้นน้ำคลองสามตะวันออก (ตอนถนนนิมิตรใหม่)","district_t":"คลองสามวา","year":"2563","hy_lname":"คลองสามตะวันออก","owner":"กลุ่มงานตะวันออก","name":"ทำนบกั้นน้ำคลองสามตะวันออก (ตอนถนนนิมิตรใหม่)","district":"คลองสามวา"}},{"type":"Feature","id":232,"geometry":{"type":"Point","coordinates":[100.722461,13.89584]},"properties":{"gate_name":"ประตูระบายน้ำคลองสี่ตะวันตก","district_t":"คลองสามวา","year":"2563","hy_lname":"คลองสี่ตะวันตก","owner":"กลุ่มงานตะวันออก","name":"ประตูระบายน้ำคลองสี่ตะวันตก","district":"คลองสามวา"}},{"type":"Feature","id":233,"geometry":{"type":"Point","coordinates":[100.7349,13.8984]},"properties":{"gate_name":"ทำนบกั้นน้ำคลองสี่ตะวันออก (ตอนถนนนิมิตรใหม่)","district_t":"คลองสามวา","year":"2563","hy_lname":"คลองสี่ตะวันออก","owner":"กลุ่มงานตะวันออก","name":"ทำนบกั้นน้ำคลองสี่ตะวันออก (ตอนถนนนิมิตรใหม่)","district":"คลองสามวา"}},{"type":"Feature","id":234,"geometry":{"type":"Point","coordinates":[100.586719,13.899752]},"properties":{"gate_name":"ประตูระบายน้ำคลองตาอูฐ (ตอนคลองเปรมประชากร)","district_t":"ดอนเมือง","year":"2563","hy_lname":"คลองตาอูฐ","owner":"อาคารบังคับน้ำ 1","name":"ประตูระบายน้ำคลองตาอูฐ (ตอนคลองเปรมประชากร)","district":"ดอนเมือง"}},{"type":"Feature","id":235,"geometry":{"type":"Point","coordinates":[100.722261,13.9067]},"properties":{"gate_name":"ประตูระบายน้ำคลองลำแบน","district_t":"คลองสามวา","year":"2563","hy_lname":"คลองลำแบน","owner":"กลุ่มงานตะวันออก","name":"ประตูระบายน้ำคลองลำแบน","district":"คลองสามวา"}},{"type":"Feature","id":236,"geometry":{"type":"Point","coordinates":[100.728666,13.911996]},"properties":{"gate_name":"ทำนบกั้นน้ำคลองสามวา (ตอนถนนราษฎร์นิมิตร)","district_t":"คลองสามวา","year":"2563","hy_lname":"คลองสามวา","owner":"กลุ่มงานตะวันออก","name":"ทำนบกั้นน้ำคลองสามวา (ตอนถนนราษฎร์นิมิตร)","district":"คลองสามวา"}},{"type":"Feature","id":237,"geometry":{"type":"Point","coordinates":[100.7474,13.9124]},"properties":{"gate_name":"ทำนบกั้นน้ำคลองลำกระดาน 1","district_t":"คลองสามวา","year":"2563","hy_lname":"คลองลำกระดาน","owner":"กลุ่มงานตะวันออก","name":"ทำนบกั้นน้ำคลองลำกระดาน 1","district":"คลองสามวา"}},{"type":"Feature","id":238,"geometry":{"type":"Point","coordinates":[100.687202,13.921205]},"properties":{"gate_name":"ประตูระบายน้ำพระยาสุเรนทร์ (ใต้)","district_t":"สายไหม","year":"2563","hy_lname":"คลองพระยาสุเรนทร์","owner":"กลุ่มงานตะวันออก","name":"ประตูระบายน้ำพระยาสุเรนทร์ (ใต้)","district":"สายไหม"}},{"type":"Feature","id":239,"geometry":{"type":"Point","coordinates":[100.662249,13.921542]},"properties":{"gate_name":"ประตูระบายน้ำคลองหม้อแตก","district_t":"สายไหม","year":"2563","hy_lname":"คลองหม้อแตก","owner":"กลุ่มงานตะวันออก","name":"ประตูระบายน้ำคลองหม้อแตก","district":"สายไหม"}},{"type":"Feature","id":240,"geometry":{"type":"Point","coordinates":[100.634718,13.923084]},"properties":{"gate_name":"ประตูระบายน้ำคลองสองสายใต้","district_t":"สายไหม","year":"2563","hy_lname":"คลองสอง","owner":"กลุ่มงานตะวันออก","name":"ประตูระบายน้ำคลองสองสายใต้","district":"สายไหม"}},{"type":"Feature","id":241,"geometry":{"type":"Point","coordinates":[100.597643,13.923921]},"properties":{"gate_name":"ประตูระบายน้ำคูนายกิมสาย 3 (ตอนคลองเปรมประชากร)","district_t":"ดอนเมือง","year":"2564","hy_lname":"คูนายกิมสาย 3","owner":"อาคารบังคับน้ำ 1","name":"ประตูระบายน้ำคูนายกิมสาย 3 (ตอนคลองเปรมประชากร)","district":"ดอนเมือง"}}]}
