{"type":"FeatureCollection","features":[{"type":"Feature","id":1,"geometry":{"type":"Point","coordinates":[100.4274,13.5656]},"properties":{"pump_name":"สถานีสูบน้ำคลองเชิงตาแพ","district_t":"บางขุนเทียน","year":"2563","hy_lname":"คลองแยกเชิงตาแพ","owner":"สำนักงานระบบควบคุมน้ำ","name":"สถานีสูบน้ำคลองเชิงตาแพ","district":"บางขุนเทียน"}},{"type":"Feature","id":2,"geometry":{"type":"Point","coordinates":[100.4394,13.5701]},"properties":{"pump_name":"สถานีสูบน้ำคลองวัดลูกวัว","district_t":"บางขุนเทียน","year":"2563","hy_lname":"คลองลูกวัว","owner":"สำนักงานระบบควบคุมน้ำ","name":"สถานีสูบน้ำคลองวัดลูกวัว","district":"บางขุนเทียน"}},{"type":"Feature","id":3,"geometry":{"type":"Point","coordinates":[100.445624,13.571419]},"properties":{"pump_name":"สถานีสูบน้ำคลองขุนราชพินิจใจ","district_t":"บางขุนเทียน","year":"2563","hy_lname":"คลองขุนราชพินิจใจ","owner":"สำนักงานระบบควบคุมน้ำ","name":"สถานีสูบน้ำคลองขุนราชพินิจใจ","district":"บางขุนเทียน"}},{"type":"Feature","id":4,"geometry":{"type":"Point","coordinates":[100.394661,13.603773]},"properties":{"pump_name":"สถานีสูบน้ำระหาญ","district_t":"บางขุนเทียน","year":"2564","hy_lname":"คลองระหาญ","owner":"สำนักงานระบบควบคุมน้ำ","name":"สถานีสูบน้ำระหาญ","district":"บางขุนเทียน"}},{"type":"Feature","id":5,"geometry":{"type":"Point","coordinates":[100.413108,13.606986]},"properties":{"pump_name":"สถานีสูบน้ำเลนเปน","district_t":"บางขุนเทียน","year":"2564","hy_lname":"คลองเลนเปน","owner":"สำนักงานระบบควบคุมน้ำ","name":"สถานีสูบน้ำเลนเปน","district":"บางขุนเทียน"}},{"type":"Feature","id":6,"geometry":{"type":"Point","coordinates":[100.434057,13.625531]},"properties":{"pump_name":"สถานีสูบน้ำคลองสะแกงาม","district_t":"บางขุนเทียน","year":"2563","hy_lname":"คลองสะแกงาม","owner":"สำนักงานระบบควบคุมน้ำ","name":"สถานีสูบน้ำคลองสะแกงาม","district":"บางขุนเทียน"}},{"type":"Feature","id":7,"geometry":{"type":"Point","coordinates":[100.4394,13.6278]},"properties":{"pump_name":"สถานีสูบน้ำคลองพระยาราชมนตรี","district_t":"บางขุนเทียน","year":"2564","hy_lname":"คลองพระยาราชมนตรี","owner":"สำนักงานระบบควบคุมน้ำ","name":"สถานีสูบน้ำคลองพระยาราชมนตรี","district":"บางขุนเทียน"}},{"type":"Feature","id":8,"geometry":{"type":"Point","coordinates":[100.44775,13.638056]},"properties":{"pump_name":"สถานีสูบน้ำคลองสนามชัย","district_t":"บางขุนเทียน","year":"2564","hy_lname":"คลองสนามชัย","owner":"สำนักงานระบบควบคุมน้ำ","name":"สถานีสูบน้ำคลองสนามชัย","district":"บางขุนเทียน"}},{"type":"Feature","id":9,"geometry":{"type":"Point","coordinates":[100.386962,13.647879]},"properties":{"pump_name":"สถานีสูบน้ำคลองรางขี้เหล็ก","district_t":"บางบอน","year":"2563","hy_lname":"คลองรางขี้เหล็ก","owner":"สำนักงานระบบควบคุมน้ำ","name":"สถานีสูบน้ำคลองรางขี้เหล็ก","district":"บางบอน"}},{"type":"Feature","id":10,"geometry":{"type":"Point","coordinates":[100.4461,13.6732]},"properties":{"pump_name":"สถานีสูบน้ำคลองสี่บาท","district_t":"บางขุนเทียน","year":"2564","hy_lname":"คลองบางสี่บาท","owner":"สำนักงานระบบควบคุมน้ำ","name":"สถานีสูบน้ำคลองสี่บาท","district":"บางขุนเทียน"}},{"type":"Feature","id":11,"geometry":{"type":"Point","coordinates":[100.335333,13.678464]},"properties":{"pump_name":"สถานีสูบน้ำคลองศรีสำราญ","district_t":"หนองแขม","year":"2563","hy_lname":"คลองศรีสำราญ","owner":"สำนักงานระบบควบคุมน้ำ","name":"สถานีสูบน้ำคลองศรีสำราญ","district":"หนองแขม"}},{"type":"Feature","id":12,"geometry":{"type":"Point","coordinates":[100.44792,13.681529]},"properties":{"pump_name":"สถานีสูบน้ำคลองวัดสิงห์","district_t":"บางขุนเทียน","year":"2563","hy_lname":"คลองวัดสิงห์","owner":"สำนักงานระบบควบคุมน้ำ","name":"สถานีสูบน้ำคลองวัดสิงห์","district":"บางขุนเทียน"}},{"type":"Feature","id":13,"geometry":{"type":"Point","coordinates":[100.350241,13.682065]},"properties":{"pump_name":"สถานีสูบน้ำคลองมหาศร","district_t":"หนองแขม","year":"2563","hy_lname":"คลองมหาศร","owner":"สำนักงานระบบควบคุมน้ำ","name":"สถานีสูบน้ำคลองมหาศร","district":"หนองแขม"}},{"type":"Feature","id":14,"geometry":{"type":"Point","coordinates":[100.5051,13.6823]},"properties":{"pump_name":"สถานีสูบน้ำคลองราษฎร์บูรณะ","district_t":"ราษฎร์บูรณะ","year":"2563","hy_lname":"คลองราษฎร์บูรณะ","owner":"สำนักงานระบบควบคุมน้ำ","name":"สถานีสูบน้ำคลองราษฎร์บูรณะ","district":"ราษฎร์บูรณะ"}},{"type":"Feature","id":15,"geometry":{"type":"Point","coordinates":[100.4971,13.6842]},"properties":{"pump_name":"สถานีสูบน้ำคลองบางปะกอก","district_t":"ราษฎร์บูรณะ","year":"2563","hy_lname":"คลองบางปะกอก","owner":"สำนักงานระบบควบคุมน้ำ","name":"สถานีสูบน้ำคลองบางปะกอก","district":"ราษฎร์บูรณะ"}},{"type":"Feature","id":16,"geometry":{"type":"Point","coordinates":[100.490255,13.689054]},"properties":{"pump_name":"สถานีสูบน้ำคลองบางปะแก้ว","district_t":"ราษฎร์บูรณะ","year":"2563","hy_lname":"คลองบางปะแก้ว","owner":"สำนักงานระบบควบคุมน้ำ","name":"สถานีสูบน้ำคลองบางปะแก้ว","district":"ราษฎร์บูรณะ"}},{"type":"Feature","id":17,"geometry":{"type":"Point","coordinates":[100.50358,13.690202]},"properties":{"pump_name":"สถานีสูบน้ำข้างหมู่บ้านภักดี","district_t":"บางคอแหลม","year":"2563","hy_lname":"คลองถนนพระราม 3","owner":"สำนักงานระบบควบคุมน้ำ","name":"สถานีสูบน้ำข้างหมู่บ้านภักดี","district":"บางคอแหลม"}},{"type":"Feature","id":18,"geometry":{"type":"Point","coordinates":[100.482514,13.694899]},"properties":{"pump_name":"สถานีสูบน้ำคลองบางสะแก (ตอนถนนตากสิน)","district_t":"จอมทอง","year":"2563","hy_lname":"คลองบางสะแก","owner":"สำนักงานระบบควบคุมน้ำ","name":"สถานีสูบน้ำคลองบางสะแก (ตอนถนนตากสิน)","district":"จอมทอง"}},{"type":"Feature","id":19,"geometry":{"type":"Point","coordinates":[100.487277,13.694786]},"properties":{"pump_name":"สถานีสูบน้ำดาวคะนอง","district_t":"ธนบุรี","year":"2564","hy_lname":"คลองดาวคะนอง","owner":"สำนักงานระบบควบคุมน้ำ","name":"สถานีสูบน้ำดาวคะนอง","district":"ธนบุรี"}},{"type":"Feature","id":20,"geometry":{"type":"Point","coordinates":[100.376821,13.700428]},"properties":{"pump_name":"สถานีสูบน้ำคลองบางแค","district_t":"หนองแขม","year":"2563","hy_lname":"คลองทวีวัฒนา","owner":"สำนักงานระบบควบคุมน้ำ","name":"สถานีสูบน้ำคลองบางแค","district":"หนองแขม"}},{"type":"Feature","id":21,"geometry":{"type":"Point","coordinates":[100.377397,13.700555]},"properties":{"pump_name":"สถานีสูบน้ำคลองบางแค (ตอนคลองทวีวัฒนา)","district_t":"บางแค","year":"2563","hy_lname":"คลองบางแค","owner":"สำนักงานระบบควบคุมน้ำ","name":"สถานีสูบน้ำคลองบางแค (ตอนคลองทวีวัฒนา)","district":"บางแค"}},{"type":"Feature","id":22,"geometry":{"type":"Point","coordinates":[100.499675,13.703073]},"properties":{"pump_name":"สถานีสูบน้ำคลองสวนหลวง (ถ.เจริญกรุง)","district_t":"บางคอแหลม","year":"2563","hy_lname":"คลองสวนหลวง 2","owner":"สำนักงานระบบควบคุมน้ำ","name":"สถานีสูบน้ำคลองสวนหลวง (ถ.เจริญกรุง)","district":"บางคอแหลม"}},{"type":"Feature","id":23,"geometry":{"type":"Point","coordinates":[100.490263,13.704977]},"properties":{"pump_name":"สถานีสูบน้ำคลองบางน้ำชน  (เจริญนคร 7)","district_t":"ธนบุรี","year":"2563","hy_lname":"คลองบางน้ำชน","owner":"สำนักงานระบบควบคุมน้ำ","name":"สถานีสูบน้ำคลองบางน้ำชน  (เจริญนคร 7)","district":"ธนบุรี"}},{"type":"Feature","id":24,"geometry":{"type":"Point","coordinates":[100.494414,13.708073]},"properties":{"pump_name":"สถานีสูบน้ำคลองสำเหร่  (เจริญนคร 6)","district_t":"ธนบุรี","year":"2564","hy_lname":"คลองสำเหร่","owner":"สำนักงานระบบควบคุมน้ำ","name":"สถานีสูบน้ำคลองสำเหร่  (เจริญนคร 6)","district":"ธนบุรี"}},{"type":"Feature","id":25,"geometry":{"type":"Point","coordinates":[100.425295,13.708683]},"properties":{"pump_name":"สถานีสูบน้ำคลองบางแค (ตอนคลองพระยาราชมนตรี)","district_t":"บางแค","year":"2563","hy_lname":"คลองบางแค","owner":"สำนักงานระบบควบคุมน้ำ","name":"สถานีสูบน้ำคลองบางแค (ตอนคลองพระยาราชมนตรี)","district":"บางแค"}},{"type":"Feature","id":26,"geometry":{"type":"Point","coordinates":[100.495879,13.709159]},"properties":{"pump_name":"สถานีสูบน้ำคลองบางไส้ไก่  (เจริญนคร 5)","district_t":"คลองสาน","year":"2564","hy_lname":"คลองบางไส้ไก่","owner":"สำนักงานระบบควบคุมน้ำ","name":"สถานีสูบน้ำคลองบางไส้ไก่  (เจริญนคร 5)","district":"คลองสาน"}},{"type":"Feature","id":27,"geometry":{"type":"Point","coordinates":[100.507709,13.709583]},"properties":{"pump_name":"สถานีสูบน้ำคลองขวางสะพานเตี้ย","district_t":"บางคอแหลม","year":"2563","hy_lname":"คลองขวางสะพานเตี้ย","owner":"สำนักงานระบบควบคุมน้ำ","name":"สถานีสูบน้ำคลองขวางสะพานเตี้ย","district":"บางคอแหลม"}},{"type":"Feature","id":28,"geometry":{"type":"Point","coordinates":[100.509115,13.711581]},"properties":{"pump_name":"สถานีสูบน้ำคลองกรวย","district_t":"สาทร","year":"2563","hy_lname":"คลองกรวย","owner":"สำนักงานระบบควบคุมน้ำ","name":"สถานีสูบน้ำคลองกรวย","district":"สาทร"}},{"type":"Feature","id":29,"geometry":{"type":"Point","coordinates":[100.470348,13.778464]},"properties":{"pump_name":"สถานีสูบน้ำคลองพิกุล","district_t":"บางกอกน้อย","year":"2563","hy_lname":"คลองวัดพิกุล","owner":"สำนักงานระบบควบคุมน้ำ","name":"สถานีสูบน้ำคลองพิกุล","district":"บางกอกน้อย"}},{"type":"Feature","id":30,"geometry":{"type":"Point","coordinates":[100.512793,13.717094]},"properties":{"pump_name":"สถานีสูบน้ำวัดยานนาวา","district_t":"สาทร","year":"2563","hy_lname":"คลองวัดยานนาวา","owner":"สำนักงานระบบควบคุมน้ำ","name":"สถานีสูบน้ำวัดยานนาวา","district":"สาทร"}},{"type":"Feature","id":31,"geometry":{"type":"Point","coordinates":[100.513478,13.720209]},"properties":{"pump_name":"สถานีสูบน้ำสาทร","district_t":"บางรัก","year":"2564","hy_lname":"-","owner":"สำนักงานระบบควบคุมน้ำ","name":"สถานีสูบน้ำสาทร","district":"บางรัก"}},{"type":"Feature","id":32,"geometry":{"type":"Point","coordinates":[100.469223,13.721917]},"properties":{"pump_name":"สถานีสูบน้ำภาษีเจริญ","district_t":"ภาษีเจริญ","year":"2564","hy_lname":"-","owner":"สำนักงานระบบควบคุมน้ำ","name":"สถานีสูบน้ำภาษีเจริญ","district":"ภาษีเจริญ"}},{"type":"Feature","id":33,"geometry":{"type":"Point","coordinates":[100.47315,13.721938]},"properties":{"pump_name":"สถานีสูบน้ำคลองบางสะแก  (ถนนเทอดไท)","district_t":"ธนบุรี","year":"2563","hy_lname":"คลองบางสะแก","owner":"สำนักงานระบบควบคุมน้ำ","name":"สถานีสูบน้ำคลองบางสะแก  (ถนนเทอดไท)","district":"ธนบุรี"}},{"type":"Feature","id":34,"geometry":{"type":"Point","coordinates":[100.478628,13.722398]},"properties":{"pump_name":"สถานีสูบน้ำคลองบางน้ำชน  (ถนนเทอดไท)","district_t":"ธนบุรี","year":"2563","hy_lname":"คลองบางน้ำชน","owner":"สำนักงานระบบควบคุมน้ำ","name":"สถานีสูบน้ำคลองบางน้ำชน  (ถนนเทอดไท)","district":"ธนบุรี"}},{"type":"Feature","id":35,"geometry":{"type":"Point","coordinates":[100.364297,13.72621]},"properties":{"pump_name":"สถานีสูบน้ำคลองบางแวก","district_t":"หนองแขม","year":"2563","hy_lname":"คลองกำนันเทียน","owner":"สำนักงานระบบควบคุมน้ำ","name":"สถานีสูบน้ำคลองบางแวก","district":"หนองแขม"}},{"type":"Feature","id":36,"geometry":{"type":"Point","coordinates":[100.508933,13.729761]},"properties":{"pump_name":"สถานีสูบน้ำคลองสาน (เจริญนคร 1)","district_t":"คลองสาน","year":"2563","hy_lname":"คลองสาน","owner":"สำนักงานระบบควบคุมน้ำ","name":"สถานีสูบน้ำคลองสาน (เจริญนคร 1)","district":"คลองสาน"}},{"type":"Feature","id":37,"geometry":{"type":"Point","coordinates":[100.5141,13.7304]},"properties":{"pump_name":"สถานีสูบน้ำกรุงเกษม","district_t":"สัมพันธวงศ์","year":"2564","hy_lname":"คลองผดุงกรุงเกษม","owner":"สำนักงานระบบควบคุมน้ำ","name":"สถานีสูบน้ำกรุงเกษม","district":"สัมพันธวงศ์"}},{"type":"Feature","id":38,"geometry":{"type":"Point","coordinates":[100.4868,13.7316]},"properties":{"pump_name":"สถานีสูบน้ำคลองบางไส้ไก่ (วค.บ้านสมเด็จฯ)","district_t":"ธนบุรี","year":"2563","hy_lname":"คลองบางไส้ไก่","owner":"สำนักงานระบบควบคุมน้ำ","name":"สถานีสูบน้ำคลองบางไส้ไก่ (วค.บ้านสมเด็จฯ)","district":"ธนบุรี"}},{"type":"Feature","id":39,"geometry":{"type":"Point","coordinates":[100.498709,13.737821]},"properties":{"pump_name":"สถานีสูบน้ำคลองวัดอนงค์","district_t":"คลองสาน","year":"2563","hy_lname":"คลองข้างวัดอนงคาราม","owner":"สำนักงานระบบควบคุมน้ำ","name":"สถานีสูบน้ำคลองวัดอนงค์","district":"คลองสาน"}},{"type":"Feature","id":40,"geometry":{"type":"Point","coordinates":[100.500411,13.740315]},"properties":{"pump_name":"สถานีสูบน้ำโอ่งอ่าง","district_t":"สัมพันธวงศ์","year":"2563","hy_lname":"คลองรอบกรุง","owner":"สำนักงานระบบควบคุมน้ำ","name":"สถานีสูบน้ำโอ่งอ่าง","district":"สัมพันธวงศ์"}},{"type":"Feature","id":41,"geometry":{"type":"Point","coordinates":[100.490191,13.740757]},"properties":{"pump_name":"สถานีสูบน้ำคลองบางกอกใหญ่","district_t":"บางกอกใหญ่","year":"2564","hy_lname":"คลองบางกอกใหญ่","owner":"สำนักงานระบบควบคุมน้ำ","name":"สถานีสูบน้ำคลองบางกอกใหญ่","district":"บางกอกใหญ่"}},{"type":"Feature","id":42,"geometry":{"type":"Point","coordinates":[100.494607,13.742213]},"properties":{"pump_name":"สถานีสูบน้ำปากคลองตลาด","district_t":"พระนคร","year":"2563","hy_lname":"คลองคูเมืองเดิม","owner":"สำนักงานระบบควบคุมน้ำ","name":"สถานีสูบน้ำปากคลองตลาด","district":"พระนคร"}},{"type":"Feature","id":43,"geometry":{"type":"Point","coordinates":[100.485127,13.747142]},"properties":{"pump_name":"สถานีสูบน้ำคลองมอญ","district_t":"บางกอกใหญ่","year":"2564","hy_lname":"คลองมอญ","owner":"สำนักงานระบบควบคุมน้ำ","name":"สถานีสูบน้ำคลองมอญ","district":"บางกอกใหญ่"}},{"type":"Feature","id":44,"geometry":{"type":"Point","coordinates":[100.460331,13.754904]},"properties":{"pump_name":"สถานีสูบน้ำคลองจักรทอง (ด้านชักพระ)","district_t":"บางกอกน้อย","year":"2563","hy_lname":"คลองชักพระ","owner":"สำนักงานระบบควบคุมน้ำ","name":"สถานีสูบน้ำคลองจักรทอง (ด้านชักพระ)","district":"บางกอกน้อย"}},{"type":"Feature","id":45,"geometry":{"type":"Point","coordinates":[100.491746,13.760883]},"properties":{"pump_name":"สถานีสูบน้ำปิ่นเกล้า","district_t":"พระนคร","year":"2563","hy_lname":"คลองคูเมืองเดิม","owner":"สำนักงานระบบควบคุมน้ำ","name":"สถานีสูบน้ำปิ่นเกล้า","district":"พระนคร"}},{"type":"Feature","id":46,"geometry":{"type":"Point","coordinates":[100.488222,13.762004]},"properties":{"pump_name":"สถานีสูบน้ำคลองวัดดุสิต","district_t":"บางกอกน้อย","year":"2563","hy_lname":"คลองบ้านขนมจีน","owner":"สำนักงานระบบควบคุมน้ำ","name":"สถานีสูบน้ำคลองวัดดุสิต","district":"บางกอกน้อย"}},{"type":"Feature","id":47,"geometry":{"type":"Point","coordinates":[100.4775,13.7633]},"properties":{"pump_name":"สถานีสูบน้ำคลองจักรทอง (ด้านบางกอกน้อย)","district_t":"บางกอกน้อย","year":"2563","hy_lname":"คลองวัดทอง","owner":"สำนักงานระบบควบคุมน้ำ","name":"สถานีสูบน้ำคลองจักรทอง (ด้านบางกอกน้อย)","district":"บางกอกน้อย"}},{"type":"Feature","id":48,"geometry":{"type":"Point","coordinates":[100.47844,13.763898]},"properties":{"pump_name":"สถานีสูบน้ำคลองน้ำตาล","district_t":"บางกอกน้อย","year":"2563","hy_lname":"คลองน้ำตาล","owner":"สำนักงานระบบควบคุมน้ำ","name":"สถานีสูบน้ำคลองน้ำตาล","district":"บางกอกน้อย"}},{"type":"Feature","id":49,"geometry":{"type":"Point","coordinates":[100.496064,13.764373]},"properties":{"pump_name":"สถานีสูบน้ำบางลำพู","district_t":"พระนคร","year":"2563","hy_lname":"คลองรอบกรุง","owner":"สำนักงานระบบควบคุมน้ำ","name":"สถานีสูบน้ำบางลำพู","district":"พระนคร"}},{"type":"Feature","id":50,"geometry":{"type":"Point","coordinates":[100.4762,13.7655]},"properties":{"pump_name":"สถานีสูบน้ำคลองพิณพาทย์","district_t":"บางกอกน้อย","year":"2563","hy_lname":"คลองพิณพาทย์","owner":"สำนักงานระบบควบคุมน้ำ","name":"สถานีสูบน้ำคลองพิณพาทย์","district":"บางกอกน้อย"}},{"type":"Feature","id":51,"geometry":{"type":"Point","coordinates":[100.494009,13.767025]},"properties":{"pump_name":"สถานีสูบน้ำคลองบางยี่ขัน","district_t":"บางพลัด","year":"2563","hy_lname":"คลองบางยี่ขัน","owner":"สำนักงานระบบควบคุมน้ำ","name":"สถานีสูบน้ำคลองบางยี่ขัน","district":"บางพลัด"}},{"type":"Feature","id":52,"geometry":{"type":"Point","coordinates":[100.472237,13.768415]},"properties":{"pump_name":"สถานีสูบน้ำคลองวัดศรีสุดาราม","district_t":"บางกอกน้อย","year":"2563","hy_lname":"-","owner":"สำนักงานระบบควบคุมน้ำ","name":"สถานีสูบน้ำคลองวัดศรีสุดาราม","district":"บางกอกน้อย"}},{"type":"Feature","id":53,"geometry":{"type":"Point","coordinates":[100.501195,13.771823]},"properties":{"pump_name":"สถานีสูบน้ำเทเวศร์","district_t":"พระนคร","year":"2564","hy_lname":"คลองผดุงกรุงเกษม","owner":"สำนักงานระบบควบคุมน้ำ","name":"สถานีสูบน้ำเทเวศร์","district":"พระนคร"}},{"type":"Feature","id":54,"geometry":{"type":"Point","coordinates":[100.47282,13.771391]},"properties":{"pump_name":"สถานีสูบน้ำคลองผักหนาม","district_t":"บางกอกน้อย","year":"2563","hy_lname":"คลองผักหนาม","owner":"สำนักงานระบบควบคุมน้ำ","name":"สถานีสูบน้ำคลองผักหนาม","district":"บางกอกน้อย"}},{"type":"Feature","id":55,"geometry":{"type":"Point","coordinates":[100.4713,13.773622]},"properties":{"pump_name":"สถานีสูบน้ำคลองบางบำหรุ","district_t":"บางกอกน้อย","year":"2563","hy_lname":"คลองบางบำหรุ","owner":"สำนักงานระบบควบคุมน้ำ","name":"สถานีสูบน้ำคลองบางบำหรุ","district":"บางกอกน้อย"}},{"type":"Feature","id":56,"geometry":{"type":"Point","coordinates":[100.497048,13.77399]},"properties":{"pump_name":"สถานีสูบน้ำข้างอู่ต่อเรือสุภัทรา","district_t":"บางพลัด","year":"2563","hy_lname":"คลองวัดบวรมงคล","owner":"สำนักงานระบบควบคุมน้ำ","name":"สถานีสูบน้ำข้างอู่ต่อเรือสุภัทรา","district":"บางพลัด"}},{"type":"Feature","id":57,"geometry":{"type":"Point","coordinates":[100.468049,13.777339]},"properties":{"pump_name":"สถานีสูบน้ำคลองแกลบ","district_t":"บางกอกน้อย","year":"2563","hy_lname":"คลองแกลบ","owner":"สำนักงานระบบควบคุมน้ำ","name":"สถานีสูบน้ำคลองแกลบ","district":"บางกอกน้อย"}},{"type":"Feature","id":58,"geometry":{"type":"Point","coordinates":[100.464949,13.778868]},"properties":{"pump_name":"สถานีสูบน้ำคลองชักพระ","district_t":"ตลิ่งชัน","year":"2564","hy_lname":"คลองชักพระ","owner":"สำนักงานระบบควบคุมน้ำ","name":"สถานีสูบน้ำคลองชักพระ","district":"ตลิ่งชัน"}},{"type":"Feature","id":59,"geometry":{"type":"Point","coordinates":[100.498304,13.778827]},"properties":{"pump_name":"สถานีสูบน้ำคลองบางจาก","district_t":"บางพลัด","year":"2563","hy_lname":"คลองบางจาก","owner":"สำนักงานระบบควบคุมน้ำ","name":"สถานีสูบน้ำคลองบางจาก","district":"บางพลัด"}},{"type":"Feature","id":60,"geometry":{"type":"Point","coordinates":[100.503655,13.779004]},"properties":{"pump_name":"สถานีสูบน้ำคลองบ้านญวน","district_t":"ดุสิต","year":"2563","hy_lname":"คลองบ้านญวนสามเสน","owner":"สำนักงานระบบควบคุมน้ำ","name":"สถานีสูบน้ำคลองบ้านญวน","district":"ดุสิต"}},{"type":"Feature","id":61,"geometry":{"type":"Point","coordinates":[100.505243,13.782623]},"properties":{"pump_name":"สถานีสูบน้ำสังคโลก (ดับเพลิงสามเสน)","district_t":"ดุสิต","year":"2563","hy_lname":"คูน้ำข้างวิทยาลัยเกื้อการุณย์","owner":"สำนักงานระบบควบคุมน้ำ","name":"สถานีสูบน้ำสังคโลก (ดับเพลิงสามเสน)","district":"ดุสิต"}},{"type":"Feature","id":62,"geometry":{"type":"Point","coordinates":[100.508356,13.784821]},"properties":{"pump_name":"สถานีสูบน้ำสามเสน","district_t":"ดุสิต","year":"2564","hy_lname":"คลองสามเสน","owner":"สำนักงานระบบควบคุมน้ำ","name":"สถานีสูบน้ำสามเสน","district":"ดุสิต"}},{"type":"Feature","id":63,"geometry":{"type":"Point","coordinates":[100.465359,13.786372]},"properties":{"pump_name":"สถานีสูบน้ำคลองวัดไก่เตี้ย","district_t":"ตลิ่งชัน","year":"2563","hy_lname":"คลองวัดไก่เตี้ย","owner":"สำนักงานระบบควบคุมน้ำ","name":"สถานีสูบน้ำคลองวัดไก่เตี้ย","district":"ตลิ่งชัน"}},{"type":"Feature","id":64,"geometry":{"type":"Point","coordinates":[100.503414,13.787036]},"properties":{"pump_name":"สถานีสูบน้ำคลองบางพลู","district_t":"บางพลัด","year":"2563","hy_lname":"คลองบางพลู","owner":"สำนักงานระบบควบคุมน้ำ","name":"สถานีสูบน้ำคลองบางพลู","district":"บางพลัด"}},{"type":"Feature","id":65,"geometry":{"type":"Point","coordinates":[100.466,13.789546]},"properties":{"pump_name":"สถานีสูบน้ำคลองสวนแดน 1","district_t":"ตลิ่งชัน","year":"2563","hy_lname":"คลองสวนแดน 1","owner":"สำนักงานระบบควบคุมน้ำ","name":"สถานีสูบน้ำคลองสวนแดน 1","district":"ตลิ่งชัน"}},{"type":"Feature","id":66,"geometry":{"type":"Point","coordinates":[100.506274,13.79071]},"properties":{"pump_name":"สถานีสูบน้ำคลองบางพลัด","district_t":"บางพลัด","year":"2563","hy_lname":"คลองบางพลัด","owner":"สำนักงานระบบควบคุมน้ำ","name":"สถานีสูบน้ำคลองบางพลัด","district":"บางพลัด"}},{"type":"Feature","id":67,"geometry":{"type":"Point","coordinates":[100.508716,13.791719]},"properties":{"pump_name":"สถานีสูบน้ำคลองบางพระครู","district_t":"บางพลัด","year":"2563","hy_lname":"คลองบางพระครู","owner":"สำนักงานระบบควบคุมน้ำ","name":"สถานีสูบน้ำคลองบางพระครู","district":"บางพลัด"}},{"type":"Feature","id":68,"geometry":{"type":"Point","coordinates":[100.510853,13.793829]},"properties":{"pump_name":"สถานีสูบน้ำคลองบางรัก","district_t":"บางพลัด","year":"2563","hy_lname":"คลองบางรัก","owner":"สำนักงานระบบควบคุมน้ำ","name":"สถานีสูบน้ำคลองบางรัก","district":"บางพลัด"}},{"type":"Feature","id":69,"geometry":{"type":"Point","coordinates":[100.510682,13.795748]},"properties":{"pump_name":"สถานีสูบน้ำคลองเตาอิฐ","district_t":"บางพลัด","year":"2563","hy_lname":"คลองเตาอิฐ","owner":"สำนักงานระบบควบคุมน้ำ","name":"สถานีสูบน้ำคลองเตาอิฐ","district":"บางพลัด"}},{"type":"Feature","id":70,"geometry":{"type":"Point","coordinates":[100.513535,13.797791]},"properties":{"pump_name":"สถานีสูบน้ำคลองสะพานยาว","district_t":"บางพลัด","year":"2563","hy_lname":"คลองสะพานยาว","owner":"สำนักงานระบบควบคุมน้ำ","name":"สถานีสูบน้ำคลองสะพานยาว","district":"บางพลัด"}},{"type":"Feature","id":71,"geometry":{"type":"Point","coordinates":[100.444881,13.798437]},"properties":{"pump_name":"สถานีสูบน้ำคลองศาลเจ้า","district_t":"ตลิ่งชัน","year":"2563","hy_lname":"คลองศาลเจ้า","owner":"สำนักงานระบบควบคุมน้ำ","name":"สถานีสูบน้ำคลองศาลเจ้า","district":"ตลิ่งชัน"}},{"type":"Feature","id":72,"geometry":{"type":"Point","coordinates":[100.521114,13.799485]},"properties":{"pump_name":"สถานีสูบน้ำอุโมงค์บางซื่อ","district_t":"ดุสิต","year":"2563","hy_lname":"-","owner":"สำนักงานระบบควบคุมน้ำ","name":"สถานีสูบน้ำอุโมงค์บางซื่อ","district":"ดุสิต"}},{"type":"Feature","id":73,"geometry":{"type":"Point","coordinates":[100.518396,13.800187]},"properties":{"pump_name":"สถานีสูบน้ำคลองบางซื่อ","district_t":"บางซื่อ","year":"2564","hy_lname":"คลองบางซื่อ","owner":"สำนักงานระบบควบคุมน้ำ","name":"สถานีสูบน้ำคลองบางซื่อ","district":"บางซื่อ"}},{"type":"Feature","id":74,"geometry":{"type":"Point","coordinates":[100.514967,13.80076]},"properties":{"pump_name":"สถานีสูบน้ำคลองบางอ้อ","district_t":"บางพลัด","year":"2563","hy_lname":"คลองบางอ้อ","owner":"สำนักงานระบบควบคุมน้ำ","name":"สถานีสูบน้ำคลองบางอ้อ","district":"บางพลัด"}},{"type":"Feature","id":75,"geometry":{"type":"Point","coordinates":[100.503564,13.809876]},"properties":{"pump_name":"สถานีสูบน้ำคลองบางละมุด","district_t":"บางกรวย","year":"2563","hy_lname":"-","owner":"สำนักงานระบบควบคุมน้ำ","name":"สถานีสูบน้ำคลองบางละมุด","district":"บางกรวย"}},{"type":"Feature","id":76,"geometry":{"type":"Point","coordinates":[100.5106,13.8172]},"properties":{"pump_name":"สถานีสูบน้ำคลองบางเขนใหม่","district_t":"บางซื่อ","year":"2564","hy_lname":"คลองบางเขนใหม่","owner":"สำนักงานระบบควบคุมน้ำ","name":"สถานีสูบน้ำคลองบางเขนใหม่","district":"บางซื่อ"}},{"type":"Feature","id":77,"geometry":{"type":"Point","coordinates":[100.507091,13.821146]},"properties":{"pump_name":"สถานีสูบน้ำคลองบางเขนเก่า","district_t":"บางซื่อ","year":"2563","hy_lname":"คลองบางเขน","owner":"สำนักงานระบบควบคุมน้ำ","name":"สถานีสูบน้ำคลองบางเขนเก่า","district":"บางซื่อ"}},{"type":"Feature","id":78,"geometry":{"type":"Point","coordinates":[100.689361,13.663781]},"properties":{"pump_name":"สถานีสูบน้ำคลองอาจารย์พร","district_t":"ประเวศ","year":"2563","hy_lname":"คลองอาจารย์พร","owner":"สำนักงานระบบควบคุมน้ำ","name":"สถานีสูบน้ำคลองอาจารย์พร","district":"ประเวศ"}},{"type":"Feature","id":79,"geometry":{"type":"Point","coordinates":[100.581348,13.667834]},"properties":{"pump_name":"สถานีสูบน้ำคลองวัดโยธินประดิษฐ์","district_t":"บางนา","year":"2563","hy_lname":"-","owner":"สำนักงานระบบควบคุมน้ำ","name":"สถานีสูบน้ำคลองวัดโยธินประดิษฐ์","district":"บางนา"}},{"type":"Feature","id":80,"geometry":{"type":"Point","coordinates":[100.540168,13.670726]},"properties":{"pump_name":"สถานีสูบน้ำคลองวัดด่าน","district_t":"ยานนาวา","year":"2563","hy_lname":"คลองวัดด่าน","owner":"สำนักงานระบบควบคุมน้ำ","name":"สถานีสูบน้ำคลองวัดด่าน","district":"ยานนาวา"}},{"type":"Feature","id":81,"geometry":{"type":"Point","coordinates":[100.534393,13.672074]},"properties":{"pump_name":"สถานีสูบน้ำวัดแฝด","district_t":"ยานนาวา","year":"2563","hy_lname":"คลองแฝด","owner":"สำนักงานระบบควบคุมน้ำ","name":"สถานีสูบน้ำวัดแฝด","district":"ยานนาวา"}},{"type":"Feature","id":82,"geometry":{"type":"Point","coordinates":[100.587717,13.674853]},"properties":{"pump_name":"สถานีสูบน้ำบางนา","district_t":"บางนา","year":"2564","hy_lname":"คลองบางนา","owner":"สำนักงานระบบควบคุมน้ำ","name":"สถานีสูบน้ำบางนา","district":"บางนา"}},{"type":"Feature","id":83,"geometry":{"type":"Point","coordinates":[100.5211,13.6763]},"properties":{"pump_name":"สถานีสูบน้ำคลองแจงร้อน","district_t":"ราษฎร์บูรณะ","year":"2564","hy_lname":"คลองแจงร้อน","owner":"สำนักงานระบบควบคุมน้ำ","name":"สถานีสูบน้ำคลองแจงร้อน","district":"ราษฎร์บูรณะ"}},{"type":"Feature","id":84,"geometry":{"type":"Point","coordinates":[100.548311,13.676734]},"properties":{"pump_name":"สถานีสูบน้ำคลองใหม่","district_t":"ยานนาวา","year":"2563","hy_lname":"คลองใหม่","owner":"สำนักงานระบบควบคุมน้ำ","name":"สถานีสูบน้ำคลองใหม่","district":"ยานนาวา"}},{"type":"Feature","id":85,"geometry":{"type":"Point","coordinates":[100.527798,13.677496]},"properties":{"pump_name":"สถานีสูบน้ำสาธุประดิษฐ์","district_t":"ยานนาวา","year":"2563","hy_lname":"-","owner":"สำนักงานระบบควบคุมน้ำ","name":"สถานีสูบน้ำสาธุประดิษฐ์","district":"ยานนาวา"}},{"type":"Feature","id":86,"geometry":{"type":"Point","coordinates":[100.550268,13.681033]},"properties":{"pump_name":"สถานีสูบน้ำคลองภูมิ","district_t":"ยานนาวา","year":"2563","hy_lname":"คลองภูมิ","owner":"สำนักงานระบบควบคุมน้ำ","name":"สถานีสูบน้ำคลองภูมิ","district":"ยานนาวา"}},{"type":"Feature","id":87,"geometry":{"type":"Point","coordinates":[100.592336,13.682096]},"properties":{"pump_name":"สถานีสูบน้ำบางอ้อ","district_t":"พระโขนง","year":"2564","hy_lname":"คลองบางอ้อใหญ่","owner":"สำนักงานระบบควบคุมน้ำ","name":"สถานีสูบน้ำบางอ้อ","district":"พระโขนง"}},{"type":"Feature","id":88,"geometry":{"type":"Point","coordinates":[100.550556,13.685437]},"properties":{"pump_name":"สถานีสูบน้ำคลองสวน","district_t":"ยานนาวา","year":"2563","hy_lname":"คลองสวน","owner":"สำนักงานระบบควบคุมน้ำ","name":"สถานีสูบน้ำคลองสวน","district":"ยานนาวา"}},{"type":"Feature","id":89,"geometry":{"type":"Point","coordinates":[100.516761,13.686888]},"properties":{"pump_name":"สถานีสูบน้ำคลองวัดไทร","district_t":"บางคอแหลม","year":"2564","hy_lname":"คลองวัดไทร","owner":"สำนักงานระบบควบคุมน้ำ","name":"สถานีสูบน้ำคลองวัดไทร","district":"บางคอแหลม"}},{"type":"Feature","id":90,"geometry":{"type":"Point","coordinates":[100.590717,13.689313]},"properties":{"pump_name":"สถานีสูบน้ำบางจาก","district_t":"พระโขนง","year":"2564","hy_lname":"คลองบางจาก","owner":"สำนักงานระบบควบคุมน้ำ","name":"สถานีสูบน้ำบางจาก","district":"พระโขนง"}},{"type":"Feature","id":91,"geometry":{"type":"Point","coordinates":[100.549827,13.690945]},"properties":{"pump_name":"สถานีสูบน้ำคลองตาเริก","district_t":"ยานนาวา","year":"2563","hy_lname":"คลองตาเริก","owner":"สำนักงานระบบควบคุมน้ำ","name":"สถานีสูบน้ำคลองตาเริก","district":"ยานนาวา"}},{"type":"Feature","id":92,"geometry":{"type":"Point","coordinates":[100.589802,13.69222]},"properties":{"pump_name":"สถานีสูบน้ำคลองเจ๊ก","district_t":"พระโขนง","year":"2564","hy_lname":"คลองเจ็ก","owner":"สำนักงานระบบควบคุมน้ำ","name":"สถานีสูบน้ำคลองเจ๊ก","district":"พระโขนง"}},{"type":"Feature","id":93,"geometry":{"type":"Point","coordinates":[100.548759,13.695032]},"properties":{"pump_name":"สถานีสูบน้ำคลองช่องนนทรี","district_t":"ยานนาวา","year":"2564","hy_lname":"คลองช่องนนทรี","owner":"สำนักงานระบบควบคุมน้ำ","name":"สถานีสูบน้ำคลองช่องนนทรี","district":"ยานนาวา"}},{"type":"Feature","id":94,"geometry":{"type":"Point","coordinates":[100.653786,13.695384]},"properties":{"pump_name":"สถานีสูบน้ำบึงหนองบอน","district_t":"ประเวศ","year":"2563","hy_lname":"-","owner":"สำนักงานระบบควบคุมน้ำ","name":"สถานีสูบน้ำบึงหนองบอน","district":"ประเวศ"}},{"type":"Feature","id":95,"geometry":{"type":"Point","coordinates":[100.5893,13.7047]},"properties":{"pump_name":"สถานีสูบน้ำหิมะทองคำ","district_t":"คลองเตย","year":"2563","hy_lname":"คลองบางจาก","owner":"สำนักงานระบบควบคุมน้ำ","name":"สถานีสูบน้ำหิมะทองคำ","district":"คลองเตย"}},{"type":"Feature","id":96,"geometry":{"type":"Point","coordinates":[100.5495,13.7052]},"properties":{"pump_name":"สถานีสูบน้ำคลองขุดวัดช่องลม","district_t":"ยานนาวา","year":"2563","hy_lname":"คลองขุด","owner":"สำนักงานระบบควบคุมน้ำ","name":"สถานีสูบน้ำคลองขุดวัดช่องลม","district":"ยานนาวา"}},{"type":"Feature","id":97,"geometry":{"type":"Point","coordinates":[100.5877,13.7063]},"properties":{"pump_name":"สถานีสูบน้ำคลองเตย","district_t":"คลองเตย","year":"2564","hy_lname":"คลองเตย","owner":"สำนักงานระบบควบคุมน้ำ","name":"สถานีสูบน้ำคลองเตย","district":"คลองเตย"}},{"type":"Feature","id":98,"geometry":{"type":"Point","coordinates":[100.554483,13.70861]},"properties":{"pump_name":"สถานีสูบน้ำพระราม 4","district_t":"คลองเตย","year":"2563","hy_lname":"-","owner":"สำนักงานระบบควบคุมน้ำ","name":"สถานีสูบน้ำพระราม 4","district":"คลองเตย"}},{"type":"Feature","id":99,"geometry":{"type":"Point","coordinates":[100.59452,13.7086]},"properties":{"pump_name":"สถานีสูบน้ำคลองยายล้อม","district_t":"คลองเตย","year":"2563","hy_lname":"คลองยายล้อม","owner":"สำนักงานระบบควบคุมน้ำ","name":"สถานีสูบน้ำคลองยายล้อม","district":"คลองเตย"}},{"type":"Feature","id":100,"geometry":{"type":"Point","coordinates":[100.594931,13.708686]},"properties":{"pump_name":"สถานีสูบน้ำพระโขนง","district_t":"คลองเตย","year":"2564","hy_lname":"-","owner":"สำนักงานระบบควบคุมน้ำ","name":"สถานีสูบน้ำพระโขนง","district":"คลองเตย"}},{"type":"Feature","id":101,"geometry":{"type":"Point","coordinates":[100.616404,13.709211]},"properties":{"pump_name":"สถานีสูบน้ำคลองสวนอ้อย","district_t":"สวนหลวง","year":"2563","hy_lname":"คลองสวนอ้อย","owner":"สำนักงานระบบควบคุมน้ำ","name":"สถานีสูบน้ำคลองสวนอ้อย","district":"สวนหลวง"}},{"type":"Feature","id":102,"geometry":{"type":"Point","coordinates":[100.62158,13.709505]},"properties":{"pump_name":"สถานีสูบน้ำคลองบ้านหลาย","district_t":"สวนหลวง","year":"2563","hy_lname":"คลองบ้านหลาย","owner":"สำนักงานระบบควบคุมน้ำ","name":"สถานีสูบน้ำคลองบ้านหลาย","district":"สวนหลวง"}},{"type":"Feature","id":103,"geometry":{"type":"Point","coordinates":[100.595105,13.709831]},"properties":{"pump_name":"สถานีสูบน้ำอุโมงค์พระโขนง","district_t":"คลองเตย","year":"2563","hy_lname":"คลองพระโขนง","owner":"สำนักงานระบบควบคุมน้ำ","name":"สถานีสูบน้ำอุโมงค์พระโขนง","district":"คลองเตย"}},{"type":"Feature","id":104,"geometry":{"type":"Point","coordinates":[100.630622,13.710542]},"properties":{"pump_name":"สถานีสูบน้ำคลองเคล็ด","district_t":"สวนหลวง","year":"2563","hy_lname":"คลองเคล็ด","owner":"สำนักงานระบบควบคุมน้ำ","name":"สถานีสูบน้ำคลองเคล็ด","district":"สวนหลวง"}},{"type":"Feature","id":105,"geometry":{"type":"Point","coordinates":[100.6031,13.7109]},"properties":{"pump_name":"สถานีสูบน้ำคลองบางนางจีน","district_t":"วัฒนา","year":"2563","hy_lname":"คลองบางนางจีน","owner":"สำนักงานระบบควบคุมน้ำ","name":"สถานีสูบน้ำคลองบางนางจีน","district":"วัฒนา"}},{"type":"Feature","id":106,"geometry":{"type":"Point","coordinates":[100.640895,13.712134]},"properties":{"pump_name":"สถานีสูบน้ำคลองขุนสกล","district_t":"สวนหลวง","year":"2563","hy_lname":"คลองขุนสกล","owner":"สำนักงานระบบควบคุมน้ำ","name":"สถานีสูบน้ำคลองขุนสกล","district":"สวนหลวง"}},{"type":"Feature","id":107,"geometry":{"type":"Point","coordinates":[100.598564,13.712602]},"properties":{"pump_name":"สถานีสูบน้ำคลองบางมะเขือ","district_t":"วัฒนา","year":"2563","hy_lname":"คลองบางมะเขือ","owner":"สำนักงานระบบควบคุมน้ำ","name":"สถานีสูบน้ำคลองบางมะเขือ","district":"วัฒนา"}},{"type":"Feature","id":108,"geometry":{"type":"Point","coordinates":[100.651149,13.716176]},"properties":{"pump_name":"สถานีสูบน้ำคลองหนองบอน (ตอนอ่อนนุช)","district_t":"สวนหลวง","year":"2563","hy_lname":"คลองหนองบอน","owner":"สำนักงานระบบควบคุมน้ำ","name":"สถานีสูบน้ำคลองหนองบอน (ตอนอ่อนนุช)","district":"สวนหลวง"}},{"type":"Feature","id":109,"geometry":{"type":"Point","coordinates":[100.6587,13.7174]},"properties":{"pump_name":"สถานีสูบน้ำคลองศาลาลอยล่าง (ตอนอ่อนนุช)","district_t":"ประเวศ","year":"2563","hy_lname":"คลองศาลาลอยล่าง","owner":"สำนักงานระบบควบคุมน้ำ","name":"สถานีสูบน้ำคลองศาลาลอยล่าง (ตอนอ่อนนุช)","district":"ประเวศ"}},{"type":"Feature","id":110,"geometry":{"type":"Point","coordinates":[100.67832,13.719895]},"properties":{"pump_name":"สถานีสูบน้ำคลองศาลาลอยบน (ตอนอ่อนนุช)","district_t":"ประเวศ","year":"2563","hy_lname":"คลองสองห้อง","owner":"สำนักงานระบบควบคุมน้ำ","name":"สถานีสูบน้ำคลองศาลาลอยบน (ตอนอ่อนนุช)","district":"ประเวศ"}},{"type":"Feature","id":111,"geometry":{"type":"Point","coordinates":[100.701041,13.720996]},"properties":{"pump_name":"สถานีสูบน้ำจระเข้ขบ (ตอนอ่อนนุช)","district_t":"ประเวศ","year":"2563","hy_lname":"คลองจรเข้ขบ","owner":"สำนักงานระบบควบคุมน้ำ","name":"สถานีสูบน้ำจระเข้ขบ (ตอนอ่อนนุช)","district":"ประเวศ"}},{"type":"Feature","id":112,"geometry":{"type":"Point","coordinates":[100.6646,13.7242]},"properties":{"pump_name":"แก้มลิงหมู่บ้านเมืองทองการ์เด้นท์","district_t":"ประเวศ","year":"2563","hy_lname":"คลองบ้านม้า","owner":"สำนักงานระบบควบคุมน้ำ","name":"แก้มลิงหมู่บ้านเมืองทองการ์เด้นท์","district":"ประเวศ"}},{"type":"Feature","id":113,"geometry":{"type":"Point","coordinates":[100.624026,13.739806]},"properties":{"pump_name":"สถานีสูบน้ำคลองลาว","district_t":"สวนหลวง","year":"2563","hy_lname":"-","owner":"สำนักงานระบบควบคุมน้ำ","name":"สถานีสูบน้ำคลองลาว","district":"สวนหลวง"}},{"type":"Feature","id":114,"geometry":{"type":"Point","coordinates":[100.588903,13.741464]},"properties":{"pump_name":"สถานีสูบน้ำคลองเป้ง","district_t":"วัฒนา","year":"2563","hy_lname":"คลองเป้ง","owner":"สำนักงานระบบควบคุมน้ำ","name":"สถานีสูบน้ำคลองเป้ง","district":"วัฒนา"}},{"type":"Feature","id":115,"geometry":{"type":"Point","coordinates":[100.6042,13.7466]},"properties":{"pump_name":"สถานีสูบน้ำคลองกะจะ","district_t":"สวนหลวง","year":"2563","hy_lname":"คลองกะจะ","owner":"สำนักงานระบบควบคุมน้ำ","name":"สถานีสูบน้ำคลองกะจะ","district":"สวนหลวง"}},{"type":"Feature","id":116,"geometry":{"type":"Point","coordinates":[100.53614,13.747976]},"properties":{"pump_name":"สถานีสูบน้ำคลองอรชร","district_t":"ปทุมวัน","year":"2563","hy_lname":"คลองอรชร","owner":"สำนักงานระบบควบคุมน้ำ","name":"สถานีสูบน้ำคลองอรชร","district":"ปทุมวัน"}},{"type":"Feature","id":117,"geometry":{"type":"Point","coordinates":[100.561243,13.748055]},"properties":{"pump_name":"สถานีสูบน้ำคูน้ำวัฒนา","district_t":"วัฒนา","year":"2563","hy_lname":"คลองแสนแสบ","owner":"สำนักงานระบบควบคุมน้ำ","name":"สถานีสูบน้ำคูน้ำวัฒนา","district":"วัฒนา"}},{"type":"Feature","id":118,"geometry":{"type":"Point","coordinates":[100.5991,13.7485]},"properties":{"pump_name":"สถานีสูบน้ำคลองสามเสน (ศูนย์วิจัย)","district_t":"ห้วยขวาง","year":"2564","hy_lname":"คลองสามเสน","owner":"สำนักงานระบบควบคุมน้ำ","name":"สถานีสูบน้ำคลองสามเสน (ศูนย์วิจัย)","district":"ห้วยขวาง"}},{"type":"Feature","id":119,"geometry":{"type":"Point","coordinates":[100.551806,13.749695]},"properties":{"pump_name":"สถานีสูบน้ำข้างวัดมักกะสัน","district_t":"ราชเทวี","year":"2563","hy_lname":"คูข้างโรงพยาบาลรถไฟมักกะสัน","owner":"สำนักงานระบบควบคุมน้ำ","name":"สถานีสูบน้ำข้างวัดมักกะสัน","district":"ราชเทวี"}},{"type":"Feature","id":120,"geometry":{"type":"Point","coordinates":[100.581078,13.754409]},"properties":{"pump_name":"สถานีสูบน้ำคลองชวดใหญ่ (ตอนคลองสามเสน)","district_t":"ห้วยขวาง","year":"2563","hy_lname":"คลองชวดใหญ่","owner":"สำนักงานระบบควบคุมน้ำ","name":"สถานีสูบน้ำคลองชวดใหญ่ (ตอนคลองสามเสน)","district":"ห้วยขวาง"}},{"type":"Feature","id":121,"geometry":{"type":"Point","coordinates":[100.552327,13.755866]},"properties":{"pump_name":"สถานีสูบน้ำบึงมักกะสัน (คลองสามเสน)","district_t":"ดินแดง","year":"2563","hy_lname":"คลองสามเสน","owner":"สำนักงานระบบควบคุมน้ำ","name":"สถานีสูบน้ำบึงมักกะสัน (คลองสามเสน)","district":"ดินแดง"}},{"type":"Feature","id":122,"geometry":{"type":"Point","coordinates":[100.560485,13.756212]},"properties":{"pump_name":"สถานีสูบน้ำคลองนาซอง","district_t":"ดินแดง","year":"2563","hy_lname":"คลองนาซอง","owner":"สำนักงานระบบควบคุมน้ำ","name":"สถานีสูบน้ำคลองนาซอง","district":"ดินแดง"}},{"type":"Feature","id":123,"geometry":{"type":"Point","coordinates":[100.6088,13.7562]},"properties":{"pump_name":"สถานีสูบน้ำคลองตาป่วน","district_t":"วังทองหลาง","year":"2563","hy_lname":"ลำรางตาป่วน","owner":"สำนักงานระบบควบคุมน้ำ","name":"สถานีสูบน้ำคลองตาป่วน","district":"วังทองหลาง"}},{"type":"Feature","id":124,"geometry":{"type":"Point","coordinates":[100.555315,13.757119]},"properties":{"pump_name":"สถานีสูบน้ำโบสถ์แม่พระฟาติมา","district_t":"ดินแดง","year":"2563","hy_lname":"คูข้างโบสถ์แม่พระฟาติมา","owner":"สำนักงานระบบควบคุมน้ำ","name":"สถานีสูบน้ำโบสถ์แม่พระฟาติมา","district":"ดินแดง"}},{"type":"Feature","id":125,"geometry":{"type":"Point","coordinates":[100.610323,13.757294]},"properties":{"pump_name":"สถานีสูบน้ำลำรางกระบือ (ตอนคลองแสนแสบ)","district_t":"วังทองหลาง","year":"2563","hy_lname":"ลำรางหลังวิทยาลัยอินทราชัย","owner":"สำนักงานระบบควบคุมน้ำ","name":"สถานีสูบน้ำลำรางกระบือ (ตอนคลองแสนแสบ)","district":"วังทองหลาง"}},{"type":"Feature","id":126,"geometry":{"type":"Point","coordinates":[100.613385,13.759397]},"properties":{"pump_name":"สถานีสูบน้ำซอยรามคำแหง 39","district_t":"บางกะปิ","year":"2563","hy_lname":"คลองแสนแสบ","owner":"สำนักงานระบบควบคุมน้ำ","name":"สถานีสูบน้ำซอยรามคำแหง 39","district":"บางกะปิ"}},{"type":"Feature","id":127,"geometry":{"type":"Point","coordinates":[100.627771,13.760865]},"properties":{"pump_name":"สถานีสูบน้ำหน้าสน.หัวหมาก","district_t":"บางกะปิ","year":"2563","hy_lname":"คลองข้าง สน.หัวหมาก","owner":"สำนักงานระบบควบคุมน้ำ","name":"สถานีสูบน้ำหน้าสน.หัวหมาก","district":"บางกะปิ"}},{"type":"Feature","id":128,"geometry":{"type":"Point","coordinates":[100.611773,13.761082]},"properties":{"pump_name":"สถานีสูบน้ำคลองวัดตึก","district_t":"วังทองหลาง","year":"2563","hy_lname":"คลองวัดตึก","owner":"สำนักงานระบบควบคุมน้ำ","name":"สถานีสูบน้ำคลองวัดตึก","district":"วังทองหลาง"}},{"type":"Feature","id":129,"geometry":{"type":"Point","coordinates":[100.615245,13.761379]},"properties":{"pump_name":"สถานีสูบน้ำเจ้าคุณสิงห์","district_t":"วังทองหลาง","year":"2564","hy_lname":"คลองเจ้าคุณสิงห์","owner":"สำนักงานระบบควบคุมน้ำ","name":"สถานีสูบน้ำเจ้าคุณสิงห์","district":"วังทองหลาง"}},{"type":"Feature","id":130,"geometry":{"type":"Point","coordinates":[100.632825,13.761481]},"properties":{"pump_name":"สถานีสูบน้ำคลองจิก (ถ.รามคำแหง)","district_t":"บางกะปิ","year":"2563","hy_lname":"คลองจิก","owner":"สำนักงานระบบควบคุมน้ำ","name":"สถานีสูบน้ำคลองจิก (ถ.รามคำแหง)","district":"บางกะปิ"}},{"type":"Feature","id":131,"geometry":{"type":"Point","coordinates":[100.623198,13.761952]},"properties":{"pump_name":"สถานีสูบน้ำคลองจิกกานดา","district_t":"บางกะปิ","year":"2563","hy_lname":"คลองแสนแสบ","owner":"สำนักงานระบบควบคุมน้ำ","name":"สถานีสูบน้ำคลองจิกกานดา","district":"บางกะปิ"}},{"type":"Feature","id":132,"geometry":{"type":"Point","coordinates":[100.624178,13.762094]},"properties":{"pump_name":"สถานีสูบน้ำมหาดไทย 65","district_t":"บางกะปิ","year":"2563","hy_lname":"คลองแสนแสบ","owner":"สำนักงานระบบควบคุมน้ำ","name":"สถานีสูบน้ำมหาดไทย 65","district":"บางกะปิ"}},{"type":"Feature","id":133,"geometry":{"type":"Point","coordinates":[100.622716,13.762476]},"properties":{"pump_name":"สถานีสูบน้ำคลองจิตมิตรมหาดไทย (ตอนคลองแสนแสบ)","district_t":"วังทองหลาง","year":"2563","hy_lname":"คลองแสนแสบ","owner":"สำนักงานระบบควบคุมน้ำ","name":"สถานีสูบน้ำคลองจิตมิตรมหาดไทย (ตอนคลองแสนแสบ)","district":"วังทองหลาง"}},{"type":"Feature","id":134,"geometry":{"type":"Point","coordinates":[100.6411,13.7624]},"properties":{"pump_name":"สถานีสูบน้ำคลองจิต (ถ.รามคำแหง)","district_t":"บางกะปิ","year":"2563","hy_lname":"คลองจิก","owner":"สำนักงานระบบควบคุมน้ำ","name":"สถานีสูบน้ำคลองจิต (ถ.รามคำแหง)","district":"บางกะปิ"}},{"type":"Feature","id":135,"geometry":{"type":"Point","coordinates":[100.591973,13.763108]},"properties":{"pump_name":"สถานีสูบน้ำคลองชวดใหญ่ (ลาดพร้าว)","district_t":"ห้วยขวาง","year":"2563","hy_lname":"คลองชวดใหญ่","owner":"สำนักงานระบบควบคุมน้ำ","name":"สถานีสูบน้ำคลองชวดใหญ่ (ลาดพร้าว)","district":"ห้วยขวาง"}},{"type":"Feature","id":136,"geometry":{"type":"Point","coordinates":[100.646921,13.763301]},"properties":{"pump_name":"สถานีสูบน้ำคลองโต๊ะยอ","district_t":"บางกะปิ","year":"2563","hy_lname":"คลองโต๊ะยอ","owner":"สำนักงานระบบควบคุมน้ำ","name":"สถานีสูบน้ำคลองโต๊ะยอ","district":"บางกะปิ"}},{"type":"Feature","id":137,"geometry":{"type":"Point","coordinates":[100.595906,13.763489]},"properties":{"pump_name":"สถานีสูบน้ำคลองพลับพลา  (ตอนคลองลาดพร้าว)","district_t":"วังทองหลาง","year":"2563","hy_lname":"คลองพลับพลา","owner":"สำนักงานระบบควบคุมน้ำ","name":"สถานีสูบน้ำคลองพลับพลา  (ตอนคลองลาดพร้าว)","district":"วังทองหลาง"}},{"type":"Feature","id":138,"geometry":{"type":"Point","coordinates":[100.633841,13.763694]},"properties":{"pump_name":"สถานีสูบน้ำลำรางสาธารณะซอยลาดพร้าว 130 (ตอนคลองแสนแสบ)","district_t":"บางกะปิ","year":"2563","hy_lname":"ลำรางเลียบซอยลาดพร้าว 130","owner":"สำนักงานระบบควบคุมน้ำ","name":"สถานีสูบน้ำลำรางสาธารณะซอยลาดพร้าว 130 (ตอนคลองแสนแสบ)","district":"บางกะปิ"}},{"type":"Feature","id":139,"geometry":{"type":"Point","coordinates":[100.636289,13.764344]},"properties":{"pump_name":"สถานีสูบน้ำคูน้ำข้างวัดกลาง (ตอนคลองแสนแสบ)","district_t":"บางกะปิ","year":"2563","hy_lname":"คลองแสนแสบ","owner":"สำนักงานระบบควบคุมน้ำ","name":"สถานีสูบน้ำคูน้ำข้างวัดกลาง (ตอนคลองแสนแสบ)","district":"บางกะปิ"}},{"type":"Feature","id":140,"geometry":{"type":"Point","coordinates":[100.6437,13.7649]},"properties":{"pump_name":"สถานีสูบน้ำคลองตาหนัง","district_t":"บางกะปิ","year":"2563","hy_lname":"คลองตาหนัง","owner":"สำนักงานระบบควบคุมน้ำ","name":"สถานีสูบน้ำคลองตาหนัง","district":"บางกะปิ"}},{"type":"Feature","id":141,"geometry":{"type":"Point","coordinates":[100.639523,13.767769]},"properties":{"pump_name":"สถานีสูบน้ำคลองยายเผื่อน","district_t":"บางกะปิ","year":"2563","hy_lname":"คลองยายเผื่อน","owner":"สำนักงานระบบควบคุมน้ำ","name":"สถานีสูบน้ำคลองยายเผื่อน","district":"บางกะปิ"}},{"type":"Feature","id":142,"geometry":{"type":"Point","coordinates":[100.593289,13.768804]},"properties":{"pump_name":"สถานีสูบน้ำคลองชวดตาเชียง (ตอนคลองลาดพร้าว)","district_t":"วังทองหลาง","year":"2563","hy_lname":"-","owner":"สำนักงานระบบควบคุมน้ำ","name":"สถานีสูบน้ำคลองชวดตาเชียง (ตอนคลองลาดพร้าว)","district":"วังทองหลาง"}},{"type":"Feature","id":143,"geometry":{"type":"Point","coordinates":[100.5512,13.7691]},"properties":{"pump_name":"สถานีสูบน้ำดินแดง-ขาเข้า","district_t":"พญาไท","year":"2563","hy_lname":"คูระบายน้ำข้างถนนวิภาวดีรังสิต","owner":"สำนักงานระบบควบคุมน้ำ","name":"สถานีสูบน้ำดินแดง-ขาเข้า","district":"พญาไท"}},{"type":"Feature","id":144,"geometry":{"type":"Point","coordinates":[100.6519,13.7686]},"properties":{"pump_name":"สถานีสูบน้ำคลองลำพังพวย (นิด้า)","district_t":"บางกะปิ","year":"2563","hy_lname":"คลองลำพังพวย","owner":"สำนักงานระบบควบคุมน้ำ","name":"สถานีสูบน้ำคลองลำพังพวย (นิด้า)","district":"บางกะปิ"}},{"type":"Feature","id":145,"geometry":{"type":"Point","coordinates":[100.628161,13.774712]},"properties":{"pump_name":"สถานีสูบน้ำจิตมิตรมหาดไทย (ตอนคลองจั่น)","district_t":"วังทองหลาง","year":"2563","hy_lname":"คลองจิตรมิตรมหาดไทย","owner":"สำนักงานระบบควบคุมน้ำ","name":"สถานีสูบน้ำจิตมิตรมหาดไทย (ตอนคลองจั่น)","district":"วังทองหลาง"}},{"type":"Feature","id":146,"geometry":{"type":"Point","coordinates":[100.565476,13.775287]},"properties":{"pump_name":"สถานีสูบน้ำประชาสงเคราะห์ 24","district_t":"ดินแดง","year":"2563","hy_lname":"คลองนาซอง","owner":"สำนักงานระบบควบคุมน้ำ","name":"สถานีสูบน้ำประชาสงเคราะห์ 24","district":"ดินแดง"}},{"type":"Feature","id":147,"geometry":{"type":"Point","coordinates":[100.5399,13.7841]},"properties":{"pump_name":"สถานีสูบน้ำบึงพิบูลย์วัฒนา","district_t":"พญาไท","year":"2563","hy_lname":"-","owner":"สำนักงานระบบควบคุมน้ำ","name":"สถานีสูบน้ำบึงพิบูลย์วัฒนา","district":"พญาไท"}},{"type":"Feature","id":148,"geometry":{"type":"Point","coordinates":[100.665029,13.784982]},"properties":{"pump_name":"สถานีสูบน้ำบึงกุ่ม (ตอนสวนเสรีไทย)","district_t":"บึงกุ่ม","year":"2563","hy_lname":"-","owner":"สำนักงานระบบควบคุมน้ำ","name":"สถานีสูบน้ำบึงกุ่ม (ตอนสวนเสรีไทย)","district":"บึงกุ่ม"}},{"type":"Feature","id":149,"geometry":{"type":"Point","coordinates":[100.661714,13.784552]},"properties":{"pump_name":"สถานีสูบน้ำบึงกุ่ม (ตอนคลองบางเตย)","district_t":"บึงกุ่ม","year":"2563","hy_lname":"คลองบางเตย","owner":"สำนักงานระบบควบคุมน้ำ","name":"สถานีสูบน้ำบึงกุ่ม (ตอนคลองบางเตย)","district":"บึงกุ่ม"}},{"type":"Feature","id":150,"geometry":{"type":"Point","coordinates":[100.561327,13.787305]},"properties":{"pump_name":"สถานีสูบน้ำสุทธิสาร-ขาเข้า","district_t":"ดินแดง","year":"2563","hy_lname":"คูระบายน้ำข้างถนนวิภาวดีรังสิต","owner":"สำนักงานระบบควบคุมน้ำ","name":"สถานีสูบน้ำสุทธิสาร-ขาเข้า","district":"ดินแดง"}},{"type":"Feature","id":151,"geometry":{"type":"Point","coordinates":[100.560724,13.78782]},"properties":{"pump_name":"สถานีสูบน้ำสุทธิสาร-ขาออก","district_t":"พญาไท","year":"2563","hy_lname":"คูระบายน้ำช่วงถนนวิภาวดีรังสิต","owner":"สำนักงานระบบควบคุมน้ำ","name":"สถานีสูบน้ำสุทธิสาร-ขาออก","district":"พญาไท"}},{"type":"Feature","id":152,"geometry":{"type":"Point","coordinates":[100.62801,13.788481]},"properties":{"pump_name":"สถานีสูบน้ำคลองลำพังพวย (ตอนคลองจั่น)","district_t":"บางกะปิ","year":"2563","hy_lname":"-","owner":"สำนักงานระบบควบคุมน้ำ","name":"สถานีสูบน้ำคลองลำพังพวย (ตอนคลองจั่น)","district":"บางกะปิ"}},{"type":"Feature","id":153,"geometry":{"type":"Point","coordinates":[100.569597,13.790576]},"properties":{"pump_name":"สถานีสูบน้ำคลองห้วยขวาง","district_t":"ดินแดง","year":"2563","hy_lname":"คลองห้วยขวาง","owner":"สำนักงานระบบควบคุมน้ำ","name":"สถานีสูบน้ำคลองห้วยขวาง","district":"ดินแดง"}},{"type":"Feature","id":154,"geometry":{"type":"Point","coordinates":[100.656751,13.792372]},"properties":{"pump_name":"สถานีสูบน้ำลำรางสาธารณะ (ตอนคลองบางเตย นวมินทร์ 26)","district_t":"บึงกุ่ม","year":"2563","hy_lname":"คลองบางเตย","owner":"สำนักงานระบบควบคุมน้ำ","name":"สถานีสูบน้ำลำรางสาธารณะ (ตอนคลองบางเตย นวมินทร์ 26)","district":"บึงกุ่ม"}},{"type":"Feature","id":155,"geometry":{"type":"Point","coordinates":[100.561559,13.794727]},"properties":{"pump_name":"สถานีสูบน้ำคลองบางซื่อ-ขาเข้า (ฝั่งใต้)","district_t":"ดินแดง","year":"2563","hy_lname":"คลองบางซื่อ","owner":"สำนักงานระบบควบคุมน้ำ","name":"สถานีสูบน้ำคลองบางซื่อ-ขาเข้า (ฝั่งใต้)","district":"ดินแดง"}},{"type":"Feature","id":156,"geometry":{"type":"Point","coordinates":[100.561522,13.795122]},"properties":{"pump_name":"สถานีสูบน้ำคลองบางซื่อ-ขาเข้า (ฝั่งเหนือ)","district_t":"จตุจักร","year":"2563","hy_lname":"คลองบางซื่อ","owner":"สำนักงานระบบควบคุมน้ำ","name":"สถานีสูบน้ำคลองบางซื่อ-ขาเข้า (ฝั่งเหนือ)","district":"จตุจักร"}},{"type":"Feature","id":157,"geometry":{"type":"Point","coordinates":[100.560806,13.795312]},"properties":{"pump_name":"สถานีสูบน้ำคลองบางซื่อ-ขาออก(ฝั่งเหนือ)","district_t":"จตุจักร","year":"2563","hy_lname":"คูระบายน้ำช่วงถนนวิภาวดีรังสิต","owner":"สำนักงานระบบควบคุมน้ำ","name":"สถานีสูบน้ำคลองบางซื่อ-ขาออก(ฝั่งเหนือ)","district":"จตุจักร"}},{"type":"Feature","id":158,"geometry":{"type":"Point","coordinates":[100.6735,13.7946]},"properties":{"pump_name":"สถานีสูบน้ำคลองระหัส","district_t":"บึงกุ่ม","year":"2563","hy_lname":"คลองระหัส","owner":"สำนักงานระบบควบคุมน้ำ","name":"สถานีสูบน้ำคลองระหัส","district":"บึงกุ่ม"}},{"type":"Feature","id":159,"geometry":{"type":"Point","coordinates":[100.623473,13.800153]},"properties":{"pump_name":"สถานีสูบน้ำคลองทรงกระเทียม (ตอนคลองจั่น)","district_t":"วังทองหลาง","year":"2563","hy_lname":"คลองจั่น","owner":"สำนักงานระบบควบคุมน้ำ","name":"สถานีสูบน้ำคลองทรงกระเทียม (ตอนคลองจั่น)","district":"วังทองหลาง"}},{"type":"Feature","id":160,"geometry":{"type":"Point","coordinates":[100.651708,13.801038]},"properties":{"pump_name":"สถานีสูบน้ำคลองบวบขม (ตอนคลองบางเตย)","district_t":"บึงกุ่ม","year":"2563","hy_lname":"คลองบางเตย","owner":"สำนักงานระบบควบคุมน้ำ","name":"สถานีสูบน้ำคลองบวบขม (ตอนคลองบางเตย)","district":"บึงกุ่ม"}},{"type":"Feature","id":161,"geometry":{"type":"Point","coordinates":[100.588963,13.802793]},"properties":{"pump_name":"สถานีสูบน้ำคลองทรงกระเทียม (ตอนวัดลาดพร้าว)","district_t":"ลาดพร้าว","year":"2563","hy_lname":"คลองทรงกระเทียม","owner":"สำนักงานระบบควบคุมน้ำ","name":"สถานีสูบน้ำคลองทรงกระเทียม (ตอนวัดลาดพร้าว)","district":"ลาดพร้าว"}},{"type":"Feature","id":162,"geometry":{"type":"Point","coordinates":[100.536,13.8046]},"properties":{"pump_name":"สถานีสูบน้ำคลองเปรมประชากร","district_t":"บางซื่อ","year":"2563","hy_lname":"คลองเปรมประชากร","owner":"สำนักงานระบบควบคุมน้ำ","name":"สถานีสูบน้ำคลองเปรมประชากร","district":"บางซื่อ"}},{"type":"Feature","id":163,"geometry":{"type":"Point","coordinates":[100.519551,13.805188]},"properties":{"pump_name":"สถานีสูบน้ำคลองขรัวตาแก่น","district_t":"บางซื่อ","year":"2563","hy_lname":"คลองขรัวตาแก่น","owner":"สำนักงานระบบควบคุมน้ำ","name":"สถานีสูบน้ำคลองขรัวตาแก่น","district":"บางซื่อ"}},{"type":"Feature","id":164,"geometry":{"type":"Point","coordinates":[100.702854,13.804612]},"properties":{"pump_name":"สถานีสูบน้ำบึงกระเทียม","district_t":"มีนบุรี","year":"2563","hy_lname":"-","owner":"สำนักงานระบบควบคุมน้ำ","name":"สถานีสูบน้ำบึงกระเทียม","district":"มีนบุรี"}},{"type":"Feature","id":165,"geometry":{"type":"Point","coordinates":[100.51589,13.806811]},"properties":{"pump_name":"สถานีสูบน้ำคลองสวนแดน 2","district_t":"บางพลัด","year":"2563","hy_lname":"คลองสวนแดน","owner":"สำนักงานระบบควบคุมน้ำ","name":"สถานีสูบน้ำคลองสวนแดน 2","district":"บางพลัด"}},{"type":"Feature","id":166,"geometry":{"type":"Point","coordinates":[100.649804,13.806033]},"properties":{"pump_name":"สถานีสูบน้ำลำรางบางเตย (นวมินทร 66)","district_t":"บึงกุ่ม","year":"2563","hy_lname":"ลำรางแยกคลองบางเตย ตอน 1","owner":"สำนักงานระบบควบคุมน้ำ","name":"สถานีสูบน้ำลำรางบางเตย (นวมินทร 66)","district":"บึงกุ่ม"}},{"type":"Feature","id":167,"geometry":{"type":"Point","coordinates":[100.701174,13.805827]},"properties":{"pump_name":"สถานีสูบน้ำบึงสวนสยาม","district_t":"คันนายาว","year":"2563","hy_lname":"คลองบางชัน","owner":"สำนักงานระบบควบคุมน้ำ","name":"สถานีสูบน้ำบึงสวนสยาม","district":"คันนายาว"}},{"type":"Feature","id":168,"geometry":{"type":"Point","coordinates":[100.5189,13.8081]},"properties":{"pump_name":"สถานีสูบน้ำบางโพ","district_t":"บางซื่อ","year":"2563","hy_lname":"คลองบางโพ","owner":"สำนักงานระบบควบคุมน้ำ","name":"สถานีสูบน้ำบางโพ","district":"บางซื่อ"}},{"type":"Feature","id":169,"geometry":{"type":"Point","coordinates":[100.518281,13.810768]},"properties":{"pump_name":"สถานีสูบน้ำคูน้ำข้างวัดอนัมนิกายาราม","district_t":"บางซื่อ","year":"2563","hy_lname":"-","owner":"สำนักงานระบบควบคุมน้ำ","name":"สถานีสูบน้ำคูน้ำข้างวัดอนัมนิกายาราม","district":"บางซื่อ"}},{"type":"Feature","id":170,"geometry":{"type":"Point","coordinates":[100.5892,13.810481]},"properties":{"pump_name":"สถานีสูบน้ำคลองหนองบอน (ตอนถนนลาดพร้าว-วังหิน)","district_t":"ลาดพร้าว","year":"2563","hy_lname":"คลองลาดพร้าว","owner":"สำนักงานระบบควบคุมน้ำ","name":"สถานีสูบน้ำคลองหนองบอน (ตอนถนนลาดพร้าว-วังหิน)","district":"ลาดพร้าว"}},{"type":"Feature","id":171,"geometry":{"type":"Point","coordinates":[100.518141,13.812117]},"properties":{"pump_name":"สถานีสูบน้ำวัดสร้อยทอง","district_t":"บางซื่อ","year":"2563","hy_lname":"คลองกระดาษ","owner":"สำนักงานระบบควบคุมน้ำ","name":"สถานีสูบน้ำวัดสร้อยทอง","district":"บางซื่อ"}},{"type":"Feature","id":172,"geometry":{"type":"Point","coordinates":[100.516362,13.814519]},"properties":{"pump_name":"สถานีสูบน้ำคลองส้มป่อย","district_t":"บางซื่อ","year":"2563","hy_lname":"คลองส้มป่อยพระราม 6","owner":"สำนักงานระบบควบคุมน้ำ","name":"สถานีสูบน้ำคลองส้มป่อย","district":"บางซื่อ"}},{"type":"Feature","id":173,"geometry":{"type":"Point","coordinates":[100.6265,13.819242]},"properties":{"pump_name":"สถานีสูบน้ำคลองลำเจียก","district_t":"บางกะปิ","year":"2563","hy_lname":"คลองลำเจียก 1","owner":"สำนักงานระบบควบคุมน้ำ","name":"สถานีสูบน้ำคลองลำเจียก","district":"บางกะปิ"}},{"type":"Feature","id":174,"geometry":{"type":"Point","coordinates":[100.558202,13.820483]},"properties":{"pump_name":"สถานีสูบน้ำหลัง รร.หอวัง","district_t":"จตุจักร","year":"2563","hy_lname":"คูระบายน้ำข้างถนนวิภาวดีรังสิต","owner":"สำนักงานระบบควบคุมน้ำ","name":"สถานีสูบน้ำหลัง รร.หอวัง","district":"จตุจักร"}},{"type":"Feature","id":175,"geometry":{"type":"Point","coordinates":[100.591345,13.821621]},"properties":{"pump_name":"สถานีสูบน้ำคลองเสือน้อย (ตอนถนนลาดพร้าว-วังหิน)","district_t":"ลาดพร้าว","year":"2563","hy_lname":"คลองเสือน้อย","owner":"สำนักงานระบบควบคุมน้ำ","name":"สถานีสูบน้ำคลองเสือน้อย (ตอนถนนลาดพร้าว-วังหิน)","district":"ลาดพร้าว"}},{"type":"Feature","id":176,"geometry":{"type":"Point","coordinates":[100.544942,13.821975]},"properties":{"pump_name":"สถานีสูบน้ำบึงบางซื่อ","district_t":"จตุจักร","year":"2563","hy_lname":"-","owner":"สำนักงานระบบควบคุมน้ำ","name":"สถานีสูบน้ำบึงบางซื่อ","district":"จตุจักร"}},{"type":"Feature","id":177,"geometry":{"type":"Point","coordinates":[100.6261,13.822525]},"properties":{"pump_name":"สถานีสูบน้ำคลองเสือน้อย (ตอนคลองจั่น)","district_t":"ลาดพร้าว","year":"2563","hy_lname":"คลองเสือน้อย","owner":"สำนักงานระบบควบคุมน้ำ","name":"สถานีสูบน้ำคลองเสือน้อย (ตอนคลองจั่น)","district":"ลาดพร้าว"}},{"type":"Feature","id":178,"geometry":{"type":"Point","coordinates":[100.659944,13.823756]},"properties":{"pump_name":"สถานีคลองดอนอีกา","district_t":"บึงกุ่ม","year":"2563","hy_lname":"คลองหนองแขม","owner":"สำนักงานระบบควบคุมน้ำ","name":"สถานีคลองดอนอีกา","district":"บึงกุ่ม"}},{"type":"Feature","id":179,"geometry":{"type":"Point","coordinates":[100.557014,13.830183]},"properties":{"pump_name":"สถานีสูบน้ำรัชดาวิภาวดี","district_t":"จตุจักร","year":"2563","hy_lname":"คูระบายน้ำข้างถนนวิภาวดีรังสิต","owner":"สำนักงานระบบควบคุมน้ำ","name":"สถานีสูบน้ำรัชดาวิภาวดี","district":"จตุจักร"}},{"type":"Feature","id":180,"geometry":{"type":"Point","coordinates":[100.628787,13.842648]},"properties":{"pump_name":"สถานีสูบน้ำคลองบางขวด","district_t":"ลาดพร้าว","year":"2563","hy_lname":"คลองโคกคราม","owner":"สำนักงานระบบควบคุมน้ำ","name":"สถานีสูบน้ำคลองบางขวด","district":"ลาดพร้าว"}},{"type":"Feature","id":181,"geometry":{"type":"Point","coordinates":[100.559264,13.844042]},"properties":{"pump_name":"สถานีสูบน้ำคลองลาดยาว","district_t":"จตุจักร","year":"2563","hy_lname":"คลองลาดยาว","owner":"สำนักงานระบบควบคุมน้ำ","name":"สถานีสูบน้ำคลองลาดยาว","district":"จตุจักร"}},{"type":"Feature","id":182,"geometry":{"type":"Point","coordinates":[100.556796,13.845764]},"properties":{"pump_name":"สถานีสูบน้ำเรือนจำกลางคลองเปรมฯ","district_t":"จตุจักร","year":"2563","hy_lname":"-","owner":"สำนักงานระบบควบคุมน้ำ","name":"สถานีสูบน้ำเรือนจำกลางคลองเปรมฯ","district":"จตุจักร"}},{"type":"Feature","id":183,"geometry":{"type":"Point","coordinates":[100.77669,13.849]},"properties":{"pump_name":"สถานีสูบน้ำบึงมะขามเทศ (ตอนลำรางสาธารณะเชื่อมคลองพระราชดำริ)","district_t":"คลองสามวา","year":"2563","hy_lname":"-","owner":"สำนักงานระบบควบคุมน้ำ","name":"สถานีสูบน้ำบึงมะขามเทศ (ตอนลำรางสาธารณะเชื่อมคลองพระราชดำริ)","district":"คลองสามวา"}},{"type":"Feature","id":184,"geometry":{"type":"Point","coordinates":[100.565607,13.854396]},"properties":{"pump_name":"สถานีสูบน้ำคลองบางเขน-ขาเข้า(ฝั่งใต้)","district_t":"จตุจักร","year":"2563","hy_lname":"คูระบายน้ำข้างถนนวิภาวดีรังสิต","owner":"สำนักงานระบบควบคุมน้ำ","name":"สถานีสูบน้ำคลองบางเขน-ขาเข้า(ฝั่งใต้)","district":"จตุจักร"}},{"type":"Feature","id":185,"geometry":{"type":"Point","coordinates":[100.771009,13.854029]},"properties":{"pump_name":"สถานีสูบน้ำบึงสะแกงามสามเดือน (ตอนคลองโต๊ะเจริญ)","district_t":"คลองสามวา","year":"2563","hy_lname":"-","owner":"สำนักงานระบบควบคุมน้ำ","name":"สถานีสูบน้ำบึงสะแกงามสามเดือน (ตอนคลองโต๊ะเจริญ)","district":"คลองสามวา"}},{"type":"Feature","id":186,"geometry":{"type":"Point","coordinates":[100.565665,13.855987]},"properties":{"pump_name":"สถานีสูบน้ำคลองบางเขน-ขาออก(ฝั่งเหนือ)","district_t":"หลักสี่","year":"2563","hy_lname":"คูน้ำข้างถนนวิภาวดีรังสิต","owner":"สำนักงานระบบควบคุมน้ำ","name":"สถานีสูบน้ำคลองบางเขน-ขาออก(ฝั่งเหนือ)","district":"หลักสี่"}},{"type":"Feature","id":187,"geometry":{"type":"Point","coordinates":[100.567021,13.857072]},"properties":{"pump_name":"สถานีสูบน้ำคลองบางเขน-ขาเข้า(ฝั่งเหนือ)","district_t":"หลักสี่","year":"2563","hy_lname":"คูน้ำข้างถนนวิภาวดีรังสิต","owner":"สำนักงานระบบควบคุมน้ำ","name":"สถานีสูบน้ำคลองบางเขน-ขาเข้า(ฝั่งเหนือ)","district":"หลักสี่"}},{"type":"Feature","id":188,"geometry":{"type":"Point","coordinates":[100.573614,13.875655]},"properties":{"pump_name":"สถานีสูบน้ำคลองบางตลาด ตอนคลองเปรมประชากร","district_t":"หลักสี่","year":"2563","hy_lname":"คลองบางตลาด","owner":"สำนักงานระบบควบคุมน้ำ","name":"สถานีสูบน้ำคลองบางตลาด ตอนคลองเปรมประชากร","district":"หลักสี่"}},{"type":"Feature","id":189,"geometry":{"type":"Point","coordinates":[100.562695,13.881952]},"properties":{"pump_name":"สถานีสูบน้ำคลองบางตลาด (ศูนย์ราชการแจ้งวัฒนะ)","district_t":"หลักสี่","year":"2563","hy_lname":"ลำรางบางตลาด","owner":"สำนักงานระบบควบคุมน้ำ","name":"สถานีสูบน้ำคลองบางตลาด (ศูนย์ราชการแจ้งวัฒนะ)","district":"หลักสี่"}},{"type":"Feature","id":190,"geometry":{"type":"Point","coordinates":[100.5854,13.8903]},"properties":{"pump_name":"สถานีสูบน้ำคลองวัดหลักสี่-ขาเข้า","district_t":"ดอนเมือง","year":"2563","hy_lname":"คลองวัดหลักสี่","owner":"สำนักงานระบบควบคุมน้ำ","name":"สถานีสูบน้ำคลองวัดหลักสี่-ขาเข้า","district":"ดอนเมือง"}},{"type":"Feature","id":191,"geometry":{"type":"Point","coordinates":[100.58475,13.890577]},"properties":{"pump_name":"สถานีสูบน้ำคลองวัดหลักสี่-ขาออก","district_t":"หลักสี่","year":"2563","hy_lname":"คลองวัดหลักสี่","owner":"สำนักงานระบบควบคุมน้ำ","name":"สถานีสูบน้ำคลองวัดหลักสี่-ขาออก","district":"หลักสี่"}}]}
