{"type":"FeatureCollection","features":[{"type":"Feature","id":1,"geometry":{"type":"Point","coordinates":[100.511411,13.616325]},"properties":{"sump_name":"บ่อสูบน้ำคลองตาถึง","district_t":"ทุ่งครุ","year":"2564","owner":"ทุ่งครุ","name":"บ่อสูบน้ำคลองตาถึง","district":"ทุ่งครุ"}},{"type":"Feature","id":2,"geometry":{"type":"Point","coordinates":[100.511389,13.618007]},"properties":{"sump_name":"บ่อสูบน้ำหนองรี","district_t":"ทุ่งครุ","year":"2564","owner":"ทุ่งครุ","name":"บ่อสูบน้ำหนองรี","district":"ทุ่งครุ"}},{"type":"Feature","id":3,"geometry":{"type":"Point","coordinates":[100.508969,13.623793]},"properties":{"sump_name":"บ่อสูบน้ำคลองรางตรง จุดที่ 2 ปิยวรรณแมนชั่น","district_t":"ทุ่งครุ","year":"2564","owner":"ทุ่งครุ","name":"บ่อสูบน้ำคลองรางตรง จุดที่ 2 ปิยวรรณแมนชั่น","district":"ทุ่งครุ"}},{"type":"Feature","id":4,"geometry":{"type":"Point","coordinates":[100.508494,13.624171]},"properties":{"sump_name":"บ่อสูบน้ำคลองรางตรง จุดที่ 1 PUK เบเกอรี่","district_t":"ทุ่งครุ","year":"2564","owner":"ทุ่งครุ","name":"บ่อสูบน้ำคลองรางตรง จุดที่ 1 PUK เบเกอรี่","district":"ทุ่งครุ"}},{"type":"Feature","id":5,"geometry":{"type":"Point","coordinates":[100.434599,13.62768]},"properties":{"sump_name":"บ่อสูบน้ำจงสถิตย์","district_t":"บางขุนเทียน","year":"2564","owner":"บางขุนเทียน","name":"บ่อสูบน้ำจงสถิตย์","district":"บางขุนเทียน"}},{"type":"Feature","id":6,"geometry":{"type":"Point","coordinates":[100.502585,13.635001]},"properties":{"sump_name":"บ่อสูบน้ำคลองรางจาก","district_t":"ทุ่งครุ","year":"2564","owner":"ทุ่งครุ","name":"บ่อสูบน้ำคลองรางจาก","district":"ทุ่งครุ"}},{"type":"Feature","id":7,"geometry":{"type":"Point","coordinates":[100.43639,13.637376]},"properties":{"sump_name":"บ่อสูบน้ำบึงรางเข้ ตอนลงคลองราชมนตรี","district_t":"บางขุนเทียน","year":"2564","owner":"บางขุนเทียน","name":"บ่อสูบน้ำบึงรางเข้ ตอนลงคลองราชมนตรี","district":"บางขุนเทียน"}},{"type":"Feature","id":8,"geometry":{"type":"Point","coordinates":[100.433002,13.640857]},"properties":{"sump_name":"บ่อสูบน้ำบึงรางเข้","district_t":"บางขุนเทียน","year":"2564","owner":"บางขุนเทียน","name":"บ่อสูบน้ำบึงรางเข้","district":"บางขุนเทียน"}},{"type":"Feature","id":9,"geometry":{"type":"Point","coordinates":[100.429829,13.656309]},"properties":{"sump_name":"บ่อสูบน้ำข้างโรงรับจำนำ","district_t":"บางขุนเทียน","year":"2564","owner":"บางขุนเทียน","name":"บ่อสูบน้ำข้างโรงรับจำนำ","district":"บางขุนเทียน"}},{"type":"Feature","id":10,"geometry":{"type":"Point","coordinates":[100.627526,13.660304]},"properties":{"sump_name":"บ่อสูบน้ำคูน้ำซอยลาซาลเพรนด้า","district_t":"บางนา","year":"2564","owner":"บางนา","name":"บ่อสูบน้ำคูน้ำซอยลาซาลเพรนด้า","district":"บางนา"}},{"type":"Feature","id":11,"geometry":{"type":"Point","coordinates":[100.602228,13.661896]},"properties":{"sump_name":"บ่อสูบน้ำปากซอยลาซาล ถนนสุขุมวิท","district_t":"บางนา","year":"2564","owner":"บางนา","name":"บ่อสูบน้ำปากซอยลาซาล ถนนสุขุมวิท","district":"บางนา"}},{"type":"Feature","id":12,"geometry":{"type":"Point","coordinates":[100.602161,13.66236]},"properties":{"sump_name":"บ่อสูบน้ำซอยสุขุมวิท 70/4","district_t":"บางนา","year":"2564","owner":"บางนา","name":"บ่อสูบน้ำซอยสุขุมวิท 70/4","district":"บางนา"}},{"type":"Feature","id":13,"geometry":{"type":"Point","coordinates":[100.602629,13.662934]},"properties":{"sump_name":"บ่อสูบน้ำหน้าปั๊มเชลลาซาล ถนนสุขุมวิท","district_t":"บางนา","year":"2564","owner":"บางนา","name":"บ่อสูบน้ำหน้าปั๊มเชลลาซาล ถนนสุขุมวิท","district":"บางนา"}},{"type":"Feature","id":14,"geometry":{"type":"Point","coordinates":[100.602801,13.663457]},"properties":{"sump_name":"บ่อสูบน้ำ PIPE JACKING แบริ่ง ลาซาล","district_t":"บางนา","year":"2564","owner":"บางนา","name":"บ่อสูบน้ำ PIPE JACKING แบริ่ง ลาซาล","district":"บางนา"}},{"type":"Feature","id":15,"geometry":{"type":"Point","coordinates":[100.603615,13.665235]},"properties":{"sump_name":"บ่อสูบน้ำไอดีโอ ถนนสุขุมวิท","district_t":"บางนา","year":"2564","owner":"บางนา","name":"บ่อสูบน้ำไอดีโอ ถนนสุขุมวิท","district":"บางนา"}},{"type":"Feature","id":16,"geometry":{"type":"Point","coordinates":[100.633463,13.668437]},"properties":{"sump_name":"บ่อสูบน้ำคลองหลอด 3","district_t":"บางนา","year":"2564","owner":"บางนา","name":"บ่อสูบน้ำคลองหลอด 3","district":"บางนา"}},{"type":"Feature","id":17,"geometry":{"type":"Point","coordinates":[100.604838,13.668865]},"properties":{"sump_name":"บ่อสูบน้ำสุขุมวิท หน้าไปรษณีย์","district_t":"บางนา","year":"2564","owner":"บางนา","name":"บ่อสูบน้ำสุขุมวิท หน้าไปรษณีย์","district":"บางนา"}},{"type":"Feature","id":18,"geometry":{"type":"Point","coordinates":[100.605138,13.668902]},"properties":{"sump_name":"บ่อสูบน้ำสุขุมวิท หน้ากรมอุตุฯ","district_t":"บางนา","year":"2564","owner":"บางนา","name":"บ่อสูบน้ำสุขุมวิท หน้ากรมอุตุฯ","district":"บางนา"}},{"type":"Feature","id":19,"geometry":{"type":"Point","coordinates":[100.605441,13.669642]},"properties":{"sump_name":"บ่อสูบน้ำใต้สะพานคลองบางนา","district_t":"บางนา","year":"2564","owner":"บางนา","name":"บ่อสูบน้ำใต้สะพานคลองบางนา","district":"บางนา"}},{"type":"Feature","id":20,"geometry":{"type":"Point","coordinates":[100.604662,13.685888]},"properties":{"sump_name":"บ่อสูบน้ำสุขุมวิท 64","district_t":"พระโขนง","year":"2564","owner":"พระโขนง","name":"บ่อสูบน้ำสุขุมวิท 64","district":"พระโขนง"}},{"type":"Feature","id":21,"geometry":{"type":"Point","coordinates":[100.622554,13.670613]},"properties":{"sump_name":"บ่อสูบน้ำคลองหลอด 2","district_t":"บางนา","year":"2564","owner":"บางนา","name":"บ่อสูบน้ำคลองหลอด 2","district":"บางนา"}},{"type":"Feature","id":22,"geometry":{"type":"Point","coordinates":[100.644254,13.670627]},"properties":{"sump_name":"บ่อสูบน้ำคลองเคล็ด วัดศรีเอี่ยม","district_t":"บางนา","year":"2564","owner":"บางนา","name":"บ่อสูบน้ำคลองเคล็ด วัดศรีเอี่ยม","district":"บางนา"}},{"type":"Feature","id":23,"geometry":{"type":"Point","coordinates":[100.606755,13.672544]},"properties":{"sump_name":"บ่อสูบน้ำแยกบางนา ถนนสุขุมวิท","district_t":"บางนา","year":"2564","owner":"บางนา","name":"บ่อสูบน้ำแยกบางนา ถนนสุขุมวิท","district":"บางนา"}},{"type":"Feature","id":24,"geometry":{"type":"Point","coordinates":[100.429626,13.67616]},"properties":{"sump_name":"บ่อสูบน้ำถนนเอกชัย ตอนลงคลองราชมนตรี","district_t":"บางบอน","year":"2564","owner":"บางบอน","name":"บ่อสูบน้ำถนนเอกชัย ตอนลงคลองราชมนตรี","district":"บางบอน"}},{"type":"Feature","id":25,"geometry":{"type":"Point","coordinates":[100.344864,13.679722]},"properties":{"sump_name":"บ่อสูบน้ำซอยเพชรเกษม 81 (ใต้สะพานข้ามคลองภาษีเจริญ)","district_t":"หนองแขม","year":"2564","owner":"หนองแขม","name":"บ่อสูบน้ำซอยเพชรเกษม 81 (ใต้สะพานข้ามคลองภาษีเจริญ)","district":"หนองแขม"}},{"type":"Feature","id":26,"geometry":{"type":"Point","coordinates":[100.607244,13.682341]},"properties":{"sump_name":"บ่อสูบน้ำซอยสุขุมวิท 66/1","district_t":"พระโขนง","year":"2564","owner":"พระโขนง","name":"บ่อสูบน้ำซอยสุขุมวิท 66/1","district":"พระโขนง"}},{"type":"Feature","id":27,"geometry":{"type":"Point","coordinates":[100.35501,13.684433]},"properties":{"sump_name":"บ่อสูบน้ำคำหลิ่ม","district_t":"หนองแขม","year":"2564","owner":"หนองแขม","name":"บ่อสูบน้ำคำหลิ่ม","district":"หนองแขม"}},{"type":"Feature","id":28,"geometry":{"type":"Point","coordinates":[100.363888,13.685819]},"properties":{"sump_name":"บ่อสูบน้ำเลียบคลองภาษีเจริญ ฝั่งเหนือ ซอย 3","district_t":"หนองแขม","year":"2564","owner":"หนองแขม","name":"บ่อสูบน้ำเลียบคลองภาษีเจริญ ฝั่งเหนือ ซอย 3","district":"หนองแขม"}},{"type":"Feature","id":29,"geometry":{"type":"Point","coordinates":[100.426306,13.686011]},"properties":{"sump_name":"บ่อสูบน้ำคลองบางโคลัด(ฝั่งขาเข้า) ถนนบางบอน1","district_t":"บางบอน","year":"2564","owner":"บางบอน","name":"บ่อสูบน้ำคลองบางโคลัด(ฝั่งขาเข้า) ถนนบางบอน1","district":"บางบอน"}},{"type":"Feature","id":30,"geometry":{"type":"Point","coordinates":[100.426381,13.686308]},"properties":{"sump_name":"บ่อสูบน้ำคลองบางโคลัด(ฝั่งขาออก) ถนนบางบอน1","district_t":"บางบอน","year":"2564","owner":"บางบอน","name":"บ่อสูบน้ำคลองบางโคลัด(ฝั่งขาออก) ถนนบางบอน1","district":"บางบอน"}},{"type":"Feature","id":31,"geometry":{"type":"Point","coordinates":[100.380302,13.693087]},"properties":{"sump_name":"บ่อสูบน้ำเลียบคลองภาษีเจริญ ฝั่งเหนือ ตอนคลองทวีวัฒนา","district_t":"หนองแขม","year":"2564","owner":"หนองแขม","name":"บ่อสูบน้ำเลียบคลองภาษีเจริญ ฝั่งเหนือ ตอนคลองทวีวัฒนา","district":"หนองแขม"}},{"type":"Feature","id":32,"geometry":{"type":"Point","coordinates":[100.492526,13.693117]},"properties":{"sump_name":"บ่อสูบน้ำถนนตก","district_t":"บางคอแหลม","year":"2564","owner":"บางคอแหลม","name":"บ่อสูบน้ำถนนตก","district":"บางคอแหลม"}},{"type":"Feature","id":33,"geometry":{"type":"Point","coordinates":[100.369987,13.694567]},"properties":{"sump_name":"บ่อสูบน้ำเลียบคลองภาษีเจริญ ซอย 8","district_t":"หนองแขม","year":"2564","owner":"หนองแขม","name":"บ่อสูบน้ำเลียบคลองภาษีเจริญ ซอย 8","district":"หนองแขม"}},{"type":"Feature","id":34,"geometry":{"type":"Point","coordinates":[100.480373,13.693987]},"properties":{"sump_name":"บ่อสูบน้ำโรงไม้จอมทอง","district_t":"จอมทอง","year":"2564","owner":"จอมทอง","name":"บ่อสูบน้ำโรงไม้จอมทอง","district":"จอมทอง"}},{"type":"Feature","id":35,"geometry":{"type":"Point","coordinates":[100.488331,13.69505]},"properties":{"sump_name":"บ่อสูบน้ำหลังวัดดาวคะนอง","district_t":"ธนบุรี","year":"2564","owner":"ธนบุรี","name":"บ่อสูบน้ำหลังวัดดาวคะนอง","district":"ธนบุรี"}},{"type":"Feature","id":36,"geometry":{"type":"Point","coordinates":[100.47157,13.69831]},"properties":{"sump_name":"บ่อสูบน้ำข้างธนาคารทหารไทย ถนนจอมทอง","district_t":"จอมทอง","year":"2564","owner":"จอมทอง","name":"บ่อสูบน้ำข้างธนาคารทหารไทย ถนนจอมทอง","district":"จอมทอง"}},{"type":"Feature","id":37,"geometry":{"type":"Point","coordinates":[100.548926,13.69791]},"properties":{"sump_name":"บ่อสูบน้ำนางลิ้นจี่","district_t":"ยานนาวา","year":"2564","owner":"ยานนาวา","name":"บ่อสูบน้ำนางลิ้นจี่","district":"ยานนาวา"}},{"type":"Feature","id":38,"geometry":{"type":"Point","coordinates":[100.603202,13.697519]},"properties":{"sump_name":"บ่อสูบสุขุมวิท 60/1","district_t":"พระโขนง","year":"2564","owner":"พระโขนง","name":"บ่อสูบสุขุมวิท 60/1","district":"พระโขนง"}},{"type":"Feature","id":39,"geometry":{"type":"Point","coordinates":[100.464006,13.698982]},"properties":{"sump_name":"บ่อสูบน้ำใต้สะพานบางขุนเทียน","district_t":"จอมทอง","year":"2564","owner":"จอมทอง","name":"บ่อสูบน้ำใต้สะพานบางขุนเทียน","district":"จอมทอง"}},{"type":"Feature","id":40,"geometry":{"type":"Point","coordinates":[100.646989,13.698059]},"properties":{"sump_name":"บ่อสูบน้ำคลองขวาง ถนนศรีนครินทร์ขาเข้า(หัวม้าลาย)","district_t":"ประเวศ","year":"2564","owner":"ประเวศ","name":"บ่อสูบน้ำคลองขวาง ถนนศรีนครินทร์ขาเข้า(หัวม้าลาย)","district":"ประเวศ"}},{"type":"Feature","id":41,"geometry":{"type":"Point","coordinates":[100.647334,13.698165]},"properties":{"sump_name":"บ่อสูบน้ำคลองขวาง ถนนศรีนครินทร์ขาออก ซีคอน","district_t":"ประเวศ","year":"2564","owner":"ประเวศ","name":"บ่อสูบน้ำคลองขวาง ถนนศรีนครินทร์ขาออก ซีคอน","district":"ประเวศ"}},{"type":"Feature","id":42,"geometry":{"type":"Point","coordinates":[100.638231,13.698764]},"properties":{"sump_name":"บ่อสูบน้ำหมู่บ้านมิตรภาพ 2-3","district_t":"ประเวศ","year":"2564","owner":"ประเวศ","name":"บ่อสูบน้ำหมู่บ้านมิตรภาพ 2-3","district":"ประเวศ"}},{"type":"Feature","id":43,"geometry":{"type":"Point","coordinates":[100.490411,13.701708]},"properties":{"sump_name":"บ่อสูบน้ำใต้สะพานกรุงเทพ","district_t":"ธนบุรี","year":"2564","owner":"ธนบุรี","name":"บ่อสูบน้ำใต้สะพานกรุงเทพ","district":"ธนบุรี"}},{"type":"Feature","id":44,"geometry":{"type":"Point","coordinates":[100.38846,13.702862]},"properties":{"sump_name":"บ่อสูบน้ำซอยเพชรเกษม 63/2","district_t":"บางแค","year":"2564","owner":"บางแค","name":"บ่อสูบน้ำซอยเพชรเกษม 63/2","district":"บางแค"}},{"type":"Feature","id":45,"geometry":{"type":"Point","coordinates":[100.590151,13.702892]},"properties":{"sump_name":"บ่อสูบน้ำสุขุมวิท? 50","district_t":"คลองเตย","year":"2564","owner":"คลองเตย","name":"บ่อสูบน้ำสุขุมวิท? 50","district":"คลองเตย"}},{"type":"Feature","id":46,"geometry":{"type":"Point","coordinates":[100.640315,13.704244]},"properties":{"sump_name":"บ่อสูบน้ำหมู่บ้านมิตรภาพ 1","district_t":"สวนหลวง","year":"2564","owner":"สวนหลวง","name":"บ่อสูบน้ำหมู่บ้านมิตรภาพ 1","district":"สวนหลวง"}},{"type":"Feature","id":47,"geometry":{"type":"Point","coordinates":[100.373753,13.707804]},"properties":{"sump_name":"บ่อสูบน้ำซอยเพชรเกษม 69 (อินทปัจ)","district_t":"บางแค","year":"2564","owner":"บางแค","name":"บ่อสูบน้ำซอยเพชรเกษม 69 (อินทปัจ)","district":"บางแค"}},{"type":"Feature","id":48,"geometry":{"type":"Point","coordinates":[100.499265,13.707257]},"properties":{"sump_name":"บ่อสูบน้ำชุมชนชัยโพธิ์ทอง เจริญนคร 55","district_t":"คลองสาน","year":"2564","owner":"คลองสาน","name":"บ่อสูบน้ำชุมชนชัยโพธิ์ทอง เจริญนคร 55","district":"คลองสาน"}},{"type":"Feature","id":49,"geometry":{"type":"Point","coordinates":[100.537655,13.707052]},"properties":{"sump_name":"บ่อสูบน้ำถนนจันทน์","district_t":"ยานนาวา","year":"2564","owner":"ยานนาวา","name":"บ่อสูบน้ำถนนจันทน์","district":"ยานนาวา"}},{"type":"Feature","id":50,"geometry":{"type":"Point","coordinates":[100.373582,13.708093]},"properties":{"sump_name":"บ่อสูบน้ำตรงข้าม ซอยเพชรเกษม 69","district_t":"บางแค","year":"2564","owner":"บางแค","name":"บ่อสูบน้ำตรงข้าม ซอยเพชรเกษม 69","district":"บางแค"}},{"type":"Feature","id":51,"geometry":{"type":"Point","coordinates":[100.520393,13.708789]},"properties":{"sump_name":"บ่อสูบน้ำบำเพ็ญกุศล","district_t":"สาทร","year":"2564","owner":"สาทร","name":"บ่อสูบน้ำบำเพ็ญกุศล","district":"สาทร"}},{"type":"Feature","id":52,"geometry":{"type":"Point","coordinates":[100.519319,13.709043]},"properties":{"sump_name":"บ่อสูบถนนจันทน์ ตอนถนนเจริญราษฎร์ (อยู่ระหว่างดำเนินการก่อสร้าง)","district_t":"สาทร","year":"2564","owner":"สาทร","name":"บ่อสูบถนนจันทน์ ตอนถนนเจริญราษฎร์ (อยู่ระหว่างดำเนินการก่อสร้าง)","district":"สาทร"}},{"type":"Feature","id":53,"geometry":{"type":"Point","coordinates":[100.406885,13.710931]},"properties":{"sump_name":"บ่อสูบน้ำแก้มลิงเพชรเกษม","district_t":"บางแค","year":"2564","owner":"บางแค","name":"บ่อสูบน้ำแก้มลิงเพชรเกษม","district":"บางแค"}},{"type":"Feature","id":54,"geometry":{"type":"Point","coordinates":[100.417522,13.711373]},"properties":{"sump_name":"บ่อสูบน้ำคลองยายเทียบ ถ.เพชรเกษม ฝั่งขาออก (นันยาง)","district_t":"บางแค","year":"2564","owner":"บางแค","name":"บ่อสูบน้ำคลองยายเทียบ ถ.เพชรเกษม ฝั่งขาออก (นันยาง)","district":"บางแค"}},{"type":"Feature","id":55,"geometry":{"type":"Point","coordinates":[100.417956,13.711391]},"properties":{"sump_name":"บ่อสูบน้ำคลองยายเทียบ ถ.เพชรเกษม ฝั่งขาออก (หน้าร้านตัดผม)","district_t":"บางแค","year":"2564","owner":"บางแค","name":"บ่อสูบน้ำคลองยายเทียบ ถ.เพชรเกษม ฝั่งขาออก (หน้าร้านตัดผม)","district":"บางแค"}},{"type":"Feature","id":56,"geometry":{"type":"Point","coordinates":[100.375759,13.711711]},"properties":{"sump_name":"บ่อสูบน้ำหมู่บ้านเศรษฐกิจ ซอย 27","district_t":"บางแค","year":"2564","owner":"บางแค","name":"บ่อสูบน้ำหมู่บ้านเศรษฐกิจ ซอย 27","district":"บางแค"}},{"type":"Feature","id":57,"geometry":{"type":"Point","coordinates":[100.407052,13.711681]},"properties":{"sump_name":"บ่อสูบน้ำแก้มลิงเพชรเกษม ตอนลงบึงสวนกาญจนารมย์","district_t":"บางแค","year":"2564","owner":"บางแค","name":"บ่อสูบน้ำแก้มลิงเพชรเกษม ตอนลงบึงสวนกาญจนารมย์","district":"บางแค"}},{"type":"Feature","id":58,"geometry":{"type":"Point","coordinates":[100.417921,13.711757]},"properties":{"sump_name":"บ่อสูบน้ำคลองยายเทียบ ถ. เพขรเกษม (ขาเข้า โลตัส)","district_t":"บางแค","year":"2564","owner":"บางแค","name":"บ่อสูบน้ำคลองยายเทียบ ถ. เพขรเกษม (ขาเข้า โลตัส)","district":"บางแค"}},{"type":"Feature","id":59,"geometry":{"type":"Point","coordinates":[100.417812,13.711777]},"properties":{"sump_name":"บ่อสูบน้ำคลองยายเทียบ ถ.เพชรเกษม (ขาเข้า ที่พักดับเพลิง)","district_t":"บางแค","year":"2564","owner":"บางแค","name":"บ่อสูบน้ำคลองยายเทียบ ถ.เพชรเกษม (ขาเข้า ที่พักดับเพลิง)","district":"บางแค"}},{"type":"Feature","id":60,"geometry":{"type":"Point","coordinates":[100.377608,13.712013]},"properties":{"sump_name":"บ่อสูบน้ำหมู่บ้านเศรษฐกิจ (คลองบางจาก ขาเข้า)","district_t":"บางแค","year":"2564","owner":"บางแค","name":"บ่อสูบน้ำหมู่บ้านเศรษฐกิจ (คลองบางจาก ขาเข้า)","district":"บางแค"}},{"type":"Feature","id":61,"geometry":{"type":"Point","coordinates":[100.377752,13.712064]},"properties":{"sump_name":"บ่อสูบน้ำหมู่บ้านเศรษฐกิจ (คลองบางจาก) ขาออก","district_t":"บางแค","year":"2564","owner":"บางแค","name":"บ่อสูบน้ำหมู่บ้านเศรษฐกิจ (คลองบางจาก) ขาออก","district":"บางแค"}},{"type":"Feature","id":62,"geometry":{"type":"Point","coordinates":[100.59755,13.710859]},"properties":{"sump_name":"บ่อสูบน้ำใต้สะพานพระโขนง ฝั่งอ่อนนุช","district_t":"วัฒนา","year":"2564","owner":"วัฒนา","name":"บ่อสูบน้ำใต้สะพานพระโขนง ฝั่งอ่อนนุช","district":"วัฒนา"}},{"type":"Feature","id":63,"geometry":{"type":"Point","coordinates":[100.59706,13.710959]},"properties":{"sump_name":"บ่อสูบพระโขนง","district_t":"คลองเตย","year":"2564","owner":"คลองเตย","name":"บ่อสูบพระโขนง","district":"คลองเตย"}},{"type":"Feature","id":64,"geometry":{"type":"Point","coordinates":[100.426596,13.712082]},"properties":{"sump_name":"บ่อสูบน้ำราชมนตรี ถนนเพชรเกษม (ขาออก)","district_t":"ภาษีเจริญ","year":"2564","owner":"ภาษีเจริญ","name":"บ่อสูบน้ำราชมนตรี ถนนเพชรเกษม (ขาออก)","district":"ภาษีเจริญ"}},{"type":"Feature","id":65,"geometry":{"type":"Point","coordinates":[100.597158,13.711186]},"properties":{"sump_name":"บ่อสูบน้ำใต้สะพานพระโขนง ฝั่งขาออก (ฝั่งตลาด)","district_t":"วัฒนา","year":"2564","owner":"วัฒนา","name":"บ่อสูบน้ำใต้สะพานพระโขนง ฝั่งขาออก (ฝั่งตลาด)","district":"วัฒนา"}},{"type":"Feature","id":66,"geometry":{"type":"Point","coordinates":[100.426256,13.712378]},"properties":{"sump_name":"บ่อสูบน้ำคลองราชมนตรี ถ.เพชรเกษม (ขาเข้า)","district_t":"ภาษีเจริญ","year":"2564","owner":"ภาษีเจริญ","name":"บ่อสูบน้ำคลองราชมนตรี ถ.เพชรเกษม (ขาเข้า)","district":"ภาษีเจริญ"}},{"type":"Feature","id":67,"geometry":{"type":"Point","coordinates":[100.407179,13.712682]},"properties":{"sump_name":"บ่อสูบน้ำคูน้ำข้างเดอะมอลบางแค","district_t":"บางแค","year":"2564","owner":"บางแค","name":"บ่อสูบน้ำคูน้ำข้างเดอะมอลบางแค","district":"บางแค"}},{"type":"Feature","id":68,"geometry":{"type":"Point","coordinates":[100.432284,13.712559]},"properties":{"sump_name":"บ่อสูบน้ำคลองยายเพียร ถนนเพชรเกษมฝั่งขาออก (ร้านยาง)","district_t":"ภาษีเจริญ","year":"2564","owner":"ภาษีเจริญ","name":"บ่อสูบน้ำคลองยายเพียร ถนนเพชรเกษมฝั่งขาออก (ร้านยาง)","district":"ภาษีเจริญ"}},{"type":"Feature","id":69,"geometry":{"type":"Point","coordinates":[100.432131,13.712566]},"properties":{"sump_name":"บ่อสูบน้ำคลองยายเพียร ถนนเพชรเกษม ฝั่งขาออก (รพ.เพชรเกษม2)","district_t":"ภาษีเจริญ","year":"2564","owner":"ภาษีเจริญ","name":"บ่อสูบน้ำคลองยายเพียร ถนนเพชรเกษม ฝั่งขาออก (รพ.เพชรเกษม2)","district":"ภาษีเจริญ"}},{"type":"Feature","id":70,"geometry":{"type":"Point","coordinates":[100.405717,13.712963]},"properties":{"sump_name":"บ่อสูบน้ำบึงสวนเพชรกาญจนารมย์ ตอนลงคลองบางจาก","district_t":"บางแค","year":"2564","owner":"บางแค","name":"บ่อสูบน้ำบึงสวนเพชรกาญจนารมย์ ตอนลงคลองบางจาก","district":"บางแค"}},{"type":"Feature","id":71,"geometry":{"type":"Point","coordinates":[100.432323,13.71285]},"properties":{"sump_name":"บ่อสูบน้ำคลองยายเพียร ถนนเพชรเกษมฝั่งขาเข้า (ปั้มบางจาก)","district_t":"ภาษีเจริญ","year":"2564","owner":"ภาษีเจริญ","name":"บ่อสูบน้ำคลองยายเพียร ถนนเพชรเกษมฝั่งขาเข้า (ปั้มบางจาก)","district":"ภาษีเจริญ"}},{"type":"Feature","id":72,"geometry":{"type":"Point","coordinates":[100.520671,13.713791]},"properties":{"sump_name":"บ่อสูบน้ำคูน้ำวัดปรก","district_t":"สาทร","year":"2564","owner":"สาทร","name":"บ่อสูบน้ำคูน้ำวัดปรก","district":"สาทร"}},{"type":"Feature","id":73,"geometry":{"type":"Point","coordinates":[100.534529,13.713856]},"properties":{"sump_name":"บ่อสูบน้ำนราธิวาส 17","district_t":"สาทร","year":"2564","owner":"สาทร","name":"บ่อสูบน้ำนราธิวาส 17","district":"สาทร"}},{"type":"Feature","id":74,"geometry":{"type":"Point","coordinates":[100.395574,13.714702]},"properties":{"sump_name":"บ่อสูบน้ำคลองบางจาก ถนนพุทธมณฑลสาย 2","district_t":"บางแค","year":"2564","owner":"บางแค","name":"บ่อสูบน้ำคลองบางจาก ถนนพุทธมณฑลสาย 2","district":"บางแค"}},{"type":"Feature","id":75,"geometry":{"type":"Point","coordinates":[100.576291,13.714913]},"properties":{"sump_name":"บ่อสูบน้ำคูน้ำเทพธารินทร์ ตอนถนนพระรามที่ 4","district_t":"คลองเตย","year":"2564","owner":"คลองเตย","name":"บ่อสูบน้ำคูน้ำเทพธารินทร์ ตอนถนนพระรามที่ 4","district":"คลองเตย"}},{"type":"Feature","id":76,"geometry":{"type":"Point","coordinates":[100.509035,13.715424]},"properties":{"sump_name":"บ่อสูบน้ำซอยเจริญนคร 21","district_t":"คลองสาน","year":"2564","owner":"คลองสาน","name":"บ่อสูบน้ำซอยเจริญนคร 21","district":"คลองสาน"}},{"type":"Feature","id":77,"geometry":{"type":"Point","coordinates":[100.368314,13.719271]},"properties":{"sump_name":"บ่อสูบน้ำถนนหมู่บ้านเศรษฐกิจ ซอย 30-10-3","district_t":"บางแค","year":"2564","owner":"บางแค","name":"บ่อสูบน้ำถนนหมู่บ้านเศรษฐกิจ ซอย 30-10-3","district":"บางแค"}},{"type":"Feature","id":78,"geometry":{"type":"Point","coordinates":[100.568074,13.718791]},"properties":{"sump_name":"บ่อสูบน้ำท้ายซอยสุขุมวิท? 26? (ฝั่ง? Big C)","district_t":"คลองเตย","year":"2564","owner":"คลองเตย","name":"บ่อสูบน้ำท้ายซอยสุขุมวิท? 26? (ฝั่ง? Big C)","district":"คลองเตย"}},{"type":"Feature","id":79,"geometry":{"type":"Point","coordinates":[100.567919,13.718841]},"properties":{"sump_name":"บ่อสูบน้ำท้ายซอยสุขุมวิท 26 (ฝั่งธนาคารกรุงเทพ)","district_t":"คลองเตย","year":"2564","owner":"คลองเตย","name":"บ่อสูบน้ำท้ายซอยสุขุมวิท 26 (ฝั่งธนาคารกรุงเทพ)","district":"คลองเตย"}},{"type":"Feature","id":80,"geometry":{"type":"Point","coordinates":[100.510926,13.719243]},"properties":{"sump_name":"บ่อสูบน้ำใต้สะพานตากสิน","district_t":"คลองสาน","year":"2564","owner":"คลองสาน","name":"บ่อสูบน้ำใต้สะพานตากสิน","district":"คลองสาน"}},{"type":"Feature","id":81,"geometry":{"type":"Point","coordinates":[100.58465,13.719216]},"properties":{"sump_name":"บ่อสูบน้ำสุขุมวิท 42","district_t":"คลองเตย","year":"2564","owner":"คลองเตย","name":"บ่อสูบน้ำสุขุมวิท 42","district":"คลองเตย"}},{"type":"Feature","id":82,"geometry":{"type":"Point","coordinates":[100.375178,13.720701]},"properties":{"sump_name":"บ่อสูบน้ำหมู่บ้านเศรษฐกิจ (คลองบางขี้แก้ง)","district_t":"บางแค","year":"2564","owner":"บางแค","name":"บ่อสูบน้ำหมู่บ้านเศรษฐกิจ (คลองบางขี้แก้ง)","district":"บางแค"}},{"type":"Feature","id":83,"geometry":{"type":"Point","coordinates":[100.458051,13.720631]},"properties":{"sump_name":"บ่อสูบน้ำคลองประดู่ ถ.เพชรเกษม (ฝั่งขาออก)","district_t":"ภาษีเจริญ","year":"2564","owner":"ภาษีเจริญ","name":"บ่อสูบน้ำคลองประดู่ ถ.เพชรเกษม (ฝั่งขาออก)","district":"ภาษีเจริญ"}},{"type":"Feature","id":84,"geometry":{"type":"Point","coordinates":[100.45852,13.720816]},"properties":{"sump_name":"บ่อสูบน้ำคลองประดู่ ถนนเพชรเกษม (ฝั่งขาเข้า)","district_t":"ภาษีเจริญ","year":"2564","owner":"ภาษีเจริญ","name":"บ่อสูบน้ำคลองประดู่ ถนนเพชรเกษม (ฝั่งขาเข้า)","district":"ภาษีเจริญ"}},{"type":"Feature","id":85,"geometry":{"type":"Point","coordinates":[100.376748,13.721678]},"properties":{"sump_name":"บ่อสูบน้ำซอยหมู่บ้านเศรษฐกิจ 26","district_t":"บางแค","year":"2564","owner":"บางแค","name":"บ่อสูบน้ำซอยหมู่บ้านเศรษฐกิจ 26","district":"บางแค"}},{"type":"Feature","id":86,"geometry":{"type":"Point","coordinates":[100.381602,13.722111]},"properties":{"sump_name":"บ่อสูบน้ำหมู่บ้านเศรษฐกิจ ซอย 25-15","district_t":"บางแค","year":"2564","owner":"บางแค","name":"บ่อสูบน้ำหมู่บ้านเศรษฐกิจ ซอย 25-15","district":"บางแค"}},{"type":"Feature","id":87,"geometry":{"type":"Point","coordinates":[100.513847,13.722389]},"properties":{"sump_name":"บ่อสูบน้ำซอยวัดสวนพลู","district_t":"บางรัก","year":"2564","owner":"บางรัก","name":"บ่อสูบน้ำซอยวัดสวนพลู","district":"บางรัก"}},{"type":"Feature","id":88,"geometry":{"type":"Point","coordinates":[100.580724,13.722229]},"properties":{"sump_name":"บ่อสูบน้ำสุขุมวิท 40 บ้านกล้วยใต้","district_t":"คลองเตย","year":"2564","owner":"คลองเตย","name":"บ่อสูบน้ำสุขุมวิท 40 บ้านกล้วยใต้","district":"คลองเตย"}},{"type":"Feature","id":89,"geometry":{"type":"Point","coordinates":[100.492214,13.723161]},"properties":{"sump_name":"บ่อสูบน้ำบางไส้ไก่","district_t":"คลองสาน","year":"2564","owner":"คลองสาน","name":"บ่อสูบน้ำบางไส้ไก่","district":"คลองสาน"}},{"type":"Feature","id":90,"geometry":{"type":"Point","coordinates":[100.53656,13.723545]},"properties":{"sump_name":"บ่อสูบน้ำปากซอยสวนพลู (ฝั่งบ้านขนิษฐา)","district_t":"สาทร","year":"2564","owner":"สาทร","name":"บ่อสูบน้ำปากซอยสวนพลู (ฝั่งบ้านขนิษฐา)","district":"สาทร"}},{"type":"Feature","id":91,"geometry":{"type":"Point","coordinates":[100.536638,13.723557]},"properties":{"sump_name":"บ่อสูบน้ำสวนพลู (ฝั่งปั๊มเชลล์)","district_t":"สาทร","year":"2564","owner":"สาทร","name":"บ่อสูบน้ำสวนพลู (ฝั่งปั๊มเชลล์)","district":"สาทร"}},{"type":"Feature","id":92,"geometry":{"type":"Point","coordinates":[100.577359,13.724743]},"properties":{"sump_name":"บ่อสูบสุขุมวิท 36","district_t":"คลองเตย","year":"2564","owner":"คลองเตย","name":"บ่อสูบสุขุมวิท 36","district":"คลองเตย"}},{"type":"Feature","id":93,"geometry":{"type":"Point","coordinates":[100.368048,13.726777]},"properties":{"sump_name":"บ่อสูบน้ำซอยอัสสัมชัญ 23","district_t":"บางแค","year":"2564","owner":"บางแค","name":"บ่อสูบน้ำซอยอัสสัมชัญ 23","district":"บางแค"}},{"type":"Feature","id":94,"geometry":{"type":"Point","coordinates":[100.375008,13.727446]},"properties":{"sump_name":"บ่อสูบน้ำหมู่บ้านเศรษฐกิจ (คลองบางแวก)","district_t":"บางแค","year":"2564","owner":"บางแค","name":"บ่อสูบน้ำหมู่บ้านเศรษฐกิจ (คลองบางแวก)","district":"บางแค"}},{"type":"Feature","id":95,"geometry":{"type":"Point","coordinates":[100.375968,13.727684]},"properties":{"sump_name":"บ่อสูบน้ำหมู่บ้านเศรษฐกิจ ซอย 48","district_t":"บางแค","year":"2564","owner":"บางแค","name":"บ่อสูบน้ำหมู่บ้านเศรษฐกิจ ซอย 48","district":"บางแค"}},{"type":"Feature","id":96,"geometry":{"type":"Point","coordinates":[100.513722,13.727218]},"properties":{"sump_name":"บ่อสูบน้ำข้างไปรษณีย์กลาง","district_t":"บางรัก","year":"2564","owner":"บางรัก","name":"บ่อสูบน้ำข้างไปรษณีย์กลาง","district":"บางรัก"}},{"type":"Feature","id":97,"geometry":{"type":"Point","coordinates":[100.485966,13.727443]},"properties":{"sump_name":"บ่อสูบน้ำใต้สะพานเนาวจำเนียร ถ.อินทรพิทักษ์","district_t":"ธนบุรี","year":"2564","owner":"ธนบุรี","name":"บ่อสูบน้ำใต้สะพานเนาวจำเนียร ถ.อินทรพิทักษ์","district":"ธนบุรี"}},{"type":"Feature","id":98,"geometry":{"type":"Point","coordinates":[100.485027,13.727637]},"properties":{"sump_name":"บ่อสูบน้ำเนาวจำเนียร ถนนเพชรเกษม","district_t":"บางกอกใหญ่","year":"2564","owner":"บางกอกใหญ่","name":"บ่อสูบน้ำเนาวจำเนียร ถนนเพชรเกษม","district":"บางกอกใหญ่"}},{"type":"Feature","id":99,"geometry":{"type":"Point","coordinates":[100.493444,13.728555]},"properties":{"sump_name":"บ่อสูบน้ำสะพานเหลือง","district_t":"ธนบุรี","year":"2564","owner":"ธนบุรี","name":"บ่อสูบน้ำสะพานเหลือง","district":"ธนบุรี"}},{"type":"Feature","id":100,"geometry":{"type":"Point","coordinates":[100.570863,13.729284]},"properties":{"sump_name":"บ่อสูบน้ำสุขุมวิท 26","district_t":"คลองเตย","year":"2564","owner":"คลองเตย","name":"บ่อสูบน้ำสุขุมวิท 26","district":"คลองเตย"}},{"type":"Feature","id":101,"geometry":{"type":"Point","coordinates":[100.497957,13.729846]},"properties":{"sump_name":"บ่อสูบน้ำร่วมมิตร ตอนถนนอิสรภาพตัดใหม่","district_t":"คลองสาน","year":"2564","owner":"คลองสาน","name":"บ่อสูบน้ำร่วมมิตร ตอนถนนอิสรภาพตัดใหม่","district":"คลองสาน"}},{"type":"Feature","id":102,"geometry":{"type":"Point","coordinates":[100.511099,13.730609]},"properties":{"sump_name":"บ่อสูบน้ำสำนักการศึกษา","district_t":"คลองสาน","year":"2564","owner":"คลองสาน","name":"บ่อสูบน้ำสำนักการศึกษา","district":"คลองสาน"}},{"type":"Feature","id":103,"geometry":{"type":"Point","coordinates":[100.619597,13.732648]},"properties":{"sump_name":"บ่อสูบน้ำพัฒนาการ 30","district_t":"สวนหลวง","year":"2564","owner":"สวนหลวง","name":"บ่อสูบน้ำพัฒนาการ 30","district":"สวนหลวง"}},{"type":"Feature","id":104,"geometry":{"type":"Point","coordinates":[100.553101,13.733917]},"properties":{"sump_name":"บ่อสูบน้ำสุขุมวิทซอย 4","district_t":"คลองเตย","year":"2564","owner":"คลองเตย","name":"บ่อสูบน้ำสุขุมวิทซอย 4","district":"คลองเตย"}},{"type":"Feature","id":105,"geometry":{"type":"Point","coordinates":[100.64093,13.73335]},"properties":{"sump_name":"บ่อสูบน้ำถนนศรีนครินทร์ ตอนคลองหัวหมาก(สวนหย่อม)","district_t":"สวนหลวง","year":"2564","owner":"สวนหลวง","name":"บ่อสูบน้ำถนนศรีนครินทร์ ตอนคลองหัวหมาก(สวนหย่อม)","district":"สวนหลวง"}},{"type":"Feature","id":106,"geometry":{"type":"Point","coordinates":[100.55991,13.733948]},"properties":{"sump_name":"บ่อสูบน้ำสุขุมวิทซอย 14","district_t":"คลองเตย","year":"2564","owner":"คลองเตย","name":"บ่อสูบน้ำสุขุมวิทซอย 14","district":"คลองเตย"}},{"type":"Feature","id":107,"geometry":{"type":"Point","coordinates":[100.641392,13.733549]},"properties":{"sump_name":"บ่อสูบน้ำถนนศรีนครินทร์ ตอนคลองหัวหมากขาออก","district_t":"สวนหลวง","year":"2564","owner":"สวนหลวง","name":"บ่อสูบน้ำถนนศรีนครินทร์ ตอนคลองหัวหมากขาออก","district":"สวนหลวง"}},{"type":"Feature","id":108,"geometry":{"type":"Point","coordinates":[100.51107,13.735113]},"properties":{"sump_name":"บ่อสูบน้ำภานุรังษี","district_t":"สัมพันธวงศ์","year":"2564","owner":"สัมพันธวงศ์","name":"บ่อสูบน้ำภานุรังษี","district":"สัมพันธวงศ์"}},{"type":"Feature","id":109,"geometry":{"type":"Point","coordinates":[100.510145,13.73628]},"properties":{"sump_name":"บ่อสูบน้ำวัดปทุมคงคา","district_t":"สัมพันธวงศ์","year":"2564","owner":"สัมพันธวงศ์","name":"บ่อสูบน้ำวัดปทุมคงคา","district":"สัมพันธวงศ์"}},{"type":"Feature","id":110,"geometry":{"type":"Point","coordinates":[100.509585,13.736827]},"properties":{"sump_name":"บ่อสูบน้ำท่าน้ำสวัสดี","district_t":"สัมพันธวงศ์","year":"2564","owner":"สัมพันธวงศ์","name":"บ่อสูบน้ำท่าน้ำสวัสดี","district":"สัมพันธวงศ์"}},{"type":"Feature","id":111,"geometry":{"type":"Point","coordinates":[100.61189,13.736422]},"properties":{"sump_name":"บ่อสูบน้ำถนนพัฒนาการตอนคลองบ้านป่าขาเข้า","district_t":"สวนหลวง","year":"2564","owner":"สวนหลวง","name":"บ่อสูบน้ำถนนพัฒนาการตอนคลองบ้านป่าขาเข้า","district":"สวนหลวง"}},{"type":"Feature","id":112,"geometry":{"type":"Point","coordinates":[100.501964,13.737243]},"properties":{"sump_name":"บ่อสูบน้ำโรงเกลือ ถนนท่าดินแดง","district_t":"คลองสาน","year":"2564","owner":"คลองสาน","name":"บ่อสูบน้ำโรงเกลือ ถนนท่าดินแดง","district":"คลองสาน"}},{"type":"Feature","id":113,"geometry":{"type":"Point","coordinates":[100.611664,13.736737]},"properties":{"sump_name":"บ่อสูบน้ำพัฒนาการตอนคลองบ้านป่าขาออก(กรุงไทย)","district_t":"สวนหลวง","year":"2564","owner":"สวนหลวง","name":"บ่อสูบน้ำพัฒนาการตอนคลองบ้านป่าขาออก(กรุงไทย)","district":"สวนหลวง"}},{"type":"Feature","id":114,"geometry":{"type":"Point","coordinates":[100.500108,13.737648]},"properties":{"sump_name":"บ่อสูบน้ำศาลเจ้ากวนอู","district_t":"คลองสาน","year":"2564","owner":"คลองสาน","name":"บ่อสูบน้ำศาลเจ้ากวนอู","district":"คลองสาน"}},{"type":"Feature","id":115,"geometry":{"type":"Point","coordinates":[100.625354,13.73693]},"properties":{"sump_name":"บ่อสูบน้ำถนนพัฒนาการตอนคลองลาวขาเข้า","district_t":"สวนหลวง","year":"2564","owner":"สวนหลวง","name":"บ่อสูบน้ำถนนพัฒนาการตอนคลองลาวขาเข้า","district":"สวนหลวง"}},{"type":"Feature","id":116,"geometry":{"type":"Point","coordinates":[100.624862,13.737108]},"properties":{"sump_name":"บ่อสูบน้ำถนนพัฒนาการตอนคลองลาว ขาออก","district_t":"สวนหลวง","year":"2564","owner":"สวนหลวง","name":"บ่อสูบน้ำถนนพัฒนาการตอนคลองลาว ขาออก","district":"สวนหลวง"}},{"type":"Feature","id":117,"geometry":{"type":"Point","coordinates":[100.499504,13.737902]},"properties":{"sump_name":"บ่อสูบน้ำมัสยิดกูวติลอิสลาม","district_t":"คลองสาน","year":"2564","owner":"คลองสาน","name":"บ่อสูบน้ำมัสยิดกูวติลอิสลาม","district":"คลองสาน"}},{"type":"Feature","id":118,"geometry":{"type":"Point","coordinates":[100.598303,13.737745]},"properties":{"sump_name":"บ่อสูบน้ำคลองตัน ซอย 71","district_t":"วัฒนา","year":"2564","owner":"วัฒนา","name":"บ่อสูบน้ำคลองตัน ซอย 71","district":"วัฒนา"}},{"type":"Feature","id":119,"geometry":{"type":"Point","coordinates":[100.505732,13.738372]},"properties":{"sump_name":"บ่อสูบน้ำมังกร","district_t":"สัมพันธวงศ์","year":"2564","owner":"สัมพันธวงศ์","name":"บ่อสูบน้ำมังกร","district":"สัมพันธวงศ์"}},{"type":"Feature","id":120,"geometry":{"type":"Point","coordinates":[100.604526,13.737783]},"properties":{"sump_name":"บ่อสูบน้ำใต้ด่วนพัฒนาการ","district_t":"สวนหลวง","year":"2564","owner":"สวนหลวง","name":"บ่อสูบน้ำใต้ด่วนพัฒนาการ","district":"สวนหลวง"}},{"type":"Feature","id":121,"geometry":{"type":"Point","coordinates":[100.504533,13.738764]},"properties":{"sump_name":"บ่อสูบน้ำท่าน้ำราชวงศ์","district_t":"สัมพันธวงศ์","year":"2564","owner":"สัมพันธวงศ์","name":"บ่อสูบน้ำท่าน้ำราชวงศ์","district":"สัมพันธวงศ์"}},{"type":"Feature","id":122,"geometry":{"type":"Point","coordinates":[100.598527,13.738366]},"properties":{"sump_name":"บ่อสูบน้ำใต้สะพานคลองตัน","district_t":"สวนหลวง","year":"2564","owner":"สวนหลวง","name":"บ่อสูบน้ำใต้สะพานคลองตัน","district":"สวนหลวง"}},{"type":"Feature","id":123,"geometry":{"type":"Point","coordinates":[100.50253,13.739177]},"properties":{"sump_name":"บ่อสูบน้ำซอยสะพานยาว","district_t":"สัมพันธวงศ์","year":"2564","owner":"สัมพันธวงศ์","name":"บ่อสูบน้ำซอยสะพานยาว","district":"สัมพันธวงศ์"}},{"type":"Feature","id":124,"geometry":{"type":"Point","coordinates":[100.494097,13.739633]},"properties":{"sump_name":"บ่อสูบน้ำข้างโรงเรียนซางตาครู้สศึกษา","district_t":"ธนบุรี","year":"2564","owner":"ธนบุรี","name":"บ่อสูบน้ำข้างโรงเรียนซางตาครู้สศึกษา","district":"ธนบุรี"}},{"type":"Feature","id":125,"geometry":{"type":"Point","coordinates":[100.493057,13.74018]},"properties":{"sump_name":"บ่อสูบน้ำชุมชนกุฎีจีน","district_t":"ธนบุรี","year":"2564","owner":"ธนบุรี","name":"บ่อสูบน้ำชุมชนกุฎีจีน","district":"ธนบุรี"}},{"type":"Feature","id":126,"geometry":{"type":"Point","coordinates":[100.492808,13.740343]},"properties":{"sump_name":"บ่อสูบน้ำข้างศาลเจ้าแม่กวนอิม","district_t":"ธนบุรี","year":"2564","owner":"ธนบุรี","name":"บ่อสูบน้ำข้างศาลเจ้าแม่กวนอิม","district":"ธนบุรี"}},{"type":"Feature","id":127,"geometry":{"type":"Point","coordinates":[100.497303,13.740318]},"properties":{"sump_name":"บ่อสูบน้ำใต้สะพานพุทธ","district_t":"พระนคร","year":"2564","owner":"พระนคร","name":"บ่อสูบน้ำใต้สะพานพุทธ","district":"พระนคร"}},{"type":"Feature","id":128,"geometry":{"type":"Point","coordinates":[100.492642,13.740478]},"properties":{"sump_name":"บ่อสูบน้ำข้างวัดกัลยาณมิตร","district_t":"ธนบุรี","year":"2564","owner":"ธนบุรี","name":"บ่อสูบน้ำข้างวัดกัลยาณมิตร","district":"ธนบุรี"}},{"type":"Feature","id":129,"geometry":{"type":"Point","coordinates":[100.589695,13.741352]},"properties":{"sump_name":"บ่อสูบน้ำเอกมัย","district_t":"วัฒนา","year":"2564","owner":"วัฒนา","name":"บ่อสูบน้ำเอกมัย","district":"วัฒนา"}},{"type":"Feature","id":130,"geometry":{"type":"Point","coordinates":[100.598024,13.741571]},"properties":{"sump_name":"บ่อสูบน้ำตรงข้ามบีวาอาบอบนวด","district_t":"ห้วยขวาง","year":"2564","owner":"ห้วยขวาง","name":"บ่อสูบน้ำตรงข้ามบีวาอาบอบนวด","district":"ห้วยขวาง"}},{"type":"Feature","id":131,"geometry":{"type":"Point","coordinates":[100.598359,13.741641]},"properties":{"sump_name":"บ่อสูบน้ำสุเหร่าคลองตัน แยกคลองตัน","district_t":"สวนหลวง","year":"2564","owner":"สวนหลวง","name":"บ่อสูบน้ำสุเหร่าคลองตัน แยกคลองตัน","district":"สวนหลวง"}},{"type":"Feature","id":132,"geometry":{"type":"Point","coordinates":[100.598173,13.741944]},"properties":{"sump_name":"บ่อสูบน้ำหน้าบีวาอาบอบนวด","district_t":"ห้วยขวาง","year":"2564","owner":"ห้วยขวาง","name":"บ่อสูบน้ำหน้าบีวาอาบอบนวด","district":"ห้วยขวาง"}},{"type":"Feature","id":133,"geometry":{"type":"Point","coordinates":[100.567579,13.742463]},"properties":{"sump_name":"บ่อสูบน้ำสุขุมวิท 31 (สวัสดี)","district_t":"วัฒนา","year":"2564","owner":"วัฒนา","name":"บ่อสูบน้ำสุขุมวิท 31 (สวัสดี)","district":"วัฒนา"}},{"type":"Feature","id":134,"geometry":{"type":"Point","coordinates":[100.492873,13.742953]},"properties":{"sump_name":"บ่อสูบน้ำข้างโรงเรียนราชินี","district_t":"พระนคร","year":"2564","owner":"พระนคร","name":"บ่อสูบน้ำข้างโรงเรียนราชินี","district":"พระนคร"}},{"type":"Feature","id":135,"geometry":{"type":"Point","coordinates":[100.59011,13.742522]},"properties":{"sump_name":"บ่อสูบน้ำเอกมัยแก้มลิง","district_t":"ห้วยขวาง","year":"2564","owner":"ห้วยขวาง","name":"บ่อสูบน้ำเอกมัยแก้มลิง","district":"ห้วยขวาง"}},{"type":"Feature","id":136,"geometry":{"type":"Point","coordinates":[100.585681,13.743061]},"properties":{"sump_name":"บ่อสูบน้ำทองหล่อ สุขุมวิท 55","district_t":"วัฒนา","year":"2564","owner":"วัฒนา","name":"บ่อสูบน้ำทองหล่อ สุขุมวิท 55","district":"วัฒนา"}},{"type":"Feature","id":137,"geometry":{"type":"Point","coordinates":[100.585783,13.743279]},"properties":{"sump_name":"บ่อสูบน้ำโรงแรมมรกต","district_t":"ห้วยขวาง","year":"2564","owner":"ห้วยขวาง","name":"บ่อสูบน้ำโรงแรมมรกต","district":"ห้วยขวาง"}},{"type":"Feature","id":138,"geometry":{"type":"Point","coordinates":[100.489607,13.744017]},"properties":{"sump_name":"บ่อสูบน้ำวัดอรุณราชวนาราม ถนนอรุณอัมรินทร์","district_t":"บางกอกใหญ่","year":"2564","owner":"บางกอกใหญ่","name":"บ่อสูบน้ำวัดอรุณราชวนาราม ถนนอรุณอัมรินทร์","district":"บางกอกใหญ่"}},{"type":"Feature","id":139,"geometry":{"type":"Point","coordinates":[100.550871,13.743855]},"properties":{"sump_name":"บ่อสูบน้ำสุขุมวิท ซอย 1","district_t":"วัฒนา","year":"2564","owner":"วัฒนา","name":"บ่อสูบน้ำสุขุมวิท ซอย 1","district":"วัฒนา"}},{"type":"Feature","id":140,"geometry":{"type":"Point","coordinates":[100.582605,13.743656]},"properties":{"sump_name":"บ่อสูบซอยต่อศักดิ์","district_t":"วัฒนา","year":"2564","owner":"วัฒนา","name":"บ่อสูบซอยต่อศักดิ์","district":"วัฒนา"}},{"type":"Feature","id":141,"geometry":{"type":"Point","coordinates":[100.496011,13.745222]},"properties":{"sump_name":"บ่อสูบน้ำกรมที่ดิน","district_t":"พระนคร","year":"2564","owner":"พระนคร","name":"บ่อสูบน้ำกรมที่ดิน","district":"พระนคร"}},{"type":"Feature","id":142,"geometry":{"type":"Point","coordinates":[100.494409,13.745328]},"properties":{"sump_name":"บ่อสูบน้ำวัดโพธิ์","district_t":"พระนคร","year":"2564","owner":"พระนคร","name":"บ่อสูบน้ำวัดโพธิ์","district":"พระนคร"}},{"type":"Feature","id":143,"geometry":{"type":"Point","coordinates":[100.576491,13.745012]},"properties":{"sump_name":"บ่อสูบน้ำสุขุมวิท ซอย 49","district_t":"วัฒนา","year":"2564","owner":"วัฒนา","name":"บ่อสูบน้ำสุขุมวิท ซอย 49","district":"วัฒนา"}},{"type":"Feature","id":144,"geometry":{"type":"Point","coordinates":[100.575189,13.745025]},"properties":{"sump_name":"บ่อสูบน้ำพร้อมศรี","district_t":"วัฒนา","year":"2564","owner":"วัฒนา","name":"บ่อสูบน้ำพร้อมศรี","district":"วัฒนา"}},{"type":"Feature","id":145,"geometry":{"type":"Point","coordinates":[100.545338,13.745576]},"properties":{"sump_name":"บ่อสูบน้ำถนนชิดลม","district_t":"ปทุมวัน","year":"2564","owner":"ปทุมวัน","name":"บ่อสูบน้ำถนนชิดลม","district":"ปทุมวัน"}},{"type":"Feature","id":146,"geometry":{"type":"Point","coordinates":[100.573032,13.745708]},"properties":{"sump_name":"บ่อสูบน้ำสุขุมวิทซอย? 39 ฝั่งขวา? (บ่อเก่า)?","district_t":"วัฒนา","year":"2564","owner":"วัฒนา","name":"บ่อสูบน้ำสุขุมวิทซอย? 39 ฝั่งขวา? (บ่อเก่า)?","district":"วัฒนา"}},{"type":"Feature","id":147,"geometry":{"type":"Point","coordinates":[100.572828,13.745817]},"properties":{"sump_name":"บ่อสูบน้ำ สุขุมวิท 39 ฝั่งซ้าย (บ่อใหม่)","district_t":"วัฒนา","year":"2564","owner":"วัฒนา","name":"บ่อสูบน้ำ สุขุมวิท 39 ฝั่งซ้าย (บ่อใหม่)","district":"วัฒนา"}},{"type":"Feature","id":148,"geometry":{"type":"Point","coordinates":[100.490343,13.746336]},"properties":{"sump_name":"บ่อสูบน้ำท่าเตียน","district_t":"พระนคร","year":"2564","owner":"พระนคร","name":"บ่อสูบน้ำท่าเตียน","district":"พระนคร"}},{"type":"Feature","id":149,"geometry":{"type":"Point","coordinates":[100.568698,13.746352]},"properties":{"sump_name":"บ่อสูบสวัสดี","district_t":"วัฒนา","year":"2564","owner":"วัฒนา","name":"บ่อสูบสวัสดี","district":"วัฒนา"}},{"type":"Feature","id":150,"geometry":{"type":"Point","coordinates":[100.572996,13.746337]},"properties":{"sump_name":"บ่อสูบน้ำซอยพร้อมพงษ์","district_t":"ห้วยขวาง","year":"2564","owner":"ห้วยขวาง","name":"บ่อสูบน้ำซอยพร้อมพงษ์","district":"ห้วยขวาง"}},{"type":"Feature","id":151,"geometry":{"type":"Point","coordinates":[100.604297,13.746363]},"properties":{"sump_name":"บ่อสูบน้ำรามคำแหงซอย 5","district_t":"สวนหลวง","year":"2564","owner":"สวนหลวง","name":"บ่อสูบน้ำรามคำแหงซอย 5","district":"สวนหลวง"}},{"type":"Feature","id":152,"geometry":{"type":"Point","coordinates":[100.567783,13.746598]},"properties":{"sump_name":"บ่อสูบน้ำ มศว.","district_t":"วัฒนา","year":"2564","owner":"วัฒนา","name":"บ่อสูบน้ำ มศว.","district":"วัฒนา"}},{"type":"Feature","id":153,"geometry":{"type":"Point","coordinates":[100.496048,13.747194]},"properties":{"sump_name":"บ่อสูบน้ำกรมรักษาดินแดน","district_t":"พระนคร","year":"2564","owner":"พระนคร","name":"บ่อสูบน้ำกรมรักษาดินแดน","district":"พระนคร"}},{"type":"Feature","id":154,"geometry":{"type":"Point","coordinates":[100.643562,13.746558]},"properties":{"sump_name":"บ่อสูบน้ำคลองกะจะถนนศรีนครินทร์","district_t":"บางกะปิ","year":"2564","owner":"บางกะปิ","name":"บ่อสูบน้ำคลองกะจะถนนศรีนครินทร์","district":"บางกะปิ"}},{"type":"Feature","id":155,"geometry":{"type":"Point","coordinates":[100.54845,13.747609]},"properties":{"sump_name":"บ่อสูบน้ำถนนวิทยุ (ฝั่งตะวันตก)","district_t":"ปทุมวัน","year":"2564","owner":"ปทุมวัน","name":"บ่อสูบน้ำถนนวิทยุ (ฝั่งตะวันตก)","district":"ปทุมวัน"}},{"type":"Feature","id":156,"geometry":{"type":"Point","coordinates":[100.563172,13.747617]},"properties":{"sump_name":"บ่อสูบน้ำอโศก? (สุขุมวิท ?21)","district_t":"วัฒนา","year":"2564","owner":"วัฒนา","name":"บ่อสูบน้ำอโศก? (สุขุมวิท ?21)","district":"วัฒนา"}},{"type":"Feature","id":157,"geometry":{"type":"Point","coordinates":[100.54459,13.747868]},"properties":{"sump_name":"บ่อสูบน้ำชิดลม","district_t":"ปทุมวัน","year":"2564","owner":"ปทุมวัน","name":"บ่อสูบน้ำชิดลม","district":"ปทุมวัน"}},{"type":"Feature","id":158,"geometry":{"type":"Point","coordinates":[100.548718,13.747901]},"properties":{"sump_name":"บ่อสูบน้ำถนนวิทยุ (ฝั่งตะวันออก)","district_t":"ปทุมวัน","year":"2564","owner":"ปทุมวัน","name":"บ่อสูบน้ำถนนวิทยุ (ฝั่งตะวันออก)","district":"ปทุมวัน"}},{"type":"Feature","id":159,"geometry":{"type":"Point","coordinates":[100.546216,13.748083]},"properties":{"sump_name":"บ่อสูบน้ำซอยสมคิด","district_t":"ปทุมวัน","year":"2564","owner":"ปทุมวัน","name":"บ่อสูบน้ำซอยสมคิด","district":"ปทุมวัน"}},{"type":"Feature","id":160,"geometry":{"type":"Point","coordinates":[100.556414,13.748066]},"properties":{"sump_name":"บ่อสูบน้ำสุขุมวิท? 11","district_t":"วัฒนา","year":"2564","owner":"วัฒนา","name":"บ่อสูบน้ำสุขุมวิท? 11","district":"วัฒนา"}},{"type":"Feature","id":161,"geometry":{"type":"Point","coordinates":[100.56313,13.748147]},"properties":{"sump_name":"บ่อสูบน้ำถนนอโศก ฝั่งตรงข้ามสถานฑูตญี่ปุ่น","district_t":"ราชเทวี","year":"2564","owner":"ราชเทวี","name":"บ่อสูบน้ำถนนอโศก ฝั่งตรงข้ามสถานฑูตญี่ปุ่น","district":"ราชเทวี"}},{"type":"Feature","id":162,"geometry":{"type":"Point","coordinates":[100.548419,13.748633]},"properties":{"sump_name":"บ่อสูบน้ำถนนวิทยุ ฝั่งตะวันตก","district_t":"ราชเทวี","year":"2564","owner":"ราชเทวี","name":"บ่อสูบน้ำถนนวิทยุ ฝั่งตะวันตก","district":"ราชเทวี"}},{"type":"Feature","id":163,"geometry":{"type":"Point","coordinates":[100.548633,13.748664]},"properties":{"sump_name":"บ่อสูบน้ำถนนวิทยุ ฝั่งตะวันออก","district_t":"ราชเทวี","year":"2564","owner":"ราชเทวี","name":"บ่อสูบน้ำถนนวิทยุ ฝั่งตะวันออก","district":"ราชเทวี"}},{"type":"Feature","id":164,"geometry":{"type":"Point","coordinates":[100.554295,13.748654]},"properties":{"sump_name":"บ่อสูบน้ำนานาเหนือ ฝั่งตะวันออก","district_t":"ราชเทวี","year":"2564","owner":"ราชเทวี","name":"บ่อสูบน้ำนานาเหนือ ฝั่งตะวันออก","district":"ราชเทวี"}},{"type":"Feature","id":165,"geometry":{"type":"Point","coordinates":[100.530932,13.748914]},"properties":{"sump_name":"บ่อสูบน้ำสะพานหัวช้าง","district_t":"ปทุมวัน","year":"2564","owner":"ปทุมวัน","name":"บ่อสูบน้ำสะพานหัวช้าง","district":"ปทุมวัน"}},{"type":"Feature","id":166,"geometry":{"type":"Point","coordinates":[100.545114,13.748973]},"properties":{"sump_name":"บ่อสูบน้ำถนนชิดลม ฝั่งตะวันออก","district_t":"ราชเทวี","year":"2564","owner":"ราชเทวี","name":"บ่อสูบน้ำถนนชิดลม ฝั่งตะวันออก","district":"ราชเทวี"}},{"type":"Feature","id":167,"geometry":{"type":"Point","coordinates":[100.525349,13.749097]},"properties":{"sump_name":"บ่อสูบน้ำข้างช่างกลปทุมวัน","district_t":"ปทุมวัน","year":"2564","owner":"ปทุมวัน","name":"บ่อสูบน้ำข้างช่างกลปทุมวัน","district":"ปทุมวัน"}},{"type":"Feature","id":168,"geometry":{"type":"Point","coordinates":[100.544646,13.749031]},"properties":{"sump_name":"บ่อสูบน้ำถนนชิดลม ฝั่งตะวันตก","district_t":"ราชเทวี","year":"2564","owner":"ราชเทวี","name":"บ่อสูบน้ำถนนชิดลม ฝั่งตะวันตก","district":"ราชเทวี"}},{"type":"Feature","id":169,"geometry":{"type":"Point","coordinates":[100.543084,13.749062]},"properties":{"sump_name":"บ่อสูบน้ำซอยเพชรบุรี 32","district_t":"ราชเทวี","year":"2564","owner":"ราชเทวี","name":"บ่อสูบน้ำซอยเพชรบุรี 32","district":"ราชเทวี"}},{"type":"Feature","id":170,"geometry":{"type":"Point","coordinates":[100.540961,13.749131]},"properties":{"sump_name":"บ่อสูบน้ำราชดำริ","district_t":"ปทุมวัน","year":"2564","owner":"ปทุมวัน","name":"บ่อสูบน้ำราชดำริ","district":"ปทุมวัน"}},{"type":"Feature","id":171,"geometry":{"type":"Point","coordinates":[100.531138,13.749335]},"properties":{"sump_name":"บ่อสูบน้ำถนนพญาไท ตอนสะพานหัวช้าง ฝั่งตะวันตก","district_t":"ราชเทวี","year":"2564","owner":"ราชเทวี","name":"บ่อสูบน้ำถนนพญาไท ตอนสะพานหัวช้าง ฝั่งตะวันตก","district":"ราชเทวี"}},{"type":"Feature","id":172,"geometry":{"type":"Point","coordinates":[100.531458,13.749344]},"properties":{"sump_name":"บ่อสูบน้ำถนนพญาไท ตอนสะพานหัวช้าง ฝั่งตะวันออก","district_t":"ราชเทวี","year":"2564","owner":"ราชเทวี","name":"บ่อสูบน้ำถนนพญาไท ตอนสะพานหัวช้าง ฝั่งตะวันออก","district":"ราชเทวี"}},{"type":"Feature","id":173,"geometry":{"type":"Point","coordinates":[100.528863,13.749415]},"properties":{"sump_name":"บ่อสูบน้ำเกษมสันต์ 2","district_t":"ปทุมวัน","year":"2564","owner":"ปทุมวัน","name":"บ่อสูบน้ำเกษมสันต์ 2","district":"ปทุมวัน"}},{"type":"Feature","id":174,"geometry":{"type":"Point","coordinates":[100.488852,13.750196]},"properties":{"sump_name":"บ่อสูบน้ำท่าราชวรดิฐ","district_t":"พระนคร","year":"2564","owner":"พระนคร","name":"บ่อสูบน้ำท่าราชวรดิฐ","district":"พระนคร"}},{"type":"Feature","id":175,"geometry":{"type":"Point","coordinates":[100.52951,13.750476]},"properties":{"sump_name":"บ่อสูบน้ำซอยเพชรบุรี 12","district_t":"ราชเทวี","year":"2564","owner":"ราชเทวี","name":"บ่อสูบน้ำซอยเพชรบุรี 12","district":"ราชเทวี"}},{"type":"Feature","id":176,"geometry":{"type":"Point","coordinates":[100.524833,13.750528]},"properties":{"sump_name":"บ่อสูบน้ำถนนบรรทัดทอง ฝั่งตะวันตก","district_t":"ราชเทวี","year":"2564","owner":"ราชเทวี","name":"บ่อสูบน้ำถนนบรรทัดทอง ฝั่งตะวันตก","district":"ราชเทวี"}},{"type":"Feature","id":177,"geometry":{"type":"Point","coordinates":[100.535967,13.751496]},"properties":{"sump_name":"บ่อสูบน้ำสถานฑูตอินโดนีเซีย","district_t":"ราชเทวี","year":"2564","owner":"ราชเทวี","name":"บ่อสูบน้ำสถานฑูตอินโดนีเซีย","district":"ราชเทวี"}},{"type":"Feature","id":178,"geometry":{"type":"Point","coordinates":[100.48867,13.752229]},"properties":{"sump_name":"บ่อสูบน้ำท่าช้าง","district_t":"พระนคร","year":"2564","owner":"พระนคร","name":"บ่อสูบน้ำท่าช้าง","district":"พระนคร"}},{"type":"Feature","id":179,"geometry":{"type":"Point","coordinates":[100.482428,13.752445]},"properties":{"sump_name":"บ่อสูบน้ำซอยอิสรภาพ 44","district_t":"บางกอกน้อย","year":"2564","owner":"บางกอกน้อย","name":"บ่อสูบน้ำซอยอิสรภาพ 44","district":"บางกอกน้อย"}},{"type":"Feature","id":180,"geometry":{"type":"Point","coordinates":[100.486503,13.752506]},"properties":{"sump_name":"บ่อสูบน้ำวัดระฆังโฆสิตาราม ถนนอรุณอัมรินทร์","district_t":"บางกอกน้อย","year":"2564","owner":"บางกอกน้อย","name":"บ่อสูบน้ำวัดระฆังโฆสิตาราม ถนนอรุณอัมรินทร์","district":"บางกอกน้อย"}},{"type":"Feature","id":181,"geometry":{"type":"Point","coordinates":[100.552568,13.752209]},"properties":{"sump_name":"บ่อสูบน้ำถนนนิคมมักกะสัน ตอนลงคลองมักกะสัน","district_t":"ราชเทวี","year":"2564","owner":"ราชเทวี","name":"บ่อสูบน้ำถนนนิคมมักกะสัน ตอนลงคลองมักกะสัน","district":"ราชเทวี"}},{"type":"Feature","id":182,"geometry":{"type":"Point","coordinates":[100.495767,13.753234]},"properties":{"sump_name":"บ่อสูบน้ำหลังศาลฏีกา","district_t":"พระนคร","year":"2564","owner":"พระนคร","name":"บ่อสูบน้ำหลังศาลฏีกา","district":"พระนคร"}},{"type":"Feature","id":183,"geometry":{"type":"Point","coordinates":[100.569448,13.755454]},"properties":{"sump_name":"บ่อสูบน้ำ อสมท.","district_t":"ห้วยขวาง","year":"2564","owner":"ห้วยขวาง","name":"บ่อสูบน้ำ อสมท.","district":"ห้วยขวาง"}},{"type":"Feature","id":184,"geometry":{"type":"Point","coordinates":[100.542767,13.75566]},"properties":{"sump_name":"บ่อสูบน้ำในบึงมักกะสัน ตอนถนนราชปรารภ","district_t":"ราชเทวี","year":"2564","owner":"ราชเทวี","name":"บ่อสูบน้ำในบึงมักกะสัน ตอนถนนราชปรารภ","district":"ราชเทวี"}},{"type":"Feature","id":185,"geometry":{"type":"Point","coordinates":[100.486605,13.756222]},"properties":{"sump_name":"บ่อสูบน้ำท่าน้ำพรานนก ถนนพรานนก","district_t":"บางกอกน้อย","year":"2564","owner":"บางกอกน้อย","name":"บ่อสูบน้ำท่าน้ำพรานนก ถนนพรานนก","district":"บางกอกน้อย"}},{"type":"Feature","id":186,"geometry":{"type":"Point","coordinates":[100.520999,13.756265]},"properties":{"sump_name":"บ่อสูบน้ำคลองส้มป่อยล่าง","district_t":"ราชเทวี","year":"2564","owner":"ราชเทวี","name":"บ่อสูบน้ำคลองส้มป่อยล่าง","district":"ราชเทวี"}},{"type":"Feature","id":187,"geometry":{"type":"Point","coordinates":[100.553073,13.756127]},"properties":{"sump_name":"บ่อสูบน้ำจักรวาล","district_t":"ดินแดง","year":"2564","owner":"ดินแดง","name":"บ่อสูบน้ำจักรวาล","district":"ดินแดง"}},{"type":"Feature","id":188,"geometry":{"type":"Point","coordinates":[100.489048,13.756545]},"properties":{"sump_name":"บ่อสูบน้ำท่าพระจันทร์","district_t":"พระนคร","year":"2564","owner":"พระนคร","name":"บ่อสูบน้ำท่าพระจันทร์","district":"พระนคร"}},{"type":"Feature","id":189,"geometry":{"type":"Point","coordinates":[100.613318,13.759427]},"properties":{"sump_name":"บ่อสูบน้ำซอยรามคำแหง 39","district_t":"บางกะปิ","year":"2564","owner":"บางกะปิ","name":"บ่อสูบน้ำซอยรามคำแหง 39","district":"บางกะปิ"}},{"type":"Feature","id":190,"geometry":{"type":"Point","coordinates":[100.613085,13.759652]},"properties":{"sump_name":"บ่อสูบน้ำประชาอุทิศ (รามคำแหง 39)","district_t":"วังทองหลาง","year":"2564","owner":"วังทองหลาง","name":"บ่อสูบน้ำประชาอุทิศ (รามคำแหง 39)","district":"วังทองหลาง"}},{"type":"Feature","id":191,"geometry":{"type":"Point","coordinates":[100.482808,13.761937]},"properties":{"sump_name":"บ่อสูบน้ำใต้สะพานอรุณอัมรินทร์","district_t":"บางกอกน้อย","year":"2564","owner":"บางกอกน้อย","name":"บ่อสูบน้ำใต้สะพานอรุณอัมรินทร์","district":"บางกอกน้อย"}},{"type":"Feature","id":192,"geometry":{"type":"Point","coordinates":[100.513554,13.762812]},"properties":{"sump_name":"บ่อสูบน้ำถนนพิษณุโลก (ฝั่งถนนพระรามที่ 5)","district_t":"ดุสิต","year":"2564","owner":"ดุสิต","name":"บ่อสูบน้ำถนนพิษณุโลก (ฝั่งถนนพระรามที่ 5)","district":"ดุสิต"}},{"type":"Feature","id":193,"geometry":{"type":"Point","coordinates":[100.543313,13.762745]},"properties":{"sump_name":"บ่อสูบน้ำสะพานพรหมโยธี (ฝั่ง ป.ป.ส.)","district_t":"พญาไท","year":"2564","owner":"พญาไท","name":"บ่อสูบน้ำสะพานพรหมโยธี (ฝั่ง ป.ป.ส.)","district":"พญาไท"}},{"type":"Feature","id":194,"geometry":{"type":"Point","coordinates":[100.490527,13.763258]},"properties":{"sump_name":"บ่อสูบน้ำปิ่นเกล้า","district_t":"บางพลัด","year":"2564","owner":"บางพลัด","name":"บ่อสูบน้ำปิ่นเกล้า","district":"บางพลัด"}},{"type":"Feature","id":195,"geometry":{"type":"Point","coordinates":[100.542961,13.762996]},"properties":{"sump_name":"บ่อสูบน้ำสะพานพรหมโยธี","district_t":"พญาไท","year":"2564","owner":"พญาไท","name":"บ่อสูบน้ำสะพานพรหมโยธี","district":"พญาไท"}},{"type":"Feature","id":196,"geometry":{"type":"Point","coordinates":[100.513486,13.763903]},"properties":{"sump_name":"บ่อสูบน้ำถนนพิษณุโลก (ฝั่ง ก.พ.)","district_t":"ดุสิต","year":"2564","owner":"ดุสิต","name":"บ่อสูบน้ำถนนพิษณุโลก (ฝั่ง ก.พ.)","district":"ดุสิต"}},{"type":"Feature","id":197,"geometry":{"type":"Point","coordinates":[100.541451,13.764787]},"properties":{"sump_name":"บ่อสูบน้ำกองพลทหารม้าที่ 2 รักษาพระองค์","district_t":"พญาไท","year":"2564","owner":"พญาไท","name":"บ่อสูบน้ำกองพลทหารม้าที่ 2 รักษาพระองค์","district":"พญาไท"}},{"type":"Feature","id":198,"geometry":{"type":"Point","coordinates":[100.475175,13.765518]},"properties":{"sump_name":"บ่อสูบน้ำสะพานบางกอกน้อย ถนนจรัญสนิทงวศ์","district_t":"บางกอกน้อย","year":"2564","owner":"บางกอกน้อย","name":"บ่อสูบน้ำสะพานบางกอกน้อย ถนนจรัญสนิทงวศ์","district":"บางกอกน้อย"}},{"type":"Feature","id":199,"geometry":{"type":"Point","coordinates":[100.539556,13.765331]},"properties":{"sump_name":"บ่อสูบน้ำอนุสาวรีย์ชัยสมรภูมิ","district_t":"ราชเทวี","year":"2564","owner":"ราชเทวี","name":"บ่อสูบน้ำอนุสาวรีย์ชัยสมรภูมิ","district":"ราชเทวี"}},{"type":"Feature","id":200,"geometry":{"type":"Point","coordinates":[100.506909,13.766094]},"properties":{"sump_name":"บ่อสูบน้ำถนนราชสีมา ตอนลงคลองผดุงกรุงเกษม","district_t":"พระนคร","year":"2564","owner":"พระนคร","name":"บ่อสูบน้ำถนนราชสีมา ตอนลงคลองผดุงกรุงเกษม","district":"พระนคร"}},{"type":"Feature","id":201,"geometry":{"type":"Point","coordinates":[100.49693,13.766161]},"properties":{"sump_name":"บ่อสูบน้ำซอยสามเสน 3 (สามพระยา)","district_t":"พระนคร","year":"2564","owner":"พระนคร","name":"บ่อสูบน้ำซอยสามเสน 3 (สามพระยา)","district":"พระนคร"}},{"type":"Feature","id":202,"geometry":{"type":"Point","coordinates":[100.51515,13.766143]},"properties":{"sump_name":"บ่อสูบน้ำถนนศรีอยุธยา ฝั่งวัดเบญจฯ","district_t":"ดุสิต","year":"2564","owner":"ดุสิต","name":"บ่อสูบน้ำถนนศรีอยุธยา ฝั่งวัดเบญจฯ","district":"ดุสิต"}},{"type":"Feature","id":203,"geometry":{"type":"Point","coordinates":[100.52474,13.766173]},"properties":{"sump_name":"บ่อสูบน้ำหลังโรงพยาบาลรามาฯ","district_t":"ราชเทวี","year":"2564","owner":"ราชเทวี","name":"บ่อสูบน้ำหลังโรงพยาบาลรามาฯ","district":"ราชเทวี"}},{"type":"Feature","id":204,"geometry":{"type":"Point","coordinates":[100.538126,13.766271]},"properties":{"sump_name":"บ่อสูบน้ำปฐมวัย","district_t":"ราชเทวี","year":"2564","owner":"ราชเทวี","name":"บ่อสูบน้ำปฐมวัย","district":"ราชเทวี"}},{"type":"Feature","id":205,"geometry":{"type":"Point","coordinates":[100.539471,13.76634]},"properties":{"sump_name":"บ่อสูบน้ำถนนพหลโยธิน ฝั่งขาเข้า ตอนคลองสามเสน ใต้ทางด่วน","district_t":"พญาไท","year":"2564","owner":"พญาไท","name":"บ่อสูบน้ำถนนพหลโยธิน ฝั่งขาเข้า ตอนคลองสามเสน ใต้ทางด่วน","district":"พญาไท"}},{"type":"Feature","id":206,"geometry":{"type":"Point","coordinates":[100.51475,13.76665]},"properties":{"sump_name":"บ่อสูบน้ำถนนศรีอยุธยา ฝั่งสนามเสือป่า","district_t":"ดุสิต","year":"2564","owner":"ดุสิต","name":"บ่อสูบน้ำถนนศรีอยุธยา ฝั่งสนามเสือป่า","district":"ดุสิต"}},{"type":"Feature","id":207,"geometry":{"type":"Point","coordinates":[100.580112,13.766668]},"properties":{"sump_name":"บ่อสูบน้ำคลองชวดบางจาก","district_t":"ห้วยขวาง","year":"2564","owner":"ห้วยขวาง","name":"บ่อสูบน้ำคลองชวดบางจาก","district":"ห้วยขวาง"}},{"type":"Feature","id":208,"geometry":{"type":"Point","coordinates":[100.497774,13.767432]},"properties":{"sump_name":"บ่อสูบน้ำพายัพ (ซอย สามเสน ?3)","district_t":"พระนคร","year":"2564","owner":"พระนคร","name":"บ่อสูบน้ำพายัพ (ซอย สามเสน ?3)","district":"พระนคร"}},{"type":"Feature","id":209,"geometry":{"type":"Point","coordinates":[100.514949,13.768832]},"properties":{"sump_name":"บ่อสูบน้ำสำนักพระราชวังสนามเสือป่า ตอนลงคลองเปรมประชากร","district_t":"ดุสิต","year":"2564","owner":"ดุสิต","name":"บ่อสูบน้ำสำนักพระราชวังสนามเสือป่า ตอนลงคลองเปรมประชากร","district":"ดุสิต"}},{"type":"Feature","id":210,"geometry":{"type":"Point","coordinates":[100.534642,13.769102]},"properties":{"sump_name":"บ่อสูบน้ำโรงพยาบาลพระมงกุฎ","district_t":"ราชเทวี","year":"2564","owner":"ราชเทวี","name":"บ่อสูบน้ำโรงพยาบาลพระมงกุฎ","district":"ราชเทวี"}},{"type":"Feature","id":211,"geometry":{"type":"Point","coordinates":[100.526059,13.769293]},"properties":{"sump_name":"บ่อสูบน้ำสวรรคโลก ตอนคูน้ำข้างวังสวนจิตรลดา","district_t":"ราชเทวี","year":"2564","owner":"ราชเทวี","name":"บ่อสูบน้ำสวรรคโลก ตอนคูน้ำข้างวังสวนจิตรลดา","district":"ราชเทวี"}},{"type":"Feature","id":212,"geometry":{"type":"Point","coordinates":[100.52621,13.770067]},"properties":{"sump_name":"บ่อสูบน้ำคูน้ำข้างทางรถไฟ (แยกสวรรคโลก-ราชวิถี)","district_t":"ราชเทวี","year":"2564","owner":"ราชเทวี","name":"บ่อสูบน้ำคูน้ำข้างทางรถไฟ (แยกสวรรคโลก-ราชวิถี)","district":"ราชเทวี"}},{"type":"Feature","id":213,"geometry":{"type":"Point","coordinates":[100.513261,13.770275]},"properties":{"sump_name":"บ่อสูบน้ำพระที่นั่งอนันตสมาคม ถนนอู่ทองใน","district_t":"ดุสิต","year":"2564","owner":"ดุสิต","name":"บ่อสูบน้ำพระที่นั่งอนันตสมาคม ถนนอู่ทองใน","district":"ดุสิต"}},{"type":"Feature","id":214,"geometry":{"type":"Point","coordinates":[100.530223,13.772466]},"properties":{"sump_name":"บ่อสูบน้ำถนนพระรามที่ 6 ฝั่งขาเข้า","district_t":"ราชเทวี","year":"2564","owner":"ราชเทวี","name":"บ่อสูบน้ำถนนพระรามที่ 6 ฝั่งขาเข้า","district":"ราชเทวี"}},{"type":"Feature","id":215,"geometry":{"type":"Point","coordinates":[100.529979,13.772475]},"properties":{"sump_name":"บ่อสูบน้ำถนนพระรามที่ 6 ฝั่งขาออก","district_t":"ราชเทวี","year":"2564","owner":"ราชเทวี","name":"บ่อสูบน้ำถนนพระรามที่ 6 ฝั่งขาออก","district":"ราชเทวี"}},{"type":"Feature","id":216,"geometry":{"type":"Point","coordinates":[100.530548,13.773076]},"properties":{"sump_name":"บ่อสูบน้ำถนนพระรามที่ 6 ตอนโรงกรองน้ำประปาสามเสน","district_t":"พญาไท","year":"2564","owner":"พญาไท","name":"บ่อสูบน้ำถนนพระรามที่ 6 ตอนโรงกรองน้ำประปาสามเสน","district":"พญาไท"}},{"type":"Feature","id":217,"geometry":{"type":"Point","coordinates":[100.573427,13.773674]},"properties":{"sump_name":"บ่อสูบน้ำถนนรัชดาภิเษก คลองห้วยขวาง ฝั่งใต้","district_t":"ดินแดง","year":"2564","owner":"ดินแดง","name":"บ่อสูบน้ำถนนรัชดาภิเษก คลองห้วยขวาง ฝั่งใต้","district":"ดินแดง"}},{"type":"Feature","id":218,"geometry":{"type":"Point","coordinates":[100.552927,13.773885]},"properties":{"sump_name":"บ่อสูบน้ำพัน 1 รอ. (ด้านถนนวิภาวดี)","district_t":"พญาไท","year":"2564","owner":"พญาไท","name":"บ่อสูบน้ำพัน 1 รอ. (ด้านถนนวิภาวดี)","district":"พญาไท"}},{"type":"Feature","id":219,"geometry":{"type":"Point","coordinates":[100.573465,13.774095]},"properties":{"sump_name":"บ่อสูบน้ำถนนรัชดาภิเษก คลองห้อยขวาง ฝั่งเหนือ","district_t":"ดินแดง","year":"2564","owner":"ดินแดง","name":"บ่อสูบน้ำถนนรัชดาภิเษก คลองห้อยขวาง ฝั่งเหนือ","district":"ดินแดง"}},{"type":"Feature","id":220,"geometry":{"type":"Point","coordinates":[100.628059,13.775536]},"properties":{"sump_name":"บ่อสูบน้ำถนนลาดพร้าวริมคลองจั่นขาเข้า","district_t":"วังทองหลาง","year":"2564","owner":"วังทองหลาง","name":"บ่อสูบน้ำถนนลาดพร้าวริมคลองจั่นขาเข้า","district":"วังทองหลาง"}},{"type":"Feature","id":221,"geometry":{"type":"Point","coordinates":[100.469131,13.778894]},"properties":{"sump_name":"บ่อสูบน้ำบริเวณชุมชนข้าง รพ. เจ้าพระยา 1","district_t":"บางกอกน้อย","year":"2564","owner":"บางกอกน้อย","name":"บ่อสูบน้ำบริเวณชุมชนข้าง รพ. เจ้าพระยา 1","district":"บางกอกน้อย"}},{"type":"Feature","id":222,"geometry":{"type":"Point","coordinates":[100.627998,13.7758]},"properties":{"sump_name":"บ่อสูบน้ำถนนลาดพร้าวริมคลองจั่นขาออก","district_t":"วังทองหลาง","year":"2564","owner":"วังทองหลาง","name":"บ่อสูบน้ำถนนลาดพร้าวริมคลองจั่นขาออก","district":"วังทองหลาง"}},{"type":"Feature","id":223,"geometry":{"type":"Point","coordinates":[100.470021,13.77774]},"properties":{"sump_name":"บ่อสูบน้ำบริเวณปากคลองพิกุล 2","district_t":"บางกอกน้อย","year":"2564","owner":"บางกอกน้อย","name":"บ่อสูบน้ำบริเวณปากคลองพิกุล 2","district":"บางกอกน้อย"}},{"type":"Feature","id":224,"geometry":{"type":"Point","coordinates":[100.469807,13.778037]},"properties":{"sump_name":"บ่อสูบน้ำปากคลองพิกุล 1","district_t":"บางกอกน้อย","year":"2564","owner":"บางกอกน้อย","name":"บ่อสูบน้ำปากคลองพิกุล 1","district":"บางกอกน้อย"}},{"type":"Feature","id":225,"geometry":{"type":"Point","coordinates":[100.469602,13.778424]},"properties":{"sump_name":"บ่อสูบน้ำบริเวณชุมชนข้าง รพ. เจ้าพระยา 2","district_t":"บางกอกน้อย","year":"2564","owner":"บางกอกน้อย","name":"บ่อสูบน้ำบริเวณชุมชนข้าง รพ. เจ้าพระยา 2","district":"บางกอกน้อย"}},{"type":"Feature","id":226,"geometry":{"type":"Point","coordinates":[100.468716,13.778577]},"properties":{"sump_name":"บ่อสูบน้ำคลองแกลบ","district_t":"บางกอกน้อย","year":"2564","owner":"บางกอกน้อย","name":"บ่อสูบน้ำคลองแกลบ","district":"บางกอกน้อย"}},{"type":"Feature","id":227,"geometry":{"type":"Point","coordinates":[100.467452,13.779427]},"properties":{"sump_name":"บ่อสูบน้ำบริเวณปากคลองชักพระ 1","district_t":"บางกอกน้อย","year":"2564","owner":"บางกอกน้อย","name":"บ่อสูบน้ำบริเวณปากคลองชักพระ 1","district":"บางกอกน้อย"}},{"type":"Feature","id":228,"geometry":{"type":"Point","coordinates":[100.467174,13.779658]},"properties":{"sump_name":"บ่อสูบน้ำบริเวณปากคลองชักพระ 2","district_t":"ตลิ่งชัน","year":"2564","owner":"ตลิ่งชัน","name":"บ่อสูบน้ำบริเวณปากคลองชักพระ 2","district":"ตลิ่งชัน"}},{"type":"Feature","id":229,"geometry":{"type":"Point","coordinates":[100.467933,13.779661]},"properties":{"sump_name":"บ่อสูบน้ำบริเวณคลองวัดสุวรรณคีรี 1","district_t":"บางกอกน้อย","year":"2564","owner":"บางกอกน้อย","name":"บ่อสูบน้ำบริเวณคลองวัดสุวรรณคีรี 1","district":"บางกอกน้อย"}},{"type":"Feature","id":230,"geometry":{"type":"Point","coordinates":[100.44478,13.780222]},"properties":{"sump_name":"บ่อสูบน้ำขุนจันทร์ ตอนถนนบรมราชชนนี","district_t":"ตลิ่งชัน","year":"2564","owner":"ตลิ่งชัน","name":"บ่อสูบน้ำขุนจันทร์ ตอนถนนบรมราชชนนี","district":"ตลิ่งชัน"}},{"type":"Feature","id":231,"geometry":{"type":"Point","coordinates":[100.504188,13.780061]},"properties":{"sump_name":"บ่อสูบน้ำถนนราชวิถี ช่วงใต้สะพานซังฮี้ (เขตดุสิต)","district_t":"ดุสิต","year":"2564","owner":"ดุสิต","name":"บ่อสูบน้ำถนนราชวิถี ช่วงใต้สะพานซังฮี้ (เขตดุสิต)","district":"ดุสิต"}},{"type":"Feature","id":232,"geometry":{"type":"Point","coordinates":[100.467064,13.780815]},"properties":{"sump_name":"บ่อสูบน้ำบริเวณคลองวัดสุวรรณคีรี 2","district_t":"บางกอกน้อย","year":"2564","owner":"บางกอกน้อย","name":"บ่อสูบน้ำบริเวณคลองวัดสุวรรณคีรี 2","district":"บางกอกน้อย"}},{"type":"Feature","id":233,"geometry":{"type":"Point","coordinates":[100.431256,13.781105]},"properties":{"sump_name":"บ่อสูบน้ำฉิมพลี ตอนซอยฉิมพลี 30","district_t":"ตลิ่งชัน","year":"2564","owner":"ตลิ่งชัน","name":"บ่อสูบน้ำฉิมพลี ตอนซอยฉิมพลี 30","district":"ตลิ่งชัน"}},{"type":"Feature","id":234,"geometry":{"type":"Point","coordinates":[100.567284,13.780346]},"properties":{"sump_name":"บ่อสูบน้ำถนนประชาสุข ตอนลงคลองนาซอง","district_t":"ดินแดง","year":"2564","owner":"ดินแดง","name":"บ่อสูบน้ำถนนประชาสุข ตอนลงคลองนาซอง","district":"ดินแดง"}},{"type":"Feature","id":235,"geometry":{"type":"Point","coordinates":[100.426155,13.781627]},"properties":{"sump_name":"บ่อสูบน้ำพุทธมณฑลสาย 1 ตอนถนนบรมราชชนนี","district_t":"ตลิ่งชัน","year":"2564","owner":"ตลิ่งชัน","name":"บ่อสูบน้ำพุทธมณฑลสาย 1 ตอนถนนบรมราชชนนี","district":"ตลิ่งชัน"}},{"type":"Feature","id":236,"geometry":{"type":"Point","coordinates":[100.466945,13.781388]},"properties":{"sump_name":"บ่อสูบน้ำบริเวณคลองวัดสุวรรณคีรี 3","district_t":"บางกอกน้อย","year":"2564","owner":"บางกอกน้อย","name":"บ่อสูบน้ำบริเวณคลองวัดสุวรรณคีรี 3","district":"บางกอกน้อย"}},{"type":"Feature","id":237,"geometry":{"type":"Point","coordinates":[100.466268,13.781421]},"properties":{"sump_name":"บ่อสูบน้ำคลองเจ้าแม่ทับทิม","district_t":"ตลิ่งชัน","year":"2564","owner":"ตลิ่งชัน","name":"บ่อสูบน้ำคลองเจ้าแม่ทับทิม","district":"ตลิ่งชัน"}},{"type":"Feature","id":238,"geometry":{"type":"Point","coordinates":[100.500857,13.78161]},"properties":{"sump_name":"บ่อสูบน้ำใต้สะพานกรุงธน (ฝั่งขาออก)","district_t":"บางพลัด","year":"2564","owner":"บางพลัด","name":"บ่อสูบน้ำใต้สะพานกรุงธน (ฝั่งขาออก)","district":"บางพลัด"}},{"type":"Feature","id":239,"geometry":{"type":"Point","coordinates":[100.466843,13.78185]},"properties":{"sump_name":"บ่อสูบน้ำบริเวณคลองวัดสุวรรณคีรี 4","district_t":"บางกอกน้อย","year":"2564","owner":"บางกอกน้อย","name":"บ่อสูบน้ำบริเวณคลองวัดสุวรรณคีรี 4","district":"บางกอกน้อย"}},{"type":"Feature","id":240,"geometry":{"type":"Point","coordinates":[100.500883,13.781932]},"properties":{"sump_name":"บ่อสูบน้ำใตัสะพานกรุงธน (ฝั่งขาเข้า)","district_t":"บางพลัด","year":"2564","owner":"บางพลัด","name":"บ่อสูบน้ำใตัสะพานกรุงธน (ฝั่งขาเข้า)","district":"บางพลัด"}},{"type":"Feature","id":241,"geometry":{"type":"Point","coordinates":[100.46673,13.782418]},"properties":{"sump_name":"บ่อสูบน้ำบริเวณเพรสซิเดนท์ คอนโด 1","district_t":"บางกอกน้อย","year":"2564","owner":"บางกอกน้อย","name":"บ่อสูบน้ำบริเวณเพรสซิเดนท์ คอนโด 1","district":"บางกอกน้อย"}},{"type":"Feature","id":242,"geometry":{"type":"Point","coordinates":[100.591285,13.781664]},"properties":{"sump_name":"บ่อสูบน้ำซอยประชาราษร์บำเพ็ญ 26","district_t":"ห้วยขวาง","year":"2564","owner":"ห้วยขวาง","name":"บ่อสูบน้ำซอยประชาราษร์บำเพ็ญ 26","district":"ห้วยขวาง"}},{"type":"Feature","id":243,"geometry":{"type":"Point","coordinates":[100.466285,13.782533]},"properties":{"sump_name":"บ่อสูบน้ำอู่เรือยายเป้า","district_t":"ตลิ่งชัน","year":"2564","owner":"ตลิ่งชัน","name":"บ่อสูบน้ำอู่เรือยายเป้า","district":"ตลิ่งชัน"}},{"type":"Feature","id":244,"geometry":{"type":"Point","coordinates":[100.592248,13.781834]},"properties":{"sump_name":"บ่อสูบน้ำลาดพร้าว 80","district_t":"วังทองหลาง","year":"2564","owner":"วังทองหลาง","name":"บ่อสูบน้ำลาดพร้าว 80","district":"วังทองหลาง"}},{"type":"Feature","id":245,"geometry":{"type":"Point","coordinates":[100.505505,13.782392]},"properties":{"sump_name":"บ่อสูบน้ำสังคโลก","district_t":"ดุสิต","year":"2564","owner":"ดุสิต","name":"บ่อสูบน้ำสังคโลก","district":"ดุสิต"}},{"type":"Feature","id":246,"geometry":{"type":"Point","coordinates":[100.444221,13.782857]},"properties":{"sump_name":"บ่อสูบฉิมพลี ตอนคลองขุนจันทร์","district_t":"ตลิ่งชัน","year":"2564","owner":"ตลิ่งชัน","name":"บ่อสูบฉิมพลี ตอนคลองขุนจันทร์","district":"ตลิ่งชัน"}},{"type":"Feature","id":247,"geometry":{"type":"Point","coordinates":[100.466644,13.782922]},"properties":{"sump_name":"บ่อสูบน้ำบริเวณเพรสซิเดนท์ คอนโด 2","district_t":"บางกอกน้อย","year":"2564","owner":"บางกอกน้อย","name":"บ่อสูบน้ำบริเวณเพรสซิเดนท์ คอนโด 2","district":"บางกอกน้อย"}},{"type":"Feature","id":248,"geometry":{"type":"Point","coordinates":[100.4666,13.783435]},"properties":{"sump_name":"บ่อสูบน้ำบริเวณเพรสซิเดนท์ คอนโด 3","district_t":"บางกอกน้อย","year":"2564","owner":"บางกอกน้อย","name":"บ่อสูบน้ำบริเวณเพรสซิเดนท์ คอนโด 3","district":"บางกอกน้อย"}},{"type":"Feature","id":249,"geometry":{"type":"Point","coordinates":[100.466575,13.784161]},"properties":{"sump_name":"บ่อสูบน้ำบริเวณเพรสซิเดนท์ คอนโด 4","district_t":"บางกอกน้อย","year":"2564","owner":"บางกอกน้อย","name":"บ่อสูบน้ำบริเวณเพรสซิเดนท์ คอนโด 4","district":"บางกอกน้อย"}},{"type":"Feature","id":250,"geometry":{"type":"Point","coordinates":[100.61363,13.783553]},"properties":{"sump_name":"บ่อสูบน้ำถนนลาดพร้าวริมคลองเจ้าคุณสิงห์หน้าร้านยาง","district_t":"วังทองหลาง","year":"2564","owner":"วังทองหลาง","name":"บ่อสูบน้ำถนนลาดพร้าวริมคลองเจ้าคุณสิงห์หน้าร้านยาง","district":"วังทองหลาง"}},{"type":"Feature","id":251,"geometry":{"type":"Point","coordinates":[100.613545,13.783879]},"properties":{"sump_name":"บ่อสูบน้ำถนนลาดพร้าวริมคลองเจ้าคุณสิงห์ขาออกร้านสุกี้","district_t":"วังทองหลาง","year":"2564","owner":"วังทองหลาง","name":"บ่อสูบน้ำถนนลาดพร้าวริมคลองเจ้าคุณสิงห์ขาออกร้านสุกี้","district":"วังทองหลาง"}},{"type":"Feature","id":252,"geometry":{"type":"Point","coordinates":[100.613242,13.784075]},"properties":{"sump_name":"บ่อสูบน้ำถนนลาดพร้าวริมคลองเจ้าคุณสิงห์ขาออกบิ๊กซี","district_t":"วังทองหลาง","year":"2564","owner":"วังทองหลาง","name":"บ่อสูบน้ำถนนลาดพร้าวริมคลองเจ้าคุณสิงห์ขาออกบิ๊กซี","district":"วังทองหลาง"}},{"type":"Feature","id":253,"geometry":{"type":"Point","coordinates":[100.466504,13.785106]},"properties":{"sump_name":"บ่อสูบน้ำสวนมะม่วง 1","district_t":"บางกอกน้อย","year":"2564","owner":"บางกอกน้อย","name":"บ่อสูบน้ำสวนมะม่วง 1","district":"บางกอกน้อย"}},{"type":"Feature","id":254,"geometry":{"type":"Point","coordinates":[100.591751,13.785573]},"properties":{"sump_name":"บ่อสูบน้ำลาดพร้าว 64","district_t":"วังทองหลาง","year":"2564","owner":"วังทองหลาง","name":"บ่อสูบน้ำลาดพร้าว 64","district":"วังทองหลาง"}},{"type":"Feature","id":255,"geometry":{"type":"Point","coordinates":[100.60896,13.785758]},"properties":{"sump_name":"บ่อสูบน้ำถนนลาดพร้าว เซ็นจูรี่อพาร์ทเม้นท์ฝั่งขาเข้า","district_t":"วังทองหลาง","year":"2564","owner":"วังทองหลาง","name":"บ่อสูบน้ำถนนลาดพร้าว เซ็นจูรี่อพาร์ทเม้นท์ฝั่งขาเข้า","district":"วังทองหลาง"}},{"type":"Feature","id":256,"geometry":{"type":"Point","coordinates":[100.466424,13.786917]},"properties":{"sump_name":"บ่อสูบน้ำสายใต้ (ตรงข้ามวัดไก่เตี้ย)","district_t":"บางกอกน้อย","year":"2564","owner":"บางกอกน้อย","name":"บ่อสูบน้ำสายใต้ (ตรงข้ามวัดไก่เตี้ย)","district":"บางกอกน้อย"}},{"type":"Feature","id":257,"geometry":{"type":"Point","coordinates":[100.609376,13.786286]},"properties":{"sump_name":"บ่อสูบน้ำประดิษฐ์มนูธรรมท่อไอเสีย","district_t":"วังทองหลาง","year":"2564","owner":"วังทองหลาง","name":"บ่อสูบน้ำประดิษฐ์มนูธรรมท่อไอเสีย","district":"วังทองหลาง"}},{"type":"Feature","id":258,"geometry":{"type":"Point","coordinates":[100.466258,13.787504]},"properties":{"sump_name":"บ่อสูบชุมชนวัดชัยพฤกษ์มาลา","district_t":"บางพลัด","year":"2564","owner":"บางพลัด","name":"บ่อสูบชุมชนวัดชัยพฤกษ์มาลา","district":"บางพลัด"}},{"type":"Feature","id":259,"geometry":{"type":"Point","coordinates":[100.422729,13.787994]},"properties":{"sump_name":"บ่อสูบน้ำพุทธมณฑลสาย 1 ซอย 43","district_t":"ตลิ่งชัน","year":"2564","owner":"ตลิ่งชัน","name":"บ่อสูบน้ำพุทธมณฑลสาย 1 ซอย 43","district":"ตลิ่งชัน"}},{"type":"Feature","id":260,"geometry":{"type":"Point","coordinates":[100.60757,13.786859]},"properties":{"sump_name":"บ่อสูบน้ำถนนลาดพร้าวตอนคลองวัดตึก","district_t":"วังทองหลาง","year":"2564","owner":"วังทองหลาง","name":"บ่อสูบน้ำถนนลาดพร้าวตอนคลองวัดตึก","district":"วังทองหลาง"}},{"type":"Feature","id":261,"geometry":{"type":"Point","coordinates":[100.465065,13.78823]},"properties":{"sump_name":"บ่อสูบน้ำถนนเลียบทางรถไฟสายใต้ ตอนคลองบางกอกน้อย","district_t":"ตลิ่งชัน","year":"2564","owner":"ตลิ่งชัน","name":"บ่อสูบน้ำถนนเลียบทางรถไฟสายใต้ ตอนคลองบางกอกน้อย","district":"ตลิ่งชัน"}},{"type":"Feature","id":262,"geometry":{"type":"Point","coordinates":[100.466418,13.788363]},"properties":{"sump_name":"บ่อสูบน้ำเลียบทางรถไฟถนนชัยพฤกษ์","district_t":"บางพลัด","year":"2564","owner":"บางพลัด","name":"บ่อสูบน้ำเลียบทางรถไฟถนนชัยพฤกษ์","district":"บางพลัด"}},{"type":"Feature","id":263,"geometry":{"type":"Point","coordinates":[100.534792,13.792204]},"properties":{"sump_name":"บ่อสูบน้ำคูน้ำทหารถนนเทอดดำริ","district_t":"ดุสิต","year":"2564","owner":"ดุสิต","name":"บ่อสูบน้ำคูน้ำทหารถนนเทอดดำริ","district":"ดุสิต"}},{"type":"Feature","id":264,"geometry":{"type":"Point","coordinates":[100.513948,13.792926]},"properties":{"sump_name":"บ่อสูบน้ำคลองบางกระบือ","district_t":"ดุสิต","year":"2564","owner":"ดุสิต","name":"บ่อสูบน้ำคลองบางกระบือ","district":"ดุสิต"}},{"type":"Feature","id":265,"geometry":{"type":"Point","coordinates":[100.655167,13.794083]},"properties":{"sump_name":"บ่อสูบน้ำนวมินทร์ 36 ข้างธนาคารกสิกรไทย","district_t":"บึงกุ่ม","year":"2564","owner":"บึงกุ่ม","name":"บ่อสูบน้ำนวมินทร์ 36 ข้างธนาคารกสิกรไทย","district":"บึงกุ่ม"}},{"type":"Feature","id":266,"geometry":{"type":"Point","coordinates":[100.557515,13.794785]},"properties":{"sump_name":"บ่อสูบน้ำซอยอินทามระ 21","district_t":"พญาไท","year":"2564","owner":"พญาไท","name":"บ่อสูบน้ำซอยอินทามระ 21","district":"พญาไท"}},{"type":"Feature","id":282,"geometry":{"type":"Point","coordinates":[100.574871,13.809214]},"properties":{"sump_name":"บ่อสูบน้ำถนนรัชดาภิเษก ข้างศาลอาญา","district_t":"จตุจักร","year":"2564","owner":"จตุจักร","name":"บ่อสูบน้ำถนนรัชดาภิเษก ข้างศาลอาญา","district":"จตุจักร"}},{"type":"Feature","id":267,"geometry":{"type":"Point","coordinates":[100.554644,13.795532]},"properties":{"sump_name":"บ่อสูบน้ำซอยอินทามระ 15","district_t":"พญาไท","year":"2564","owner":"พญาไท","name":"บ่อสูบน้ำซอยอินทามระ 15","district":"พญาไท"}},{"type":"Feature","id":268,"geometry":{"type":"Point","coordinates":[100.552945,13.795555]},"properties":{"sump_name":"บ่อสูบน้ำซอยอินทามระ 3","district_t":"พญาไท","year":"2564","owner":"พญาไท","name":"บ่อสูบน้ำซอยอินทามระ 3","district":"พญาไท"}},{"type":"Feature","id":269,"geometry":{"type":"Point","coordinates":[100.550765,13.795763]},"properties":{"sump_name":"บ่อสูบน้ำถนนพหลโยธิน ฝั่งขาเข้า ตอนคลองงบางซื่อ ร.ส.พ.","district_t":"พญาไท","year":"2564","owner":"พญาไท","name":"บ่อสูบน้ำถนนพหลโยธิน ฝั่งขาเข้า ตอนคลองงบางซื่อ ร.ส.พ.","district":"พญาไท"}},{"type":"Feature","id":270,"geometry":{"type":"Point","coordinates":[100.574483,13.795732]},"properties":{"sump_name":"บ่อสูบน้ำถนนรัชดา ช่วงคลองบางซื่อ","district_t":"ดินแดง","year":"2564","owner":"ดินแดง","name":"บ่อสูบน้ำถนนรัชดา ช่วงคลองบางซื่อ","district":"ดินแดง"}},{"type":"Feature","id":271,"geometry":{"type":"Point","coordinates":[100.550296,13.795903]},"properties":{"sump_name":"บ่อสูบน้ำถนนพหลโยธิน ฝั่งขาออก ตอนคลองบางซื่อ วัดไผ่ตัน","district_t":"พญาไท","year":"2564","owner":"พญาไท","name":"บ่อสูบน้ำถนนพหลโยธิน ฝั่งขาออก ตอนคลองบางซื่อ วัดไผ่ตัน","district":"พญาไท"}},{"type":"Feature","id":272,"geometry":{"type":"Point","coordinates":[100.550757,13.796228]},"properties":{"sump_name":"บ่อสูบน้ำพหลโยธิน ตอนคลองบางซื่อ (โรงไม้)","district_t":"จตุจักร","year":"2564","owner":"จตุจักร","name":"บ่อสูบน้ำพหลโยธิน ตอนคลองบางซื่อ (โรงไม้)","district":"จตุจักร"}},{"type":"Feature","id":273,"geometry":{"type":"Point","coordinates":[100.550408,13.796336]},"properties":{"sump_name":"บ่อสูบน้ำพหลโยธินตอนลงคลองบางซื่อ(อตก.)","district_t":"จตุจักร","year":"2564","owner":"จตุจักร","name":"บ่อสูบน้ำพหลโยธินตอนลงคลองบางซื่อ(อตก.)","district":"จตุจักร"}},{"type":"Feature","id":274,"geometry":{"type":"Point","coordinates":[100.543201,13.796615]},"properties":{"sump_name":"บ่อสูบน้ำซอยอุทัยรัตน์","district_t":"พญาไท","year":"2564","owner":"พญาไท","name":"บ่อสูบน้ำซอยอุทัยรัตน์","district":"พญาไท"}},{"type":"Feature","id":275,"geometry":{"type":"Point","coordinates":[100.537316,13.796904]},"properties":{"sump_name":"บ่อสูบน้ำสะพานดำ","district_t":"พญาไท","year":"2564","owner":"พญาไท","name":"บ่อสูบน้ำสะพานดำ","district":"พญาไท"}},{"type":"Feature","id":276,"geometry":{"type":"Point","coordinates":[100.650766,13.801862]},"properties":{"sump_name":"บ่อสูบน้ำข้างวัดบางเตย","district_t":"บึงกุ่ม","year":"2564","owner":"บึงกุ่ม","name":"บ่อสูบน้ำข้างวัดบางเตย","district":"บึงกุ่ม"}},{"type":"Feature","id":277,"geometry":{"type":"Point","coordinates":[100.528407,13.805]},"properties":{"sump_name":"บ่อสูบน้ำซอยสะพานขวา","district_t":"บางซื่อ","year":"2564","owner":"บางซื่อ","name":"บ่อสูบน้ำซอยสะพานขวา","district":"บางซื่อ"}},{"type":"Feature","id":278,"geometry":{"type":"Point","coordinates":[100.648757,13.806547]},"properties":{"sump_name":"บ่อสูบน้ำคลองบางเตย (ถนนนวมินทร์)","district_t":"บึงกุ่ม","year":"2564","owner":"บึงกุ่ม","name":"บ่อสูบน้ำคลองบางเตย (ถนนนวมินทร์)","district":"บึงกุ่ม"}},{"type":"Feature","id":279,"geometry":{"type":"Point","coordinates":[100.648955,13.806901]},"properties":{"sump_name":"บ่อสูบน้ำถนนนวมิทร์(ขาเข้า) หน้าธนาคารอิสลาม","district_t":"บึงกุ่ม","year":"2564","owner":"บึงกุ่ม","name":"บ่อสูบน้ำถนนนวมิทร์(ขาเข้า) หน้าธนาคารอิสลาม","district":"บึงกุ่ม"}},{"type":"Feature","id":280,"geometry":{"type":"Point","coordinates":[100.648981,13.807519]},"properties":{"sump_name":"บ่อสูบน้ำถนนนวมินทร์(ขาออก) หน้าศูนย์ฮอนด้า","district_t":"บึงกุ่ม","year":"2564","owner":"บึงกุ่ม","name":"บ่อสูบน้ำถนนนวมินทร์(ขาออก) หน้าศูนย์ฮอนด้า","district":"บึงกุ่ม"}},{"type":"Feature","id":281,"geometry":{"type":"Point","coordinates":[100.554904,13.80887]},"properties":{"sump_name":"บ่อสูบน้ำสวนสิริกิตติ์","district_t":"จตุจักร","year":"2564","owner":"จตุจักร","name":"บ่อสูบน้ำสวนสิริกิตติ์","district":"จตุจักร"}},{"type":"Feature","id":283,"geometry":{"type":"Point","coordinates":[100.558254,13.814879]},"properties":{"sump_name":"บ่อสูบน้ำสวนรถไฟ ตอนถนนกำแพงเพชร 3","district_t":"จตุจักร","year":"2564","owner":"จตุจักร","name":"บ่อสูบน้ำสวนรถไฟ ตอนถนนกำแพงเพชร 3","district":"จตุจักร"}},{"type":"Feature","id":284,"geometry":{"type":"Point","coordinates":[100.557939,13.816385]},"properties":{"sump_name":"บ่อสูบน้ำสวนรถไฟ ตอนซอยนิคมรถไฟ","district_t":"จตุจักร","year":"2564","owner":"จตุจักร","name":"บ่อสูบน้ำสวนรถไฟ ตอนซอยนิคมรถไฟ","district":"จตุจักร"}},{"type":"Feature","id":285,"geometry":{"type":"Point","coordinates":[100.744016,13.816638]},"properties":{"sump_name":"บ่อสูบน้ำลำรางถนนรามคำแหงตักสุวินทวงศ์","district_t":"มีนบุรี","year":"2564","owner":"มีนบุรี","name":"บ่อสูบน้ำลำรางถนนรามคำแหงตักสุวินทวงศ์","district":"มีนบุรี"}},{"type":"Feature","id":286,"geometry":{"type":"Point","coordinates":[100.589174,13.818552]},"properties":{"sump_name":"บ่อสูบน้ำอาภาภิรมย์","district_t":"จตุจักร","year":"2564","owner":"จตุจักร","name":"บ่อสูบน้ำอาภาภิรมย์","district":"จตุจักร"}},{"type":"Feature","id":287,"geometry":{"type":"Point","coordinates":[100.751701,13.817637]},"properties":{"sump_name":"บ่อสูบน้ำถนนราษฎร์อุทิศ(เขตมีนบุรี)","district_t":"มีนบุรี","year":"2564","owner":"มีนบุรี","name":"บ่อสูบน้ำถนนราษฎร์อุทิศ(เขตมีนบุรี)","district":"มีนบุรี"}},{"type":"Feature","id":288,"geometry":{"type":"Point","coordinates":[100.744119,13.817744]},"properties":{"sump_name":"บ่อสูบน้ำฮอนด้าสุวินทวงศ์","district_t":"มีนบุรี","year":"2564","owner":"มีนบุรี","name":"บ่อสูบน้ำฮอนด้าสุวินทวงศ์","district":"มีนบุรี"}},{"type":"Feature","id":289,"geometry":{"type":"Point","coordinates":[100.729524,13.818544]},"properties":{"sump_name":"บ่อสูบน้ำหน้าห้างโลตัส สุวินทวงศ์","district_t":"มีนบุรี","year":"2564","owner":"มีนบุรี","name":"บ่อสูบน้ำหน้าห้างโลตัส สุวินทวงศ์","district":"มีนบุรี"}},{"type":"Feature","id":290,"geometry":{"type":"Point","coordinates":[100.730042,13.819162]},"properties":{"sump_name":"บ่อสูบปั๊มแก้สสุวินทวงศ์","district_t":"มีนบุรี","year":"2564","owner":"มีนบุรี","name":"บ่อสูบปั๊มแก้สสุวินทวงศ์","district":"มีนบุรี"}},{"type":"Feature","id":291,"geometry":{"type":"Point","coordinates":[100.742456,13.820025]},"properties":{"sump_name":"บ่อสูบน้ำโค้งไปรษณีย์มีนบุรี","district_t":"มีนบุรี","year":"2564","owner":"มีนบุรี","name":"บ่อสูบน้ำโค้งไปรษณีย์มีนบุรี","district":"มีนบุรี"}},{"type":"Feature","id":292,"geometry":{"type":"Point","coordinates":[100.548795,13.824017]},"properties":{"sump_name":"บ่อสูบน้ำถนนกำแพงเพชร 6 (ตอนกม.11)","district_t":"จตุจักร","year":"2564","owner":"จตุจักร","name":"บ่อสูบน้ำถนนกำแพงเพชร 6 (ตอนกม.11)","district":"จตุจักร"}},{"type":"Feature","id":293,"geometry":{"type":"Point","coordinates":[100.589526,13.832218]},"properties":{"sump_name":"บ่อสูบน้ำเสนานิคม 1","district_t":"จตุจักร","year":"2564","owner":"จตุจักร","name":"บ่อสูบน้ำเสนานิคม 1","district":"จตุจักร"}},{"type":"Feature","id":294,"geometry":{"type":"Point","coordinates":[100.65986,13.832816]},"properties":{"sump_name":"บ่อสูบน้ำถนนนวมินทร์(ขาออก) หน้าสหฟาร์ม","district_t":"คันนายาว","year":"2564","owner":"คันนายาว","name":"บ่อสูบน้ำถนนนวมินทร์(ขาออก) หน้าสหฟาร์ม","district":"คันนายาว"}},{"type":"Feature","id":295,"geometry":{"type":"Point","coordinates":[100.550944,13.833618]},"properties":{"sump_name":"บ่อสูบน้ำเทศบาลนิมิตใต้ ตอนลงคลองเปรมประชากร","district_t":"จตุจักร","year":"2564","owner":"จตุจักร","name":"บ่อสูบน้ำเทศบาลนิมิตใต้ ตอนลงคลองเปรมประชากร","district":"จตุจักร"}},{"type":"Feature","id":296,"geometry":{"type":"Point","coordinates":[100.66019,13.832946]},"properties":{"sump_name":"บ่อสูบน้ำถนนนวมินทร์(ขาเข้า) ซอยนวมินทร์ 96","district_t":"คันนายาว","year":"2564","owner":"คันนายาว","name":"บ่อสูบน้ำถนนนวมินทร์(ขาเข้า) ซอยนวมินทร์ 96","district":"คันนายาว"}},{"type":"Feature","id":297,"geometry":{"type":"Point","coordinates":[100.542475,13.839231]},"properties":{"sump_name":"บ่อสูบน้ำถนนเทศบาลรังสรรใต้ สวนป่าประชานิเวศน์","district_t":"จตุจักร","year":"2564","owner":"จตุจักร","name":"บ่อสูบน้ำถนนเทศบาลรังสรรใต้ สวนป่าประชานิเวศน์","district":"จตุจักร"}},{"type":"Feature","id":298,"geometry":{"type":"Point","coordinates":[100.554104,13.839245]},"properties":{"sump_name":"บ่อสูบน้ำเทศบาลสงเคราะห์ ตอนลงคลองเปรมประชากร","district_t":"จตุจักร","year":"2564","owner":"จตุจักร","name":"บ่อสูบน้ำเทศบาลสงเคราะห์ ตอนลงคลองเปรมประชากร","district":"จตุจักร"}},{"type":"Feature","id":299,"geometry":{"type":"Point","coordinates":[100.590001,13.84116]},"properties":{"sump_name":"บ่อสูบน้ำถนนประเสริฐมนูกิจ ฝั่งใต้","district_t":"จตุจักร","year":"2564","owner":"จตุจักร","name":"บ่อสูบน้ำถนนประเสริฐมนูกิจ ฝั่งใต้","district":"จตุจักร"}},{"type":"Feature","id":300,"geometry":{"type":"Point","coordinates":[100.589725,13.84164]},"properties":{"sump_name":"บ่อสูบน้ำถนนประเสริฐมนูกิจ ฝั่งเหนือ","district_t":"จตุจักร","year":"2564","owner":"จตุจักร","name":"บ่อสูบน้ำถนนประเสริฐมนูกิจ ฝั่งเหนือ","district":"จตุจักร"}},{"type":"Feature","id":301,"geometry":{"type":"Point","coordinates":[100.559799,13.84465]},"properties":{"sump_name":"บ่อสูบน้ำถนนวิภาวดี ตอนลงคลองลาดยาว","district_t":"จตุจักร","year":"2564","owner":"จตุจักร","name":"บ่อสูบน้ำถนนวิภาวดี ตอนลงคลองลาดยาว","district":"จตุจักร"}},{"type":"Feature","id":302,"geometry":{"type":"Point","coordinates":[100.561806,13.847065]},"properties":{"sump_name":"บ่อสูบน้ำถนนวิภาวดี ตอนตัดถนนงามวงศ์วาน (ใบไม้ร่าเริง)","district_t":"จตุจักร","year":"2564","owner":"จตุจักร","name":"บ่อสูบน้ำถนนวิภาวดี ตอนตัดถนนงามวงศ์วาน (ใบไม้ร่าเริง)","district":"จตุจักร"}},{"type":"Feature","id":303,"geometry":{"type":"Point","coordinates":[100.562058,13.847639]},"properties":{"sump_name":"บ่อสูบน้ำถนนงามวงศ์วานตอนหน้าม.เกษตรฯ","district_t":"จตุจักร","year":"2564","owner":"จตุจักร","name":"บ่อสูบน้ำถนนงามวงศ์วานตอนหน้าม.เกษตรฯ","district":"จตุจักร"}},{"type":"Feature","id":304,"geometry":{"type":"Point","coordinates":[100.543755,13.848982]},"properties":{"sump_name":"บ่อสูบน้ำถนนเทศบาลรังสรรเหนือ ตอนลงคลองบางเขน(เพชรรัชต์)","district_t":"จตุจักร","year":"2564","owner":"จตุจักร","name":"บ่อสูบน้ำถนนเทศบาลรังสรรเหนือ ตอนลงคลองบางเขน(เพชรรัชต์)","district":"จตุจักร"}},{"type":"Feature","id":305,"geometry":{"type":"Point","coordinates":[100.552009,13.852933]},"properties":{"sump_name":"บ่อสูบน้ำถนนงามวงศ์วาน ลงคลองบางเขน (ปากซอยชินเขต 2)","district_t":"หลักสี่","year":"2564","owner":"หลักสี่","name":"บ่อสูบน้ำถนนงามวงศ์วาน ลงคลองบางเขน (ปากซอยชินเขต 2)","district":"หลักสี่"}},{"type":"Feature","id":306,"geometry":{"type":"Point","coordinates":[100.545535,13.855966]},"properties":{"sump_name":"บ่อสูบน้ำพงษ์เพชร (บ่อใหม่)","district_t":"หลักสี่","year":"2564","owner":"หลักสี่","name":"บ่อสูบน้ำพงษ์เพชร (บ่อใหม่)","district":"หลักสี่"}},{"type":"Feature","id":307,"geometry":{"type":"Point","coordinates":[100.586555,13.858011]},"properties":{"sump_name":"บ่อสูบน้ำถนนพหลโยธิน ตอนคลองบางบัว ฝั่งตะวันออก","district_t":"จตุจักร","year":"2564","owner":"จตุจักร","name":"บ่อสูบน้ำถนนพหลโยธิน ตอนคลองบางบัว ฝั่งตะวันออก","district":"จตุจักร"}},{"type":"Feature","id":308,"geometry":{"type":"Point","coordinates":[100.586415,13.858431]},"properties":{"sump_name":"บ่อสูบน้ำถนนพหลโยธิน ตอนคลองบางบัว ฝั่งตะวันตก","district_t":"จตุจักร","year":"2564","owner":"จตุจักร","name":"บ่อสูบน้ำถนนพหลโยธิน ตอนคลองบางบัว ฝั่งตะวันตก","district":"จตุจักร"}},{"type":"Feature","id":309,"geometry":{"type":"Point","coordinates":[100.560901,13.860426]},"properties":{"sump_name":"บ่อสูบน้ำน้ำซอยชินเขต 2 ตอนลงคลองลาดโตนด","district_t":"หลักสี่","year":"2564","owner":"หลักสี่","name":"บ่อสูบน้ำน้ำซอยชินเขต 2 ตอนลงคลองลาดโตนด","district":"หลักสี่"}},{"type":"Feature","id":310,"geometry":{"type":"Point","coordinates":[100.558644,13.875096]},"properties":{"sump_name":"บ่อสูบน้ำท่าทราย","district_t":"หลักสี่","year":"2564","owner":"หลักสี่","name":"บ่อสูบน้ำท่าทราย","district":"หลักสี่"}},{"type":"Feature","id":311,"geometry":{"type":"Point","coordinates":[100.576552,13.879603]},"properties":{"sump_name":"บ่อสูบน้ำแจ้งวัฒนะซอย 5","district_t":"หลักสี่","year":"2564","owner":"หลักสี่","name":"บ่อสูบน้ำแจ้งวัฒนะซอย 5","district":"หลักสี่"}},{"type":"Feature","id":316,"geometry":{"type":"Point","coordinates":[100.565013,13.911996]},"properties":{"sump_name":"บ่อสูบน้ำคลองบางพูด 2 ตอนลงคลองตาอูฐ","district_t":"ดอนเมือง","year":"2564","owner":"ดอนเมือง","name":"บ่อสูบน้ำคลองบางพูด 2 ตอนลงคลองตาอูฐ","district":"ดอนเมือง"}},{"type":"Feature","id":312,"geometry":{"type":"Point","coordinates":[100.562641,13.881665]},"properties":{"sump_name":"บ่อสูบน้ำแยกคลองบางตลาดตอนศูนย์ราชการแจ้งวัฒนะ","district_t":"หลักสี่","year":"2564","owner":"หลักสี่","name":"บ่อสูบน้ำแยกคลองบางตลาดตอนศูนย์ราชการแจ้งวัฒนะ","district":"หลักสี่"}},{"type":"Feature","id":313,"geometry":{"type":"Point","coordinates":[100.59725,13.886131]},"properties":{"sump_name":"บ่อสูบน้ำพหลโยธิน 63 คลองรางอ้อรางแก้ว","district_t":"บางเขน","year":"2564","owner":"บางเขน","name":"บ่อสูบน้ำพหลโยธิน 63 คลองรางอ้อรางแก้ว","district":"บางเขน"}},{"type":"Feature","id":314,"geometry":{"type":"Point","coordinates":[100.563867,13.892185]},"properties":{"sump_name":"บ่อสูบน้ำแจ้งวัฒนะ 14","district_t":"หลักสี่","year":"2564","owner":"หลักสี่","name":"บ่อสูบน้ำแจ้งวัฒนะ 14","district":"หลักสี่"}},{"type":"Feature","id":315,"geometry":{"type":"Point","coordinates":[100.564925,13.911852]},"properties":{"sump_name":"บ่อสูบน้ำคลองบางพูด","district_t":"หลักสี่","year":"2564","owner":"หลักสี่","name":"บ่อสูบน้ำคลองบางพูด","district":"หลักสี่"}},{"type":"Feature","id":317,"geometry":{"type":"Point","coordinates":[100.595465,13.912735]},"properties":{"sump_name":"บ่อสูบน้ำเชิดวุฒากาศ ซอย3","district_t":"ดอนเมือง","year":"2564","owner":"ดอนเมือง","name":"บ่อสูบน้ำเชิดวุฒากาศ ซอย3","district":"ดอนเมือง"}},{"type":"Feature","id":318,"geometry":{"type":"Point","coordinates":[100.597613,13.923927]},"properties":{"sump_name":"บ่อสูบน้ำคูนายกิมสายสาม สรงประภา 1","district_t":"ดอนเมือง","year":"2564","owner":"ดอนเมือง","name":"บ่อสูบน้ำคูนายกิมสายสาม สรงประภา 1","district":"ดอนเมือง"}},{"type":"Feature","id":319,"geometry":{"type":"Point","coordinates":[100.569414,13.932126]},"properties":{"sump_name":"บ่อสูบน้ำลำรางสีกัน ตอนคูนายกิมสาย3","district_t":"ดอนเมือง","year":"2564","owner":"ดอนเมือง","name":"บ่อสูบน้ำลำรางสีกัน ตอนคูนายกิมสาย3","district":"ดอนเมือง"}},{"type":"Feature","id":320,"geometry":{"type":"Point","coordinates":[100.63933,13.937246]},"properties":{"sump_name":"บ่อสูบน้ำพหลโยธิน 58 โรงขนมจีน","district_t":"สายไหม","year":"2564","owner":"สายไหม","name":"บ่อสูบน้ำพหลโยธิน 58 โรงขนมจีน","district":"สายไหม"}},{"type":"Feature","id":321,"geometry":{"type":"Point","coordinates":[100.62657,13.937721]},"properties":{"sump_name":"บ่อสูบน้ำซอยพหลโยธิน 58 แยก1 (แอนแนกซ์)","district_t":"สายไหม","year":"2564","owner":"สายไหม","name":"บ่อสูบน้ำซอยพหลโยธิน 58 แยก1 (แอนแนกซ์)","district":"สายไหม"}},{"type":"Feature","id":322,"geometry":{"type":"Point","coordinates":[100.616722,13.947886]},"properties":{"sump_name":"บ่อสูบน้ำซอยวิภาวดี 45 (คลองลาดเป็ด)","district_t":"ดอนเมือง","year":"2564","owner":"ดอนเมือง","name":"บ่อสูบน้ำซอยวิภาวดี 45 (คลองลาดเป็ด)","district":"ดอนเมือง"}},{"type":"Feature","id":323,"geometry":{"type":"Point","coordinates":[100.742979,13.818852]},"properties":{"sump_name":"บ่อสูบน้ำวัดแสนสุข","district_t":"มีนบุรี","year":"2564","owner":"มีนบุรี","name":"บ่อสูบน้ำวัดแสนสุข","district":"มีนบุรี"}}]}
