{"type":"FeatureCollection","features":[{"type":"Feature","id":1,"geometry":{"type":"LineString","coordinates":[[100.5359,13.804718],[100.535686,13.804856],[100.533189,13.805654],[100.531995,13.806008],[100.531196,13.806279],[100.528643,13.806397],[100.523418,13.806424],[100.518943,13.806406]]},"properties":{"tunnel_name":"อุโมงค์ระบายน้ำคลองเปรมประชากร","year":"2563","f_tunnel":"คลองเปรมประชากร","to_tunnel":"เจ้าพระยา","owner":"สำนักพัฒนาระบบระบายน้ำ","name":"อุโมงค์ระบายน้ำคลองเปรมประชากร","district":""}},{"type":"Feature","id":2,"geometry":{"type":"LineString","coordinates":[[100.603523,13.75066],[100.600908,13.748063],[100.600532,13.74775],[100.600187,13.747327],[100.599844,13.746405],[100.599385,13.74466],[100.598796,13.743303],[100.598369,13.741995],[100.597904,13.741019],[100.5987,13.740782],[100.598809,13.740608],[100.598846,13.74044],[100.598529,13.739538],[100.598378,13.739036],[100.5983,13.738684],[100.598307,13.738353],[100.598629,13.738182],[100.598081,13.736081],[100.597676,13.734603],[100.597392,13.73338],[100.596458,13.729991],[100.596243,13.729127],[100.596066,13.728266],[100.595981,13.727685],[100.59595,13.726879],[100.595763,13.717872],[100.595719,13.717469],[100.595553,13.716869],[100.595316,13.716179],[100.594856,13.715036],[100.594427,13.713895],[100.594124,13.713174],[100.594126,13.713131],[100.594305,13.712986],[100.59613,13.711748],[100.597051,13.711087],[100.597172,13.710984],[100.596785,13.710312],[100.596662,13.710159],[100.595627,13.709803],[100.595392,13.709875]]},"properties":{"tunnel_name":"อุโมงค์ระบายน้ำคลองแสนแสบและคลองลาดพร้าว","year":"2563","f_tunnel":"คลองแสนแสบและคลองลาดพร้าว","to_tunnel":"เจ้าพระยา","owner":"สำนักพัฒนาระบบระบายน้ำ","name":"อุโมงค์ระบายน้ำคลองแสนแสบและคลองลาดพร้าว","district":""}},{"type":"Feature","id":3,"geometry":{"type":"LineString","coordinates":[[100.573941,13.796199],[100.573128,13.796153],[100.572201,13.795955],[100.571263,13.795796],[100.568917,13.795286],[100.56772,13.795135],[100.567261,13.795019],[100.566897,13.794806],[100.566345,13.794587],[100.56602,13.794532],[100.565692,13.794551],[100.564999,13.794648],[100.564351,13.794697],[100.563194,13.794834],[100.561443,13.79494],[100.560833,13.795049],[100.560475,13.795096],[100.559927,13.795078],[100.559642,13.795107],[100.55937,13.795198],[100.559166,13.795295],[100.558927,13.79533],[100.558737,13.795295],[100.558154,13.795365],[100.557808,13.795284],[100.557539,13.795266],[100.557056,13.795303],[100.555977,13.795531],[100.555691,13.795542],[100.555475,13.795492],[100.555254,13.795478],[100.554787,13.795645],[100.554658,13.795653],[100.554353,13.795628],[100.554105,13.795639],[100.553571,13.795858],[100.553401,13.79588],[100.553107,13.795852],[100.551784,13.795957],[100.551584,13.79599],[100.551317,13.796074],[100.55119,13.79608],[100.550852,13.796009],[100.550703,13.796019],[100.549321,13.796371],[100.548537,13.796507],[100.546298,13.79671],[100.544804,13.796878],[100.544082,13.796982],[100.541147,13.797324],[100.540259,13.797403],[100.537809,13.797699],[100.537357,13.797787],[100.535403,13.798645],[100.533747,13.799455],[100.533162,13.799725],[100.532345,13.798204],[100.531789,13.79831],[100.531394,13.798344],[100.531034,13.798346],[100.530295,13.798444],[100.529779,13.798569],[100.529174,13.798783],[100.52891,13.798813],[100.528411,13.798825],[100.52794,13.798751],[100.527327,13.79861],[100.526907,13.798597],[100.526715,13.798652],[100.526392,13.798807],[100.526251,13.79893],[100.525983,13.799068],[100.525819,13.799192],[100.525632,13.799248],[100.525438,13.799256],[100.525193,13.799139],[100.525053,13.799121],[100.524229,13.799392],[100.523925,13.799512],[100.523565,13.799604],[100.522904,13.799713],[100.522281,13.799887],[100.521881,13.799927],[100.52132,13.799834],[100.52103,13.799841]]},"properties":{"tunnel_name":"อุโมงค์ระบายน้ำคลองบางซื่อจากคลองลาดพร้าว","year":"2563","f_tunnel":"ถ.รัชดาภิเษก","to_tunnel":"ถ.สามเสน","owner":"สำนักพัฒนาระบบระบายน้ำ","name":"อุโมงค์ระบายน้ำคลองบางซื่อจากคลองลาดพร้าว","district":""}},{"type":"Feature","id":4,"geometry":{"type":"LineString","coordinates":[[100.653166,13.694941],[100.653185,13.69474],[100.653381,13.694126],[100.65339,13.693805],[100.653102,13.692391],[100.65292,13.691201],[100.652795,13.68998],[100.652848,13.689459],[100.652974,13.688838],[100.653036,13.688395],[100.653972,13.685929],[100.651263,13.685088],[100.649931,13.684649],[100.648957,13.684281],[100.64813,13.683926],[100.647663,13.683685],[100.64671,13.683499],[100.646474,13.683478],[100.646097,13.678692],[100.645974,13.677706],[100.641235,13.677828],[100.636118,13.677893],[100.634409,13.67795],[100.626695,13.678267],[100.624595,13.678335],[100.624171,13.679486],[100.622731,13.683118],[100.622694,13.683751],[100.62269,13.68442],[100.621167,13.684385],[100.619601,13.684406],[100.617303,13.684399],[100.615507,13.684362],[100.610812,13.684312],[100.610632,13.684292],[100.610381,13.684238],[100.609678,13.683658],[100.609048,13.683206],[100.608535,13.682886],[100.607882,13.682337],[100.607739,13.682227],[100.607579,13.682143],[100.607515,13.682124],[100.607428,13.682133],[100.607361,13.682156],[100.607125,13.682342],[100.606858,13.68238],[100.60463,13.681121],[100.60438,13.681015],[100.604002,13.680944],[100.602791,13.680628],[100.602029,13.680423],[100.600962,13.680107],[100.60023,13.679924],[100.599239,13.680056],[100.598617,13.680329],[100.59618,13.681111],[100.594843,13.681556],[100.594281,13.681713],[100.593944,13.681704],[100.593348,13.681855],[100.593244,13.68193],[100.593065,13.681993],[100.592734,13.681987],[100.592534,13.682016],[100.590235,13.682644]]},"properties":{"tunnel_name":"อุโมงค์ระบายน้ำหนองบอน","year":"2563","f_tunnel":"บึงรับน้ำหนองบอน","to_tunnel":"เจ้าพระยา","owner":"สำนักพัฒนาระบบระบายน้ำ","name":"อุโมงค์ระบายน้ำหนองบอน","district":""}},{"type":"Feature","id":5,"geometry":{"type":"LineString","coordinates":[[100.630437,13.763136],[100.629129,13.762844],[100.627457,13.762742],[100.623798,13.762323],[100.620673,13.762038],[100.619534,13.761773],[100.616758,13.761473],[100.616037,13.761331],[100.615525,13.761198],[100.614885,13.760918],[100.614512,13.76066],[100.613368,13.759669],[100.612345,13.758643],[100.608143,13.754782],[100.604919,13.751853],[100.603755,13.750839],[100.603523,13.75066]]},"properties":{"tunnel_name":"อุโมงระบายน้ำคลองแสนแสบจากอุโมงค์ระบายน้ำคลองแสนแสบ","year":"2563","f_tunnel":"อุโมงค์ระบายน้ำคลองแสนแสบ","to_tunnel":"ซอยลาดพร้าว130","owner":"สำนักพัฒนาระบบระบายน้ำ","name":"อุโมงระบายน้ำคลองแสนแสบจากอุโมงค์ระบายน้ำคลองแสนแสบ","district":""}},{"type":"Feature","id":6,"geometry":{"type":"LineString","coordinates":[[100.373391,13.708123],[100.375068,13.70465],[100.376767,13.701026],[100.378126,13.698182],[100.379114,13.696046],[100.379661,13.694786],[100.380261,13.693606],[100.381227,13.691572]]},"properties":{"tunnel_name":"อุโมงค์ระบายน้ำคลองทวีวัฒนา บริเวณคอขวด","year":"2563","f_tunnel":"ถ.เพพชรเกษม","to_tunnel":"คลองภาษีเจริญ","owner":"สำนักพัฒนาระบบระบายน้ำ","name":"อุโมงค์ระบายน้ำคลองทวีวัฒนา บริเวณคอขวด","district":""}},{"type":"Feature","id":7,"geometry":{"type":"LineString","coordinates":[[100.5956,13.888534],[100.594624,13.887644],[100.594185,13.887874],[100.592007,13.888683],[100.591184,13.888966],[100.589834,13.889378],[100.588906,13.889525],[100.58872,13.88951],[100.588306,13.889348],[100.588022,13.889333],[100.587176,13.889622],[100.586783,13.88997],[100.586697,13.890011],[100.584579,13.890365],[100.583489,13.890593],[100.583263,13.890606],[100.582787,13.890598],[100.579183,13.884029],[100.578236,13.882248],[100.572004,13.87092],[100.57071,13.868477],[100.569712,13.86677],[100.568347,13.864192],[100.567527,13.862677],[100.567027,13.86171],[100.565499,13.858969],[100.564324,13.856945],[100.563514,13.855612],[100.562547,13.853417],[100.56055,13.849958],[100.559209,13.847356],[100.558293,13.845751],[100.556712,13.842885],[100.556323,13.842133],[100.555407,13.840505],[100.554543,13.838919],[100.553144,13.836293],[100.551162,13.832938],[100.550815,13.832192],[100.549716,13.830213],[100.547556,13.830187],[100.545675,13.830114],[100.543538,13.830116],[100.541705,13.830315],[100.540138,13.830364],[100.535925,13.830759],[100.534132,13.83089],[100.533267,13.830884],[100.532692,13.830785],[100.531744,13.830556],[100.531127,13.830319],[100.530329,13.829887],[100.529448,13.829211],[100.525973,13.826056],[100.523316,13.823605],[100.521657,13.822118],[100.519812,13.820518],[100.518118,13.818883],[100.516963,13.817982],[100.516682,13.817644],[100.516541,13.817406],[100.516504,13.817112],[100.516561,13.816816],[100.516664,13.816611],[100.51686,13.81644],[100.516975,13.816224],[100.517009,13.816087],[100.51689,13.81568],[100.516714,13.815363],[100.516515,13.815115],[100.516444,13.8149],[100.516559,13.814706],[100.516985,13.814261],[100.517112,13.814067],[100.517087,13.81384],[100.516877,13.813615]]},"properties":{"tunnel_name":"อุโมงค์ระบายน้ำคลองเปรมประชากรจากคลองบางบัว","year":"2563","f_tunnel":"คลองบางบัว","to_tunnel":"เจ้าพระยา","owner":"สำนักพัฒนาระบบระบายน้ำ","name":"อุโมงค์ระบายน้ำคลองเปรมประชากรจากคลองบางบัว","district":""}},{"type":"Feature","id":8,"geometry":{"type":"LineString","coordinates":[[100.426209,13.707312],[100.426377,13.704736],[100.426415,13.703701],[100.426653,13.699529],[100.426666,13.69918],[100.426581,13.698579],[100.426519,13.697847],[100.426557,13.696457],[100.426701,13.694408],[100.42686,13.69291],[100.426999,13.69195],[100.42719,13.690899],[100.427395,13.690144],[100.427503,13.689831],[100.427786,13.68769],[100.428014,13.685091],[100.428244,13.683745],[100.428485,13.681361],[100.428724,13.679612],[100.428763,13.679441],[100.428934,13.678964],[100.429097,13.677034],[100.429263,13.675714],[100.429303,13.675555],[100.429496,13.673863],[100.429653,13.672044],[100.429599,13.67186],[100.429883,13.668914],[100.429997,13.667563],[100.430202,13.666001],[100.430714,13.664296],[100.431492,13.662386],[100.431634,13.661903],[100.432477,13.658329],[100.432939,13.656068],[100.433426,13.654103],[100.43434,13.649842],[100.434769,13.647951],[100.435471,13.645039],[100.43583,13.643417],[100.436252,13.641372],[100.436571,13.639926],[100.436946,13.638046],[100.437792,13.633996],[100.438108,13.632616],[100.438407,13.631139],[100.4387,13.629838],[100.438891,13.628793],[100.439147,13.627861]]},"properties":{"tunnel_name":"อุโมงค์ระบายน้ำคลองพระยาราชมนตรี","year":"2563","f_tunnel":"คลองภาษีเจริญ","to_tunnel":"คลองสนามชัย","owner":"สำนักพัฒนาระบบระบายน้ำ","name":"อุโมงค์ระบายน้ำคลองพระยาราชมนตรี","district":""}},{"type":"Feature","id":9,"geometry":{"type":"LineString","coordinates":[[100.548168,13.756609],[100.547588,13.756567],[100.546694,13.756618],[100.546148,13.756519],[100.545891,13.756271],[100.545738,13.75592],[100.545724,13.755625],[100.545826,13.755205],[100.546136,13.754624],[100.546769,13.753837],[100.548497,13.752526],[100.548854,13.752093],[100.549211,13.751586],[100.549599,13.750681],[100.549877,13.749601],[100.550082,13.748239],[100.550652,13.742441],[100.550959,13.740613],[100.551866,13.731967],[100.552126,13.730019],[100.552179,13.729316],[100.552329,13.728328],[100.55253,13.726199],[100.552712,13.724728],[100.55288,13.72294],[100.552997,13.722174],[100.553166,13.719733],[100.553587,13.716661],[100.55402,13.711956],[100.554083,13.710832],[100.553905,13.709869],[100.553528,13.709054],[100.551905,13.707521],[100.549464,13.705086]]},"properties":{"tunnel_name":"อุโมงค์ระบายน้ำบึงมักกะสัน","year":"2563","f_tunnel":"บึงมักกะสัน","to_tunnel":"เจ้าพระยา","owner":"สำนักพัฒนาระบบระบายน้ำ","name":"อุโมงค์ระบายน้ำบึงมักกะสัน","district":""}}]}
