{
  "type": "FeatureCollection",
  "name": "Bangkok Rowhouse Atlas",
  "dataset_version": "2026-08-17.1",
  "license": "CC BY 4.0 for BKKx curation; underlying OpenStreetMap geometry is ODbL",
  "attribution": "BKKx / Non Arkara; OpenStreetMap contributors; linked institutional and scholarly sources per feature",
  "caveat": "Cultural corridors and explorer anchors, not cadastral parcels, statutory conservation zones, or a complete building inventory.",
  "features": [
    {
      "type": "Feature",
      "id": "na-phra-lan-corridor",
      "properties": {
        "slug": "na-phra-lan",
        "name_en": "Na Phra Lan shophouses",
        "name_th": "ตึกแถวหน้าพระลาน",
        "kind": "royal frontage",
        "period": "Early 20th century",
        "typology": "Continuous two-storey royal-frontage row",
        "evidence": "registered",
        "documented_units": null,
        "register_id": "UNESCO Asia-Pacific Award 2011",
        "onep_survey_ids": [
          "1E1-063"
        ],
        "onep_conservation_priorities": [
          3
        ],
        "note": "The Grand Palace is the postcard. This disciplined, tenant-occupied edge is the city-making architecture. Its restoration kept the people and repaired the whole façade as one civic room.",
        "explorer_tip": "Walk the opposite pavement at opening time; the repeated bays read best before tour traffic fills the curb.",
        "source": "UNESCO Asia-Pacific Heritage Awards",
        "source_url": "https://articles.unesco.org/sites/default/files/medias/fichiers/2023/06/2011-winners.pdf",
        "geometry_method": "OSM street axis",
        "geometry_confidence": "high",
        "feature_role": "cultural corridor"
      },
      "geometry": {
        "type": "LineString",
        "coordinates": [
          [
            100.489428,
            13.752391
          ],
          [
            100.489691,
            13.752395
          ],
          [
            100.490195,
            13.752405
          ],
          [
            100.491099,
            13.75242
          ],
          [
            100.491255,
            13.752425
          ]
        ]
      }
    },
    {
      "type": "Feature",
      "id": "na-phra-lan-anchor",
      "properties": {
        "slug": "na-phra-lan",
        "name_en": "Na Phra Lan shophouses",
        "name_th": "ตึกแถวหน้าพระลาน",
        "kind": "royal frontage",
        "period": "Early 20th century",
        "typology": "Continuous two-storey royal-frontage row",
        "evidence": "registered",
        "documented_units": null,
        "register_id": "UNESCO Asia-Pacific Award 2011",
        "onep_survey_ids": [
          "1E1-063"
        ],
        "onep_conservation_priorities": [
          3
        ],
        "note": "The Grand Palace is the postcard. This disciplined, tenant-occupied edge is the city-making architecture. Its restoration kept the people and repaired the whole façade as one civic room.",
        "explorer_tip": "Walk the opposite pavement at opening time; the repeated bays read best before tour traffic fills the curb.",
        "source": "UNESCO Asia-Pacific Heritage Awards",
        "source_url": "https://articles.unesco.org/sites/default/files/medias/fichiers/2023/06/2011-winners.pdf",
        "geometry_method": "OSM street axis",
        "geometry_confidence": "high",
        "feature_role": "explorer anchor"
      },
      "geometry": {
        "type": "Point",
        "coordinates": [
          100.490342,
          13.752407
        ]
      }
    },
    {
      "type": "Feature",
      "id": "tha-tien-corridor",
      "properties": {
        "slug": "tha-tien",
        "name_en": "Tha Tien market blocks",
        "name_th": "กลุ่มตึกแถวท่าเตียน",
        "kind": "market row",
        "period": "Late 19th century onward",
        "typology": "Market-and-pier shophouse ensemble",
        "evidence": "published inventory",
        "documented_units": 490,
        "register_id": null,
        "onep_survey_ids": [
          "1E1-061"
        ],
        "onep_conservation_priorities": [
          3
        ],
        "note": "Not one building: 490 shop units, a market and a river landing working as a single urban instrument. The smell, wholesale trade and ferry rhythm are part of the heritage—not noise around it.",
        "explorer_tip": "Enter from Maha Rat, cross the market, then look back from the Wat Arun ferry queue.",
        "source": "Journal of Cultural Geography / Tha Tien study",
        "source_url": "https://www.tandfonline.com/doi/abs/10.1080/08873631.2018.1506545",
        "geometry_method": "documented block extent",
        "geometry_confidence": "high",
        "feature_role": "cultural corridor"
      },
      "geometry": {
        "type": "LineString",
        "coordinates": [
          [
            100.490224,
            13.745551
          ],
          [
            100.49033,
            13.746091
          ],
          [
            100.490541,
            13.746807
          ],
          [
            100.4907,
            13.74735
          ]
        ]
      }
    },
    {
      "type": "Feature",
      "id": "tha-tien-anchor",
      "properties": {
        "slug": "tha-tien",
        "name_en": "Tha Tien market blocks",
        "name_th": "กลุ่มตึกแถวท่าเตียน",
        "kind": "market row",
        "period": "Late 19th century onward",
        "typology": "Market-and-pier shophouse ensemble",
        "evidence": "published inventory",
        "documented_units": 490,
        "register_id": null,
        "onep_survey_ids": [
          "1E1-061"
        ],
        "onep_conservation_priorities": [
          3
        ],
        "note": "Not one building: 490 shop units, a market and a river landing working as a single urban instrument. The smell, wholesale trade and ferry rhythm are part of the heritage—not noise around it.",
        "explorer_tip": "Enter from Maha Rat, cross the market, then look back from the Wat Arun ferry queue.",
        "source": "Journal of Cultural Geography / Tha Tien study",
        "source_url": "https://www.tandfonline.com/doi/abs/10.1080/08873631.2018.1506545",
        "geometry_method": "documented block extent",
        "geometry_confidence": "high",
        "feature_role": "explorer anchor"
      },
      "geometry": {
        "type": "Point",
        "coordinates": [
          100.490557,
          13.746481
        ]
      }
    },
    {
      "type": "Feature",
      "id": "tha-chang-corridor",
      "properties": {
        "slug": "tha-chang",
        "name_en": "Tha Chang–Maha Rat frontage",
        "name_th": "ตึกแถวท่าช้าง–ถนนมหาราช",
        "kind": "royal frontage",
        "period": "Rama V–VI era",
        "typology": "Pier-facing masonry row",
        "evidence": "registered",
        "documented_units": null,
        "register_id": "FAD-68",
        "onep_survey_ids": [
          "1E1-060"
        ],
        "onep_conservation_priorities": [
          3
        ],
        "note": "A working seam between palace wall, university, amulet trade and river pier. Heritage here is measured by how many different Bangkok lives can still share one short frontage.",
        "explorer_tip": "Take the cross-river boat once. The row is easier to understand from the water than from the pavement.",
        "source": "Fine Arts Department GIS register",
        "source_url": "https://data.go.th/dataset/gis-finearts",
        "geometry_method": "OSM street axis",
        "geometry_confidence": "high",
        "feature_role": "cultural corridor"
      },
      "geometry": {
        "type": "LineString",
        "coordinates": [
          [
            100.48882,
            13.75178
          ],
          [
            100.489006,
            13.752377
          ],
          [
            100.48933,
            13.75303
          ]
        ]
      }
    },
    {
      "type": "Feature",
      "id": "tha-chang-anchor",
      "properties": {
        "slug": "tha-chang",
        "name_en": "Tha Chang–Maha Rat frontage",
        "name_th": "ตึกแถวท่าช้าง–ถนนมหาราช",
        "kind": "royal frontage",
        "period": "Rama V–VI era",
        "typology": "Pier-facing masonry row",
        "evidence": "registered",
        "documented_units": null,
        "register_id": "FAD-68",
        "onep_survey_ids": [
          "1E1-060"
        ],
        "onep_conservation_priorities": [
          3
        ],
        "note": "A working seam between palace wall, university, amulet trade and river pier. Heritage here is measured by how many different Bangkok lives can still share one short frontage.",
        "explorer_tip": "Take the cross-river boat once. The row is easier to understand from the water than from the pavement.",
        "source": "Fine Arts Department GIS register",
        "source_url": "https://data.go.th/dataset/gis-finearts",
        "geometry_method": "OSM street axis",
        "geometry_confidence": "high",
        "feature_role": "explorer anchor"
      },
      "geometry": {
        "type": "Point",
        "coordinates": [
          100.489006,
          13.752377
        ]
      }
    },
    {
      "type": "Feature",
      "id": "sam-phraeng-corridor",
      "properties": {
        "slug": "sam-phraeng",
        "name_en": "Sam Phraeng",
        "name_th": "สามแพร่ง",
        "kind": "market row",
        "period": "Late 19th–early 20th century",
        "typology": "Three palace-land shophouse enclaves",
        "evidence": "published inventory",
        "documented_units": 119,
        "register_id": null,
        "onep_survey_ids": [
          "1E1-057",
          "1E1-062"
        ],
        "onep_conservation_priorities": [
          3
        ],
        "note": "Three former palace compounds became 119 commercial units and a rare interior square. Bangkok did not copy a colonial port here; it converted royal land into a compact mercantile neighbourhood.",
        "explorer_tip": "Start at Phraeng Phuthon before breakfast, then cut through Phraeng Nara rather than circling the arterial roads.",
        "source": "Nakhara: Evolving Urban Landscape of Sam Phraeng",
        "source_url": "https://digital.car.chula.ac.th/nakhara/vol23/iss3/3/",
        "geometry_method": "documented block extent",
        "geometry_confidence": "high",
        "feature_role": "cultural corridor"
      },
      "geometry": {
        "type": "LineString",
        "coordinates": [
          [
            100.496706,
            13.75165
          ],
          [
            100.497108,
            13.752031
          ],
          [
            100.497415,
            13.751924
          ],
          [
            100.497815,
            13.751592
          ],
          [
            100.498235,
            13.75105
          ]
        ]
      }
    },
    {
      "type": "Feature",
      "id": "sam-phraeng-anchor",
      "properties": {
        "slug": "sam-phraeng",
        "name_en": "Sam Phraeng",
        "name_th": "สามแพร่ง",
        "kind": "market row",
        "period": "Late 19th–early 20th century",
        "typology": "Three palace-land shophouse enclaves",
        "evidence": "published inventory",
        "documented_units": 119,
        "register_id": null,
        "onep_survey_ids": [
          "1E1-057",
          "1E1-062"
        ],
        "onep_conservation_priorities": [
          3
        ],
        "note": "Three former palace compounds became 119 commercial units and a rare interior square. Bangkok did not copy a colonial port here; it converted royal land into a compact mercantile neighbourhood.",
        "explorer_tip": "Start at Phraeng Phuthon before breakfast, then cut through Phraeng Nara rather than circling the arterial roads.",
        "source": "Nakhara: Evolving Urban Landscape of Sam Phraeng",
        "source_url": "https://digital.car.chula.ac.th/nakhara/vol23/iss3/3/",
        "geometry_method": "documented block extent",
        "geometry_confidence": "high",
        "feature_role": "explorer anchor"
      },
      "geometry": {
        "type": "Point",
        "coordinates": [
          100.497415,
          13.751924
        ]
      }
    },
    {
      "type": "Feature",
      "id": "bamrung-mueang-corridor",
      "properties": {
        "slug": "bamrung-mueang",
        "name_en": "Bamrung Mueang–Giant Swing rows",
        "name_th": "ตึกแถวบำรุงเมือง–เสาชิงช้า",
        "kind": "commercial street",
        "period": "Rama V era",
        "typology": "Civic-axis corner and curved masonry rows",
        "evidence": "registered",
        "documented_units": null,
        "register_id": "FAD-5604 / FAD-5386",
        "onep_survey_ids": [
          "1E1-058",
          "2E1-068"
        ],
        "onep_conservation_priorities": [
          3
        ],
        "note": "The curve does the work. These rows turn the Giant Swing from an object into a place, holding the street wall while temple, city hall and specialist shops face one another.",
        "explorer_tip": "Look above the signs. The useful evidence is in parapets, bay widths and the corner turn.",
        "source": "Fine Arts Department GIS register",
        "source_url": "https://data.go.th/dataset/gis-finearts",
        "geometry_method": "OSM street axis",
        "geometry_confidence": "high",
        "feature_role": "cultural corridor"
      },
      "geometry": {
        "type": "LineString",
        "coordinates": [
          [
            100.49552,
            13.751286
          ],
          [
            100.49613,
            13.751371
          ],
          [
            100.496599,
            13.751445
          ],
          [
            100.49721,
            13.751506
          ]
        ]
      }
    },
    {
      "type": "Feature",
      "id": "bamrung-mueang-anchor",
      "properties": {
        "slug": "bamrung-mueang",
        "name_en": "Bamrung Mueang–Giant Swing rows",
        "name_th": "ตึกแถวบำรุงเมือง–เสาชิงช้า",
        "kind": "commercial street",
        "period": "Rama V era",
        "typology": "Civic-axis corner and curved masonry rows",
        "evidence": "registered",
        "documented_units": null,
        "register_id": "FAD-5604 / FAD-5386",
        "onep_survey_ids": [
          "1E1-058",
          "2E1-068"
        ],
        "onep_conservation_priorities": [
          3
        ],
        "note": "The curve does the work. These rows turn the Giant Swing from an object into a place, holding the street wall while temple, city hall and specialist shops face one another.",
        "explorer_tip": "Look above the signs. The useful evidence is in parapets, bay widths and the corner turn.",
        "source": "Fine Arts Department GIS register",
        "source_url": "https://data.go.th/dataset/gis-finearts",
        "geometry_method": "OSM street axis",
        "geometry_confidence": "high",
        "feature_role": "explorer anchor"
      },
      "geometry": {
        "type": "Point",
        "coordinates": [
          100.496599,
          13.751445
        ]
      }
    },
    {
      "type": "Feature",
      "id": "bowonniwet-temple-rows-corridor",
      "properties": {
        "slug": "bowonniwet-temple-rows",
        "name_en": "Bowonniwet Temple rows",
        "name_th": "ตึกแถวหน้าวัดบวรนิเวศวิหาร",
        "kind": "royal frontage",
        "period": "1851–1868; later Rama V layers",
        "typology": "L-shaped one- and two-storey temple-frontage row",
        "evidence": "published inventory",
        "documented_units": 46,
        "register_id": null,
        "onep_survey_ids": [
          "2E1-066",
          "2E1-069"
        ],
        "onep_conservation_priorities": [
          3,
          4
        ],
        "note": "Bangkok's oldest surviving Rattanakosin rowhouse group began as dwellings for Grand Palace officers, then learned to trade without losing its long civic edge. The corner rises, the ordinary bays repeat, and the temple street becomes a room rather than leftover traffic space.",
        "explorer_tip": "Begin on Phra Sumen Road, turn the corner into Dinso, and watch how the row changes height without breaking its street wall.",
        "source": "Journal of Architecture and Planning: Rattanakosin shophouse transformation",
        "source_url": "https://www.jstage.jst.go.jp/article/aija/69/586/69_KJ00004229492/_article/-char/en",
        "geometry_method": "documented block extent",
        "geometry_confidence": "high",
        "feature_role": "cultural corridor"
      },
      "geometry": {
        "type": "LineString",
        "coordinates": [
          [
            100.49892,
            13.7607
          ],
          [
            100.50018,
            13.76012
          ],
          [
            100.50039,
            13.75943
          ],
          [
            100.50053,
            13.75873
          ]
        ]
      }
    },
    {
      "type": "Feature",
      "id": "bowonniwet-temple-rows-anchor",
      "properties": {
        "slug": "bowonniwet-temple-rows",
        "name_en": "Bowonniwet Temple rows",
        "name_th": "ตึกแถวหน้าวัดบวรนิเวศวิหาร",
        "kind": "royal frontage",
        "period": "1851–1868; later Rama V layers",
        "typology": "L-shaped one- and two-storey temple-frontage row",
        "evidence": "published inventory",
        "documented_units": 46,
        "register_id": null,
        "onep_survey_ids": [
          "2E1-066",
          "2E1-069"
        ],
        "onep_conservation_priorities": [
          3,
          4
        ],
        "note": "Bangkok's oldest surviving Rattanakosin rowhouse group began as dwellings for Grand Palace officers, then learned to trade without losing its long civic edge. The corner rises, the ordinary bays repeat, and the temple street becomes a room rather than leftover traffic space.",
        "explorer_tip": "Begin on Phra Sumen Road, turn the corner into Dinso, and watch how the row changes height without breaking its street wall.",
        "source": "Journal of Architecture and Planning: Rattanakosin shophouse transformation",
        "source_url": "https://www.jstage.jst.go.jp/article/aija/69/586/69_KJ00004229492/_article/-char/en",
        "geometry_method": "documented block extent",
        "geometry_confidence": "high",
        "feature_role": "explorer anchor"
      },
      "geometry": {
        "type": "Point",
        "coordinates": [
          100.5002,
          13.76012
        ]
      }
    },
    {
      "type": "Feature",
      "id": "tanao-road-rows-corridor",
      "properties": {
        "slug": "tanao-road-rows",
        "name_en": "Tanao Road rows",
        "name_th": "ตึกแถวริมถนนตะนาว",
        "kind": "commercial street",
        "period": "Rama V era",
        "typology": "Long two-storey masonry street rows in three survey sections",
        "evidence": "registered",
        "documented_units": null,
        "register_id": null,
        "onep_survey_ids": [
          "1E1-059",
          "2E1-067"
        ],
        "onep_conservation_priorities": [
          3
        ],
        "note": "Tanao is the quiet north–south stitch of the old city. Its plain early rows do not compete with monuments; they connect Bowonniwet, Khok Wua, Sam Phraeng and the Giant Swing into one walkable sequence of trade, dwelling and worship.",
        "explorer_tip": "Walk south from the Bowonniwet corner and keep to one pavement; the changing shop signs reveal how much of the repeated upper façade survives.",
        "source": "ONEP Rattanakosin conservation building survey",
        "source_url": "https://nced.onep.go.th/knowledge/E_BOOK_Publish_SURVEY.pdf",
        "geometry_method": "OSM street axis",
        "geometry_confidence": "high",
        "feature_role": "cultural corridor"
      },
      "geometry": {
        "type": "LineString",
        "coordinates": [
          [
            100.4983,
            13.76014
          ],
          [
            100.49854,
            13.75846
          ],
          [
            100.49882,
            13.75641
          ],
          [
            100.49888,
            13.75405
          ],
          [
            100.4985,
            13.75186
          ]
        ]
      }
    },
    {
      "type": "Feature",
      "id": "tanao-road-rows-anchor",
      "properties": {
        "slug": "tanao-road-rows",
        "name_en": "Tanao Road rows",
        "name_th": "ตึกแถวริมถนนตะนาว",
        "kind": "commercial street",
        "period": "Rama V era",
        "typology": "Long two-storey masonry street rows in three survey sections",
        "evidence": "registered",
        "documented_units": null,
        "register_id": null,
        "onep_survey_ids": [
          "1E1-059",
          "2E1-067"
        ],
        "onep_conservation_priorities": [
          3
        ],
        "note": "Tanao is the quiet north–south stitch of the old city. Its plain early rows do not compete with monuments; they connect Bowonniwet, Khok Wua, Sam Phraeng and the Giant Swing into one walkable sequence of trade, dwelling and worship.",
        "explorer_tip": "Walk south from the Bowonniwet corner and keep to one pavement; the changing shop signs reveal how much of the repeated upper façade survives.",
        "source": "ONEP Rattanakosin conservation building survey",
        "source_url": "https://nced.onep.go.th/knowledge/E_BOOK_Publish_SURVEY.pdf",
        "geometry_method": "OSM street axis",
        "geometry_confidence": "high",
        "feature_role": "explorer anchor"
      },
      "geometry": {
        "type": "Point",
        "coordinates": [
          100.49882,
          13.75641
        ]
      }
    },
    {
      "type": "Feature",
      "id": "tani-road-rows-corridor",
      "properties": {
        "slug": "tani-road-rows",
        "name_en": "Tani Road rows",
        "name_th": "ตึกแถวถนนตานีและอาคารวรพจน์",
        "kind": "commercial street",
        "period": "Rama V–VI era",
        "typology": "Short east–west lodging and market row",
        "evidence": "registered",
        "documented_units": null,
        "register_id": null,
        "onep_survey_ids": [
          "2E1-073"
        ],
        "onep_conservation_priorities": [
          4
        ],
        "note": "Tani is easy to dismiss as Khao San's service edge. The official survey asks us to read it differently: as a surviving rowhouse street anchored by Woraphot Building, where small rooms, food and travel have shared a compact frontage for generations.",
        "explorer_tip": "Arrive before the evening crowd and compare the upper floors at both ends; this is a working street, not an isolated façade.",
        "source": "ONEP Rattanakosin conservation building survey",
        "source_url": "https://nced.onep.go.th/knowledge/E_BOOK_Publish_SURVEY.pdf",
        "geometry_method": "OSM street axis",
        "geometry_confidence": "high",
        "feature_role": "cultural corridor"
      },
      "geometry": {
        "type": "LineString",
        "coordinates": [
          [
            100.49688,
            13.76047
          ],
          [
            100.49794,
            13.76049
          ],
          [
            100.49907,
            13.76053
          ]
        ]
      }
    },
    {
      "type": "Feature",
      "id": "tani-road-rows-anchor",
      "properties": {
        "slug": "tani-road-rows",
        "name_en": "Tani Road rows",
        "name_th": "ตึกแถวถนนตานีและอาคารวรพจน์",
        "kind": "commercial street",
        "period": "Rama V–VI era",
        "typology": "Short east–west lodging and market row",
        "evidence": "registered",
        "documented_units": null,
        "register_id": null,
        "onep_survey_ids": [
          "2E1-073"
        ],
        "onep_conservation_priorities": [
          4
        ],
        "note": "Tani is easy to dismiss as Khao San's service edge. The official survey asks us to read it differently: as a surviving rowhouse street anchored by Woraphot Building, where small rooms, food and travel have shared a compact frontage for generations.",
        "explorer_tip": "Arrive before the evening crowd and compare the upper floors at both ends; this is a working street, not an isolated façade.",
        "source": "ONEP Rattanakosin conservation building survey",
        "source_url": "https://nced.onep.go.th/knowledge/E_BOOK_Publish_SURVEY.pdf",
        "geometry_method": "OSM street axis",
        "geometry_confidence": "high",
        "feature_role": "explorer anchor"
      },
      "geometry": {
        "type": "Point",
        "coordinates": [
          100.49794,
          13.76049
        ]
      }
    },
    {
      "type": "Feature",
      "id": "ban-phan-thom-rows-corridor",
      "properties": {
        "slug": "ban-phan-thom-rows",
        "name_en": "Ban Phan Thom rows",
        "name_th": "ตึกแถวบ้านพานถม–ถนนพระสุเมรุ",
        "kind": "community conservation",
        "period": "Rama V era onward",
        "typology": "Alley-and-arterial rows at a craft-community edge",
        "evidence": "registered",
        "documented_units": null,
        "register_id": null,
        "onep_survey_ids": [
          "2E1-079"
        ],
        "onep_conservation_priorities": [
          4
        ],
        "note": "The official record catches the seam between a neighbourhood named for beaten-metal craft and the larger Phra Sumen road. Heritage here is not a decorative strip: it is the small lane, shop depth and domestic life that let a specialised community meet the city.",
        "explorer_tip": "Turn off Phra Sumen into the smaller lanes; the cultural evidence sits in the change of scale, not in a single landmark.",
        "source": "ONEP Rattanakosin conservation building survey",
        "source_url": "https://nced.onep.go.th/knowledge/E_BOOK_Publish_SURVEY.pdf",
        "geometry_method": "documented block extent",
        "geometry_confidence": "medium",
        "feature_role": "cultural corridor"
      },
      "geometry": {
        "type": "LineString",
        "coordinates": [
          [
            100.50098,
            13.76123
          ],
          [
            100.50164,
            13.76156
          ],
          [
            100.5021,
            13.76163
          ],
          [
            100.50305,
            13.7615
          ]
        ]
      }
    },
    {
      "type": "Feature",
      "id": "ban-phan-thom-rows-anchor",
      "properties": {
        "slug": "ban-phan-thom-rows",
        "name_en": "Ban Phan Thom rows",
        "name_th": "ตึกแถวบ้านพานถม–ถนนพระสุเมรุ",
        "kind": "community conservation",
        "period": "Rama V era onward",
        "typology": "Alley-and-arterial rows at a craft-community edge",
        "evidence": "registered",
        "documented_units": null,
        "register_id": null,
        "onep_survey_ids": [
          "2E1-079"
        ],
        "onep_conservation_priorities": [
          4
        ],
        "note": "The official record catches the seam between a neighbourhood named for beaten-metal craft and the larger Phra Sumen road. Heritage here is not a decorative strip: it is the small lane, shop depth and domestic life that let a specialised community meet the city.",
        "explorer_tip": "Turn off Phra Sumen into the smaller lanes; the cultural evidence sits in the change of scale, not in a single landmark.",
        "source": "ONEP Rattanakosin conservation building survey",
        "source_url": "https://nced.onep.go.th/knowledge/E_BOOK_Publish_SURVEY.pdf",
        "geometry_method": "documented block extent",
        "geometry_confidence": "medium",
        "feature_role": "explorer anchor"
      },
      "geometry": {
        "type": "Point",
        "coordinates": [
          100.5021,
          13.76163
        ]
      }
    },
    {
      "type": "Feature",
      "id": "phra-athit-khao-hong-corridor",
      "properties": {
        "slug": "phra-athit-khao-hong",
        "name_en": "Phra Athit Khao Hong row",
        "name_th": "ตึกแถวเก้าห้อง ถนนพระอาทิตย์",
        "kind": "royal frontage",
        "period": "Early 20th century",
        "typology": "Nine-bay river-road shophouse row",
        "evidence": "published inventory",
        "documented_units": 9,
        "register_id": null,
        "onep_survey_ids": [
          "2E1-072"
        ],
        "onep_conservation_priorities": [
          4
        ],
        "note": "Only nine bays, but a complete urban sentence: fort, river road, shade trees, homes above trade. Small ensembles like this are where citywide databases usually fail.",
        "explorer_tip": "Pair it with the fort at dusk, then use the river path—not Khao San—as your exit.",
        "source": "Journal of the Siam Society: Old Bangkok shophouses",
        "source_url": "https://so06.tci-thaijo.org/index.php/pub_jss/article/view/158147",
        "geometry_method": "documented block extent",
        "geometry_confidence": "high",
        "feature_role": "cultural corridor"
      },
      "geometry": {
        "type": "LineString",
        "coordinates": [
          [
            100.49341,
            13.761922
          ],
          [
            100.49385,
            13.762323
          ],
          [
            100.494215,
            13.762612
          ]
        ]
      }
    },
    {
      "type": "Feature",
      "id": "phra-athit-khao-hong-anchor",
      "properties": {
        "slug": "phra-athit-khao-hong",
        "name_en": "Phra Athit Khao Hong row",
        "name_th": "ตึกแถวเก้าห้อง ถนนพระอาทิตย์",
        "kind": "royal frontage",
        "period": "Early 20th century",
        "typology": "Nine-bay river-road shophouse row",
        "evidence": "published inventory",
        "documented_units": 9,
        "register_id": null,
        "onep_survey_ids": [
          "2E1-072"
        ],
        "onep_conservation_priorities": [
          4
        ],
        "note": "Only nine bays, but a complete urban sentence: fort, river road, shade trees, homes above trade. Small ensembles like this are where citywide databases usually fail.",
        "explorer_tip": "Pair it with the fort at dusk, then use the river path—not Khao San—as your exit.",
        "source": "Journal of the Siam Society: Old Bangkok shophouses",
        "source_url": "https://so06.tci-thaijo.org/index.php/pub_jss/article/view/158147",
        "geometry_method": "documented block extent",
        "geometry_confidence": "high",
        "feature_role": "explorer anchor"
      },
      "geometry": {
        "type": "Point",
        "coordinates": [
          100.49385,
          13.762323
        ]
      }
    },
    {
      "type": "Feature",
      "id": "luenrit-corridor",
      "properties": {
        "slug": "luenrit",
        "name_en": "Luenrit community",
        "name_th": "ชุมชนเลื่อนฤทธิ์",
        "kind": "community conservation",
        "period": "Early 20th century",
        "typology": "Neoclassical Chinatown shophouse block",
        "evidence": "published inventory",
        "documented_units": null,
        "register_id": null,
        "onep_survey_ids": [
          "3E6-047"
        ],
        "onep_conservation_priorities": [
          4
        ],
        "note": "Tenants stopped demolition, organised, financed and reopened the restored block in 2022. This is Bangkok's strongest answer to the idea that conservation must arrive from outside the community.",
        "explorer_tip": "Read the whole block before entering a café; the collective project matters more than any single tenancy.",
        "source": "ICCROM Cultural Heritage for Inclusive Growth",
        "source_url": "https://ch4igrowth.iccrom.org/case-studies/luenrit-community-conservation-and-rehabilitation-project",
        "geometry_method": "documented block extent",
        "geometry_confidence": "high",
        "feature_role": "cultural corridor"
      },
      "geometry": {
        "type": "LineString",
        "coordinates": [
          [
            100.50523,
            13.744189
          ],
          [
            100.50565,
            13.74446
          ],
          [
            100.506048,
            13.744748
          ]
        ]
      }
    },
    {
      "type": "Feature",
      "id": "luenrit-anchor",
      "properties": {
        "slug": "luenrit",
        "name_en": "Luenrit community",
        "name_th": "ชุมชนเลื่อนฤทธิ์",
        "kind": "community conservation",
        "period": "Early 20th century",
        "typology": "Neoclassical Chinatown shophouse block",
        "evidence": "published inventory",
        "documented_units": null,
        "register_id": null,
        "onep_survey_ids": [
          "3E6-047"
        ],
        "onep_conservation_priorities": [
          4
        ],
        "note": "Tenants stopped demolition, organised, financed and reopened the restored block in 2022. This is Bangkok's strongest answer to the idea that conservation must arrive from outside the community.",
        "explorer_tip": "Read the whole block before entering a café; the collective project matters more than any single tenancy.",
        "source": "ICCROM Cultural Heritage for Inclusive Growth",
        "source_url": "https://ch4igrowth.iccrom.org/case-studies/luenrit-community-conservation-and-rehabilitation-project",
        "geometry_method": "documented block extent",
        "geometry_confidence": "high",
        "feature_role": "explorer anchor"
      },
      "geometry": {
        "type": "Point",
        "coordinates": [
          100.50565,
          13.74446
        ]
      }
    },
    {
      "type": "Feature",
      "id": "charoen-chai-corridor",
      "properties": {
        "slug": "charoen-chai",
        "name_en": "Charoen Chai paper-goods quarter",
        "name_th": "ชุมชนเจริญไชย",
        "kind": "community conservation",
        "period": "Late 19th–early 20th century",
        "typology": "Ritual-goods shophouse community",
        "evidence": "mapped corridor",
        "documented_units": null,
        "register_id": null,
        "onep_survey_ids": [],
        "onep_conservation_priorities": [],
        "note": "A living supply chain for Chinese ceremonies: paper offerings, calendars, printing, family memory. Its heritage is a network of knowledge held behind ordinary shutters—not a façade treatment.",
        "explorer_tip": "Ask before photographing interiors. Visit ahead of major Chinese festivals when the trade becomes legible.",
        "source": "Asian Journal of Environment-Behaviour Studies",
        "source_url": "https://aje-bs.e-iph.co.uk/index.php/ajE-Bs/article/view/229",
        "geometry_method": "OSM street axis",
        "geometry_confidence": "medium",
        "feature_role": "cultural corridor"
      },
      "geometry": {
        "type": "LineString",
        "coordinates": [
          [
            100.510821,
            13.742703
          ],
          [
            100.51117,
            13.74298
          ],
          [
            100.511522,
            13.743262
          ]
        ]
      }
    },
    {
      "type": "Feature",
      "id": "charoen-chai-anchor",
      "properties": {
        "slug": "charoen-chai",
        "name_en": "Charoen Chai paper-goods quarter",
        "name_th": "ชุมชนเจริญไชย",
        "kind": "community conservation",
        "period": "Late 19th–early 20th century",
        "typology": "Ritual-goods shophouse community",
        "evidence": "mapped corridor",
        "documented_units": null,
        "register_id": null,
        "onep_survey_ids": [],
        "onep_conservation_priorities": [],
        "note": "A living supply chain for Chinese ceremonies: paper offerings, calendars, printing, family memory. Its heritage is a network of knowledge held behind ordinary shutters—not a façade treatment.",
        "explorer_tip": "Ask before photographing interiors. Visit ahead of major Chinese festivals when the trade becomes legible.",
        "source": "Asian Journal of Environment-Behaviour Studies",
        "source_url": "https://aje-bs.e-iph.co.uk/index.php/ajE-Bs/article/view/229",
        "geometry_method": "OSM street axis",
        "geometry_confidence": "medium",
        "feature_role": "explorer anchor"
      },
      "geometry": {
        "type": "Point",
        "coordinates": [
          100.51117,
          13.74298
        ]
      }
    },
    {
      "type": "Feature",
      "id": "song-wat-corridor",
      "properties": {
        "slug": "song-wat",
        "name_en": "Song Wat trade street",
        "name_th": "ถนนทรงวาด",
        "kind": "commercial street",
        "period": "Road laid out in the 1890s",
        "typology": "River-trade shophouse and warehouse corridor",
        "evidence": "registered",
        "documented_units": null,
        "register_id": "FAD-5646",
        "onep_survey_ids": [
          "2E6-083"
        ],
        "onep_conservation_priorities": [
          4
        ],
        "note": "The new cafés are a thin layer. The street's real intelligence is its river-to-warehouse grain: narrow fronts, deep plots, loading alleys and families living over trade.",
        "explorer_tip": "Walk west to east in the morning. Notice where goods—not visitors—still set the rhythm.",
        "source": "Fine Arts Department register + Bangkok cultural reporting",
        "source_url": "https://data.go.th/dataset/gis-finearts",
        "geometry_method": "OSM street axis",
        "geometry_confidence": "high",
        "feature_role": "cultural corridor"
      },
      "geometry": {
        "type": "LineString",
        "coordinates": [
          [
            100.502344,
            13.740515
          ],
          [
            100.503576,
            13.739731
          ],
          [
            100.505464,
            13.739495
          ],
          [
            100.507278,
            13.738633
          ],
          [
            100.509975,
            13.736866
          ]
        ]
      }
    },
    {
      "type": "Feature",
      "id": "song-wat-anchor",
      "properties": {
        "slug": "song-wat",
        "name_en": "Song Wat trade street",
        "name_th": "ถนนทรงวาด",
        "kind": "commercial street",
        "period": "Road laid out in the 1890s",
        "typology": "River-trade shophouse and warehouse corridor",
        "evidence": "registered",
        "documented_units": null,
        "register_id": "FAD-5646",
        "onep_survey_ids": [
          "2E6-083"
        ],
        "onep_conservation_priorities": [
          4
        ],
        "note": "The new cafés are a thin layer. The street's real intelligence is its river-to-warehouse grain: narrow fronts, deep plots, loading alleys and families living over trade.",
        "explorer_tip": "Walk west to east in the morning. Notice where goods—not visitors—still set the rhythm.",
        "source": "Fine Arts Department register + Bangkok cultural reporting",
        "source_url": "https://data.go.th/dataset/gis-finearts",
        "geometry_method": "OSM street axis",
        "geometry_confidence": "high",
        "feature_role": "explorer anchor"
      },
      "geometry": {
        "type": "Point",
        "coordinates": [
          100.505464,
          13.739495
        ]
      }
    },
    {
      "type": "Feature",
      "id": "wanit-sampheng-corridor",
      "properties": {
        "slug": "wanit-sampheng",
        "name_en": "Wanit 1–Sampheng fabric",
        "name_th": "ตึกแถววานิช 1–สำเพ็ง",
        "kind": "market row",
        "period": "19th century onward",
        "typology": "Ultra-fine-grain wholesale shophouse rows",
        "evidence": "registered",
        "documented_units": null,
        "register_id": "FAD-5648",
        "onep_survey_ids": [
          "2E6-082"
        ],
        "onep_conservation_priorities": [
          4
        ],
        "note": "This is density before towers: tiny frontages, deep stock rooms, handcarts and upper-floor households. It works because the block is porous, not because the buildings are individually grand.",
        "explorer_tip": "Go before 10am and turn into the narrowest passage that is clearly public; the main street hides the system.",
        "source": "Fine Arts Department GIS register",
        "source_url": "https://data.go.th/dataset/gis-finearts",
        "geometry_method": "OSM street axis",
        "geometry_confidence": "high",
        "feature_role": "cultural corridor"
      },
      "geometry": {
        "type": "LineString",
        "coordinates": [
          [
            100.503299,
            13.74366
          ],
          [
            100.505211,
            13.741865
          ],
          [
            100.507561,
            13.740495
          ],
          [
            100.50908,
            13.739637
          ]
        ]
      }
    },
    {
      "type": "Feature",
      "id": "wanit-sampheng-anchor",
      "properties": {
        "slug": "wanit-sampheng",
        "name_en": "Wanit 1–Sampheng fabric",
        "name_th": "ตึกแถววานิช 1–สำเพ็ง",
        "kind": "market row",
        "period": "19th century onward",
        "typology": "Ultra-fine-grain wholesale shophouse rows",
        "evidence": "registered",
        "documented_units": null,
        "register_id": "FAD-5648",
        "onep_survey_ids": [
          "2E6-082"
        ],
        "onep_conservation_priorities": [
          4
        ],
        "note": "This is density before towers: tiny frontages, deep stock rooms, handcarts and upper-floor households. It works because the block is porous, not because the buildings are individually grand.",
        "explorer_tip": "Go before 10am and turn into the narrowest passage that is clearly public; the main street hides the system.",
        "source": "Fine Arts Department GIS register",
        "source_url": "https://data.go.th/dataset/gis-finearts",
        "geometry_method": "OSM street axis",
        "geometry_confidence": "high",
        "feature_role": "explorer anchor"
      },
      "geometry": {
        "type": "Point",
        "coordinates": [
          100.507561,
          13.740495
        ]
      }
    },
    {
      "type": "Feature",
      "id": "talad-noi-corridor",
      "properties": {
        "slug": "talad-noi",
        "name_en": "Talad Noi back lanes",
        "name_th": "ตรอกตลาดน้อย",
        "kind": "commercial street",
        "period": "Early Chinese river settlement",
        "typology": "Masonry-and-timber shophouse lanes",
        "evidence": "mapped corridor",
        "documented_units": null,
        "register_id": null,
        "onep_survey_ids": [],
        "onep_conservation_priorities": [],
        "note": "Half masonry, half timber; shrines, repair shops, reused warehouses and homes sharing lanes too narrow for a curated masterplan. The district is valuable because productive mess survives beside new culture.",
        "explorer_tip": "Community tip: go before 9am or after 4pm; midday heat erases the slow details.",
        "source": "Bangkok News / Around Online neighbourhood guide",
        "source_url": "https://www.aroundonline.com/bangkok-news-43/",
        "geometry_method": "curated connection",
        "geometry_confidence": "medium",
        "feature_role": "cultural corridor"
      },
      "geometry": {
        "type": "LineString",
        "coordinates": [
          [
            100.511652,
            13.735407
          ],
          [
            100.512314,
            13.734561
          ],
          [
            100.512967,
            13.733452
          ],
          [
            100.513618,
            13.732437
          ]
        ]
      }
    },
    {
      "type": "Feature",
      "id": "talad-noi-anchor",
      "properties": {
        "slug": "talad-noi",
        "name_en": "Talad Noi back lanes",
        "name_th": "ตรอกตลาดน้อย",
        "kind": "commercial street",
        "period": "Early Chinese river settlement",
        "typology": "Masonry-and-timber shophouse lanes",
        "evidence": "mapped corridor",
        "documented_units": null,
        "register_id": null,
        "onep_survey_ids": [],
        "onep_conservation_priorities": [],
        "note": "Half masonry, half timber; shrines, repair shops, reused warehouses and homes sharing lanes too narrow for a curated masterplan. The district is valuable because productive mess survives beside new culture.",
        "explorer_tip": "Community tip: go before 9am or after 4pm; midday heat erases the slow details.",
        "source": "Bangkok News / Around Online neighbourhood guide",
        "source_url": "https://www.aroundonline.com/bangkok-news-43/",
        "geometry_method": "curated connection",
        "geometry_confidence": "medium",
        "feature_role": "explorer anchor"
      },
      "geometry": {
        "type": "Point",
        "coordinates": [
          100.512967,
          13.733452
        ]
      }
    },
    {
      "type": "Feature",
      "id": "plaeng-nam-corridor",
      "properties": {
        "slug": "plaeng-nam",
        "name_en": "Plaeng Nam micro-street",
        "name_th": "ถนนแปลงนาม",
        "kind": "commercial street",
        "period": "Historic Chinatown trade street",
        "typology": "Short food-and-trade shophouse street",
        "evidence": "mapped corridor",
        "documented_units": null,
        "register_id": null,
        "onep_survey_ids": [
          "2E6-081"
        ],
        "onep_conservation_priorities": [
          4
        ],
        "note": "Barely one hundred metres, yet it joins Charoen Krung and Yaowarat as a complete cultural cross-section. Small streets often carry more city memory per metre than monumental avenues.",
        "explorer_tip": "Treat it as a connector, not a destination: enter from the temple end and leave into the night market.",
        "source": "Bangkok News / Around Online neighbourhood guide",
        "source_url": "https://www.aroundonline.com/bangkok-news-43/",
        "geometry_method": "OSM street axis",
        "geometry_confidence": "high",
        "feature_role": "cultural corridor"
      },
      "geometry": {
        "type": "LineString",
        "coordinates": [
          [
            100.509669,
            13.741629
          ],
          [
            100.509992,
            13.741209
          ],
          [
            100.510244,
            13.740823
          ]
        ]
      }
    },
    {
      "type": "Feature",
      "id": "plaeng-nam-anchor",
      "properties": {
        "slug": "plaeng-nam",
        "name_en": "Plaeng Nam micro-street",
        "name_th": "ถนนแปลงนาม",
        "kind": "commercial street",
        "period": "Historic Chinatown trade street",
        "typology": "Short food-and-trade shophouse street",
        "evidence": "mapped corridor",
        "documented_units": null,
        "register_id": null,
        "onep_survey_ids": [
          "2E6-081"
        ],
        "onep_conservation_priorities": [
          4
        ],
        "note": "Barely one hundred metres, yet it joins Charoen Krung and Yaowarat as a complete cultural cross-section. Small streets often carry more city memory per metre than monumental avenues.",
        "explorer_tip": "Treat it as a connector, not a destination: enter from the temple end and leave into the night market.",
        "source": "Bangkok News / Around Online neighbourhood guide",
        "source_url": "https://www.aroundonline.com/bangkok-news-43/",
        "geometry_method": "OSM street axis",
        "geometry_confidence": "high",
        "feature_role": "explorer anchor"
      },
      "geometry": {
        "type": "Point",
        "coordinates": [
          100.509992,
          13.741209
        ]
      }
    },
    {
      "type": "Feature",
      "id": "nang-loeng-corridor",
      "properties": {
        "slug": "nang-loeng",
        "name_en": "Nang Loeng market quarter",
        "name_th": "ย่านตลาดนางเลิ้ง",
        "kind": "market row",
        "period": "Early 20th-century market quarter",
        "typology": "Market shophouses and timber community lanes",
        "evidence": "mapped corridor",
        "documented_units": null,
        "register_id": null,
        "onep_survey_ids": [],
        "onep_conservation_priorities": [],
        "note": "Food is the entry point, not the whole story. Behind the market are performance histories, artists' houses, a Vietnamese temple and rows where domestic and commercial life never fully separated.",
        "explorer_tip": "Arrive for breakfast, then stay after the food crowd leaves and walk the lanes behind the market hall.",
        "source": "Bangkok News / Around Online neighbourhood guide",
        "source_url": "https://www.aroundonline.com/bangkok-news-43/",
        "geometry_method": "documented block extent",
        "geometry_confidence": "medium",
        "feature_role": "cultural corridor"
      },
      "geometry": {
        "type": "LineString",
        "coordinates": [
          [
            100.50511,
            13.759914
          ],
          [
            100.50557,
            13.75953
          ],
          [
            100.506055,
            13.759192
          ]
        ]
      }
    },
    {
      "type": "Feature",
      "id": "nang-loeng-anchor",
      "properties": {
        "slug": "nang-loeng",
        "name_en": "Nang Loeng market quarter",
        "name_th": "ย่านตลาดนางเลิ้ง",
        "kind": "market row",
        "period": "Early 20th-century market quarter",
        "typology": "Market shophouses and timber community lanes",
        "evidence": "mapped corridor",
        "documented_units": null,
        "register_id": null,
        "onep_survey_ids": [],
        "onep_conservation_priorities": [],
        "note": "Food is the entry point, not the whole story. Behind the market are performance histories, artists' houses, a Vietnamese temple and rows where domestic and commercial life never fully separated.",
        "explorer_tip": "Arrive for breakfast, then stay after the food crowd leaves and walk the lanes behind the market hall.",
        "source": "Bangkok News / Around Online neighbourhood guide",
        "source_url": "https://www.aroundonline.com/bangkok-news-43/",
        "geometry_method": "documented block extent",
        "geometry_confidence": "medium",
        "feature_role": "explorer anchor"
      },
      "geometry": {
        "type": "Point",
        "coordinates": [
          100.50557,
          13.75953
        ]
      }
    },
    {
      "type": "Feature",
      "id": "hua-takhe-corridor",
      "properties": {
        "slug": "hua-takhe",
        "name_en": "Hua Takhe old canal market",
        "name_th": "ตลาดเก่าหัวตะเข้",
        "kind": "canal market",
        "period": "Historic eastern canal settlement",
        "typology": "Timber rowhouses lining a canal market",
        "evidence": "mapped corridor",
        "documented_units": null,
        "register_id": null,
        "onep_survey_ids": [],
        "onep_conservation_priorities": [],
        "note": "Bangkok's rowhouse story does not end at the old city wall. Here the frontage faces water: timber rooms, workshops and groceries form a long inhabited section through the canal landscape.",
        "explorer_tip": "Visit on a weekday if you want the architecture; weekends tell the visitor-economy story instead.",
        "source": "Bangkok News / Around Online neighbourhood guide",
        "source_url": "https://www.aroundonline.com/bangkok-news-43/",
        "geometry_method": "curated connection",
        "geometry_confidence": "medium",
        "feature_role": "cultural corridor"
      },
      "geometry": {
        "type": "LineString",
        "coordinates": [
          [
            100.787706,
            13.724527
          ],
          [
            100.788404,
            13.724212
          ],
          [
            100.789175,
            13.723914
          ]
        ]
      }
    },
    {
      "type": "Feature",
      "id": "hua-takhe-anchor",
      "properties": {
        "slug": "hua-takhe",
        "name_en": "Hua Takhe old canal market",
        "name_th": "ตลาดเก่าหัวตะเข้",
        "kind": "canal market",
        "period": "Historic eastern canal settlement",
        "typology": "Timber rowhouses lining a canal market",
        "evidence": "mapped corridor",
        "documented_units": null,
        "register_id": null,
        "onep_survey_ids": [],
        "onep_conservation_priorities": [],
        "note": "Bangkok's rowhouse story does not end at the old city wall. Here the frontage faces water: timber rooms, workshops and groceries form a long inhabited section through the canal landscape.",
        "explorer_tip": "Visit on a weekday if you want the architecture; weekends tell the visitor-economy story instead.",
        "source": "Bangkok News / Around Online neighbourhood guide",
        "source_url": "https://www.aroundonline.com/bangkok-news-43/",
        "geometry_method": "curated connection",
        "geometry_confidence": "medium",
        "feature_role": "explorer anchor"
      },
      "geometry": {
        "type": "Point",
        "coordinates": [
          100.788404,
          13.724212
        ]
      }
    },
    {
      "type": "Feature",
      "id": "talat-phlu-corridor",
      "properties": {
        "slug": "talat-phlu",
        "name_en": "Talat Phlu railway-market rows",
        "name_th": "ตึกแถวย่านตลาดพลู",
        "kind": "market row",
        "period": "Thonburi market settlement",
        "typology": "Rail, road and canal market shophouses",
        "evidence": "mapped corridor",
        "documented_units": null,
        "register_id": null,
        "onep_survey_ids": [],
        "onep_conservation_priorities": [],
        "note": "A useful correction to palace-centred heritage: rail, canal, food trade and ordinary rowhouses made a second old Bangkok on the Thonburi side. The network matters more than a single trophy building.",
        "explorer_tip": "Trace one loop from railway to market to canal. Each infrastructure leaves a different rowhouse edge.",
        "source": "Bangkok News / Around Online neighbourhood guide",
        "source_url": "https://www.aroundonline.com/bangkok-news-43/",
        "geometry_method": "OSM street axis",
        "geometry_confidence": "medium",
        "feature_role": "cultural corridor"
      },
      "geometry": {
        "type": "LineString",
        "coordinates": [
          [
            100.477337,
            13.721276
          ],
          [
            100.478018,
            13.720819
          ],
          [
            100.478777,
            13.720316
          ]
        ]
      }
    },
    {
      "type": "Feature",
      "id": "talat-phlu-anchor",
      "properties": {
        "slug": "talat-phlu",
        "name_en": "Talat Phlu railway-market rows",
        "name_th": "ตึกแถวย่านตลาดพลู",
        "kind": "market row",
        "period": "Thonburi market settlement",
        "typology": "Rail, road and canal market shophouses",
        "evidence": "mapped corridor",
        "documented_units": null,
        "register_id": null,
        "onep_survey_ids": [],
        "onep_conservation_priorities": [],
        "note": "A useful correction to palace-centred heritage: rail, canal, food trade and ordinary rowhouses made a second old Bangkok on the Thonburi side. The network matters more than a single trophy building.",
        "explorer_tip": "Trace one loop from railway to market to canal. Each infrastructure leaves a different rowhouse edge.",
        "source": "Bangkok News / Around Online neighbourhood guide",
        "source_url": "https://www.aroundonline.com/bangkok-news-43/",
        "geometry_method": "OSM street axis",
        "geometry_confidence": "medium",
        "feature_role": "explorer anchor"
      },
      "geometry": {
        "type": "Point",
        "coordinates": [
          100.478018,
          13.720819
        ]
      }
    },
    {
      "type": "Feature",
      "id": "tha-phrachan-corridor",
      "properties": {
        "slug": "tha-phrachan",
        "name_en": "Tha Phrachan riverfront rows",
        "name_th": "ตึกแถวท่าพระจันทร์",
        "kind": "royal frontage",
        "period": "Late 19th–early 20th century",
        "typology": "University-and-pier shophouse frontage",
        "evidence": "published inventory",
        "documented_units": null,
        "register_id": null,
        "onep_survey_ids": [],
        "onep_conservation_priorities": [],
        "note": "Between the palace-university wall and the river, books, amulets, food and ferry traffic compress into one inhabited edge. Conservation here has already shown its political question: repair the façade, but who gets to remain behind it?",
        "explorer_tip": "Walk from the pier toward Thammasat at opening time; read the upper floors before the pavement becomes a market.",
        "source": "Journal of the Siam Society: CPB heritage inventory",
        "source_url": "https://so06.tci-thaijo.org/index.php/pub_jss/article/download/158293/114676/433613",
        "geometry_method": "documented block extent",
        "geometry_confidence": "high",
        "feature_role": "cultural corridor"
      },
      "geometry": {
        "type": "LineString",
        "coordinates": [
          [
            100.489119,
            13.754666
          ],
          [
            100.48943,
            13.75522
          ],
          [
            100.48965,
            13.755786
          ]
        ]
      }
    },
    {
      "type": "Feature",
      "id": "tha-phrachan-anchor",
      "properties": {
        "slug": "tha-phrachan",
        "name_en": "Tha Phrachan riverfront rows",
        "name_th": "ตึกแถวท่าพระจันทร์",
        "kind": "royal frontage",
        "period": "Late 19th–early 20th century",
        "typology": "University-and-pier shophouse frontage",
        "evidence": "published inventory",
        "documented_units": null,
        "register_id": null,
        "onep_survey_ids": [],
        "onep_conservation_priorities": [],
        "note": "Between the palace-university wall and the river, books, amulets, food and ferry traffic compress into one inhabited edge. Conservation here has already shown its political question: repair the façade, but who gets to remain behind it?",
        "explorer_tip": "Walk from the pier toward Thammasat at opening time; read the upper floors before the pavement becomes a market.",
        "source": "Journal of the Siam Society: CPB heritage inventory",
        "source_url": "https://so06.tci-thaijo.org/index.php/pub_jss/article/download/158293/114676/433613",
        "geometry_method": "documented block extent",
        "geometry_confidence": "high",
        "feature_role": "explorer anchor"
      },
      "geometry": {
        "type": "Point",
        "coordinates": [
          100.48943,
          13.75522
        ]
      }
    },
    {
      "type": "Feature",
      "id": "ban-mo-old-moat-corridor",
      "properties": {
        "slug": "ban-mo-old-moat",
        "name_en": "Asdang–Ban Mo rowhouse block",
        "name_th": "กลุ่มตึกแถวอัษฎางค์–พระพิทักษ์–บ้านหม้อ",
        "kind": "commercial street",
        "period": "Rama V era onward",
        "typology": "Roadside and interior rows organised by canal, street and backlane",
        "evidence": "published inventory",
        "documented_units": 108,
        "register_id": null,
        "onep_survey_ids": [
          "1E1-065",
          "3E1-036"
        ],
        "onep_conservation_priorities": [
          3,
          4
        ],
        "note": "A published spatial survey counted 108 roadside units: 45 on Ban Mo, 16 on Phra Phitak and 47 on Asdang, with later rows inside the block. The canalside superblock shows Bangkok making a commercial quarter through incremental streets and backlanes—not a colonial masterplan.",
        "explorer_tip": "Use Khlong Khu Mueang Doem as your compass, then loop Ban Mo, Phra Phitak and Asdang to read the three different street edges.",
        "source": "Journal of Architecture and Planning: Rattanakosin shophouse transformation",
        "source_url": "https://www.jstage.jst.go.jp/article/aija/69/586/69_KJ00004229492/_article/-char/en",
        "geometry_method": "documented block extent",
        "geometry_confidence": "medium",
        "feature_role": "cultural corridor"
      },
      "geometry": {
        "type": "LineString",
        "coordinates": [
          [
            100.496815,
            13.745369
          ],
          [
            100.497502,
            13.745864
          ],
          [
            100.498152,
            13.746324
          ]
        ]
      }
    },
    {
      "type": "Feature",
      "id": "ban-mo-old-moat-anchor",
      "properties": {
        "slug": "ban-mo-old-moat",
        "name_en": "Asdang–Ban Mo rowhouse block",
        "name_th": "กลุ่มตึกแถวอัษฎางค์–พระพิทักษ์–บ้านหม้อ",
        "kind": "commercial street",
        "period": "Rama V era onward",
        "typology": "Roadside and interior rows organised by canal, street and backlane",
        "evidence": "published inventory",
        "documented_units": 108,
        "register_id": null,
        "onep_survey_ids": [
          "1E1-065",
          "3E1-036"
        ],
        "onep_conservation_priorities": [
          3,
          4
        ],
        "note": "A published spatial survey counted 108 roadside units: 45 on Ban Mo, 16 on Phra Phitak and 47 on Asdang, with later rows inside the block. The canalside superblock shows Bangkok making a commercial quarter through incremental streets and backlanes—not a colonial masterplan.",
        "explorer_tip": "Use Khlong Khu Mueang Doem as your compass, then loop Ban Mo, Phra Phitak and Asdang to read the three different street edges.",
        "source": "Journal of Architecture and Planning: Rattanakosin shophouse transformation",
        "source_url": "https://www.jstage.jst.go.jp/article/aija/69/586/69_KJ00004229492/_article/-char/en",
        "geometry_method": "documented block extent",
        "geometry_confidence": "medium",
        "feature_role": "explorer anchor"
      },
      "geometry": {
        "type": "Point",
        "coordinates": [
          100.4975,
          13.74586
        ]
      }
    },
    {
      "type": "Feature",
      "id": "srasong-longtha-corridor",
      "properties": {
        "slug": "srasong-longtha",
        "name_en": "Srasong–Longtha rows",
        "name_th": "ตึกแถวตรอกสระสรง–ลงท่า",
        "kind": "market row",
        "period": "Built 1910",
        "typology": "Privy Purse rental rows aligned with Khlong Lod and backlanes",
        "evidence": "published inventory",
        "documented_units": 98,
        "register_id": null,
        "onep_survey_ids": [
          "2E1-075"
        ],
        "onep_conservation_priorities": [
          4
        ],
        "note": "Ninety-eight rental shophouses were laid out in 1910 between Wat Suthat and the Khlong Lod edge near Wat Ratchabophit. Parallel rows and service lanes make an urban machine from rent, water access and temple traffic—dense, practical and unmistakably Bangkok.",
        "explorer_tip": "Enter from the Wat Suthat side and leave toward Khlong Lod; the backlanes explain the block better than a single façade photograph.",
        "source": "Journal of Architecture and Planning: Rattanakosin shophouse transformation",
        "source_url": "https://www.jstage.jst.go.jp/article/aija/69/586/69_KJ00004229492/_article/-char/en",
        "geometry_method": "documented block extent",
        "geometry_confidence": "medium",
        "feature_role": "cultural corridor"
      },
      "geometry": {
        "type": "LineString",
        "coordinates": [
          [
            100.4997,
            13.75003
          ],
          [
            100.50008,
            13.74949
          ],
          [
            100.50034,
            13.74908
          ],
          [
            100.50073,
            13.74848
          ]
        ]
      }
    },
    {
      "type": "Feature",
      "id": "srasong-longtha-anchor",
      "properties": {
        "slug": "srasong-longtha",
        "name_en": "Srasong–Longtha rows",
        "name_th": "ตึกแถวตรอกสระสรง–ลงท่า",
        "kind": "market row",
        "period": "Built 1910",
        "typology": "Privy Purse rental rows aligned with Khlong Lod and backlanes",
        "evidence": "published inventory",
        "documented_units": 98,
        "register_id": null,
        "onep_survey_ids": [
          "2E1-075"
        ],
        "onep_conservation_priorities": [
          4
        ],
        "note": "Ninety-eight rental shophouses were laid out in 1910 between Wat Suthat and the Khlong Lod edge near Wat Ratchabophit. Parallel rows and service lanes make an urban machine from rent, water access and temple traffic—dense, practical and unmistakably Bangkok.",
        "explorer_tip": "Enter from the Wat Suthat side and leave toward Khlong Lod; the backlanes explain the block better than a single façade photograph.",
        "source": "Journal of Architecture and Planning: Rattanakosin shophouse transformation",
        "source_url": "https://www.jstage.jst.go.jp/article/aija/69/586/69_KJ00004229492/_article/-char/en",
        "geometry_method": "documented block extent",
        "geometry_confidence": "medium",
        "feature_role": "explorer anchor"
      },
      "geometry": {
        "type": "Point",
        "coordinates": [
          100.50034,
          13.74908
        ]
      }
    },
    {
      "type": "Feature",
      "id": "phraya-si-rows-corridor",
      "properties": {
        "slug": "phraya-si-rows",
        "name_en": "Phraya Si–Si Kak rows",
        "name_th": "ตึกแถวถนนพระยาศรี–สี่กั๊กพระยาศรี",
        "kind": "commercial street",
        "period": "Early Charoen Krung road era onward",
        "typology": "Intersection rows linking Charoen Krung, Fueang Nakhon and Ban Mo",
        "evidence": "published inventory",
        "documented_units": null,
        "register_id": null,
        "onep_survey_ids": [
          "2E1-076",
          "3E1-038"
        ],
        "onep_conservation_priorities": [
          4
        ],
        "note": "At one of old Bangkok's great four-way junctions, the rows reveal how the first modern roads met an older Mon community and specialist trade. The result is not imported colonial order but a Bangkok hinge—royal city, port street and mercantile lane turning around one another.",
        "explorer_tip": "Stand at Si Kak Phraya Si and rotate slowly: each street carries a different period and trade, but the rowhouse scale holds the junction together.",
        "source": "Journal of the Siam Society: CPB heritage inventory",
        "source_url": "https://so06.tci-thaijo.org/index.php/pub_jss/article/download/158293/114676/433613",
        "geometry_method": "OSM street axis",
        "geometry_confidence": "high",
        "feature_role": "cultural corridor"
      },
      "geometry": {
        "type": "LineString",
        "coordinates": [
          [
            100.49686,
            13.74854
          ],
          [
            100.49755,
            13.74818
          ],
          [
            100.49829,
            13.74779
          ]
        ]
      }
    },
    {
      "type": "Feature",
      "id": "phraya-si-rows-anchor",
      "properties": {
        "slug": "phraya-si-rows",
        "name_en": "Phraya Si–Si Kak rows",
        "name_th": "ตึกแถวถนนพระยาศรี–สี่กั๊กพระยาศรี",
        "kind": "commercial street",
        "period": "Early Charoen Krung road era onward",
        "typology": "Intersection rows linking Charoen Krung, Fueang Nakhon and Ban Mo",
        "evidence": "published inventory",
        "documented_units": null,
        "register_id": null,
        "onep_survey_ids": [
          "2E1-076",
          "3E1-038"
        ],
        "onep_conservation_priorities": [
          4
        ],
        "note": "At one of old Bangkok's great four-way junctions, the rows reveal how the first modern roads met an older Mon community and specialist trade. The result is not imported colonial order but a Bangkok hinge—royal city, port street and mercantile lane turning around one another.",
        "explorer_tip": "Stand at Si Kak Phraya Si and rotate slowly: each street carries a different period and trade, but the rowhouse scale holds the junction together.",
        "source": "Journal of the Siam Society: CPB heritage inventory",
        "source_url": "https://so06.tci-thaijo.org/index.php/pub_jss/article/download/158293/114676/433613",
        "geometry_method": "OSM street axis",
        "geometry_confidence": "high",
        "feature_role": "explorer anchor"
      },
      "geometry": {
        "type": "Point",
        "coordinates": [
          100.49755,
          13.74818
        ]
      }
    },
    {
      "type": "Feature",
      "id": "memorial-bridge-rows-corridor",
      "properties": {
        "slug": "memorial-bridge-rows",
        "name_en": "Memorial Bridge bridgehead rows",
        "name_th": "ตึกแถวเชิงสะพานพระพุทธยอดฟ้า–จักรเพชร",
        "kind": "market row",
        "period": "Early 20th century",
        "typology": "Bridgehead and market-front rows on the Phra Nakhon bank",
        "evidence": "registered",
        "documented_units": null,
        "register_id": null,
        "onep_survey_ids": [
          "2E1-077",
          "2E1-078"
        ],
        "onep_conservation_priorities": [
          4
        ],
        "note": "The bridge is usually read as infrastructure and Pak Khlong Talat as spectacle. The surveyed rows between them are the missing urban tissue: small commercial bays absorbing flowers, ferries, road traffic and the daily transfer between Thonburi and the old capital.",
        "explorer_tip": "Walk from Pak Khlong Talat toward the bridge and look inland before crossing; the edge works as an exchange, not a monument forecourt.",
        "source": "ONEP Rattanakosin conservation building survey",
        "source_url": "https://nced.onep.go.th/knowledge/E_BOOK_Publish_SURVEY.pdf",
        "geometry_method": "documented block extent",
        "geometry_confidence": "medium",
        "feature_role": "cultural corridor"
      },
      "geometry": {
        "type": "LineString",
        "coordinates": [
          [
            100.49672,
            13.74
          ],
          [
            100.4972,
            13.73957
          ],
          [
            100.49758,
            13.73928
          ],
          [
            100.49808,
            13.73886
          ]
        ]
      }
    },
    {
      "type": "Feature",
      "id": "memorial-bridge-rows-anchor",
      "properties": {
        "slug": "memorial-bridge-rows",
        "name_en": "Memorial Bridge bridgehead rows",
        "name_th": "ตึกแถวเชิงสะพานพระพุทธยอดฟ้า–จักรเพชร",
        "kind": "market row",
        "period": "Early 20th century",
        "typology": "Bridgehead and market-front rows on the Phra Nakhon bank",
        "evidence": "registered",
        "documented_units": null,
        "register_id": null,
        "onep_survey_ids": [
          "2E1-077",
          "2E1-078"
        ],
        "onep_conservation_priorities": [
          4
        ],
        "note": "The bridge is usually read as infrastructure and Pak Khlong Talat as spectacle. The surveyed rows between them are the missing urban tissue: small commercial bays absorbing flowers, ferries, road traffic and the daily transfer between Thonburi and the old capital.",
        "explorer_tip": "Walk from Pak Khlong Talat toward the bridge and look inland before crossing; the edge works as an exchange, not a monument forecourt.",
        "source": "ONEP Rattanakosin conservation building survey",
        "source_url": "https://nced.onep.go.th/knowledge/E_BOOK_Publish_SURVEY.pdf",
        "geometry_method": "documented block extent",
        "geometry_confidence": "medium",
        "feature_role": "explorer anchor"
      },
      "geometry": {
        "type": "Point",
        "coordinates": [
          100.49758,
          13.73928
        ]
      }
    },
    {
      "type": "Feature",
      "id": "bang-rak-charoen-krung-corridor",
      "properties": {
        "slug": "bang-rak-charoen-krung",
        "name_en": "Bang Rak multicultural rows",
        "name_th": "ตึกแถวพหุวัฒนธรรมบางรัก",
        "kind": "commercial street",
        "period": "19th–20th century layers",
        "typology": "Chinese, South Asian, Western and Thai shophouse corridor",
        "evidence": "published inventory",
        "documented_units": null,
        "register_id": null,
        "onep_survey_ids": [
          "2E5-080"
        ],
        "onep_conservation_priorities": [
          4
        ],
        "note": "Bang Rak is the argument in miniature: Chinese shop signs, South Asian tailoring, western-company streets and Thai alleys occupy the same commercial spine. The heritage is not one approved style; it is difference that learned to share an address.",
        "explorer_tip": "Walk Charoen Krung from Si Phraya toward Silom and count languages, upstairs access and shop-depth changes—not cafés.",
        "source": "Nakhara: Ordinary Urban Heritage in Bang Rak",
        "source_url": "https://digital.car.chula.ac.th/nakhara/vol21/iss2/1/",
        "geometry_method": "documented block extent",
        "geometry_confidence": "medium",
        "feature_role": "cultural corridor"
      },
      "geometry": {
        "type": "LineString",
        "coordinates": [
          [
            100.514785,
            13.728537
          ],
          [
            100.515551,
            13.727006
          ],
          [
            100.5162,
            13.7258
          ],
          [
            100.517417,
            13.723262
          ]
        ]
      }
    },
    {
      "type": "Feature",
      "id": "bang-rak-charoen-krung-anchor",
      "properties": {
        "slug": "bang-rak-charoen-krung",
        "name_en": "Bang Rak multicultural rows",
        "name_th": "ตึกแถวพหุวัฒนธรรมบางรัก",
        "kind": "commercial street",
        "period": "19th–20th century layers",
        "typology": "Chinese, South Asian, Western and Thai shophouse corridor",
        "evidence": "published inventory",
        "documented_units": null,
        "register_id": null,
        "onep_survey_ids": [
          "2E5-080"
        ],
        "onep_conservation_priorities": [
          4
        ],
        "note": "Bang Rak is the argument in miniature: Chinese shop signs, South Asian tailoring, western-company streets and Thai alleys occupy the same commercial spine. The heritage is not one approved style; it is difference that learned to share an address.",
        "explorer_tip": "Walk Charoen Krung from Si Phraya toward Silom and count languages, upstairs access and shop-depth changes—not cafés.",
        "source": "Nakhara: Ordinary Urban Heritage in Bang Rak",
        "source_url": "https://digital.car.chula.ac.th/nakhara/vol21/iss2/1/",
        "geometry_method": "documented block extent",
        "geometry_confidence": "medium",
        "feature_role": "explorer anchor"
      },
      "geometry": {
        "type": "Point",
        "coordinates": [
          100.5162,
          13.7258
        ]
      }
    },
    {
      "type": "Feature",
      "id": "patpong-modern-rows-corridor",
      "properties": {
        "slug": "patpong-modern-rows",
        "name_en": "Patpong modern shophouse rows",
        "name_th": "ตึกแถวสมัยใหม่พัฒน์พงศ์",
        "kind": "commercial street",
        "period": "1950s onward",
        "typology": "Two-to-six-storey postwar commercial rows",
        "evidence": "published inventory",
        "documented_units": null,
        "register_id": null,
        "onep_survey_ids": [],
        "onep_conservation_priorities": [],
        "note": "Heritage does not stop at 1932. Patpong's rows record Bangkok becoming a global service economy: daytime shutters, night businesses and separate stairs that turned upper floors into independent commercial territory.",
        "explorer_tip": "Visit once by day and once after dark; the same row operates as two different pieces of city.",
        "source": "Nakhara: Ordinary Urban Heritage in Bang Rak",
        "source_url": "https://digital.car.chula.ac.th/nakhara/vol21/iss2/1/",
        "geometry_method": "documented block extent",
        "geometry_confidence": "high",
        "feature_role": "cultural corridor"
      },
      "geometry": {
        "type": "LineString",
        "coordinates": [
          [
            100.530041,
            13.729326
          ],
          [
            100.531749,
            13.728853
          ],
          [
            100.533424,
            13.72839
          ]
        ]
      }
    },
    {
      "type": "Feature",
      "id": "patpong-modern-rows-anchor",
      "properties": {
        "slug": "patpong-modern-rows",
        "name_en": "Patpong modern shophouse rows",
        "name_th": "ตึกแถวสมัยใหม่พัฒน์พงศ์",
        "kind": "commercial street",
        "period": "1950s onward",
        "typology": "Two-to-six-storey postwar commercial rows",
        "evidence": "published inventory",
        "documented_units": null,
        "register_id": null,
        "onep_survey_ids": [],
        "onep_conservation_priorities": [],
        "note": "Heritage does not stop at 1932. Patpong's rows record Bangkok becoming a global service economy: daytime shutters, night businesses and separate stairs that turned upper floors into independent commercial territory.",
        "explorer_tip": "Visit once by day and once after dark; the same row operates as two different pieces of city.",
        "source": "Nakhara: Ordinary Urban Heritage in Bang Rak",
        "source_url": "https://digital.car.chula.ac.th/nakhara/vol21/iss2/1/",
        "geometry_method": "documented block extent",
        "geometry_confidence": "high",
        "feature_role": "explorer anchor"
      },
      "geometry": {
        "type": "Point",
        "coordinates": [
          100.53175,
          13.72885
        ]
      }
    },
    {
      "type": "Feature",
      "id": "nong-chok-old-market-corridor",
      "properties": {
        "slug": "nong-chok-old-market",
        "name_en": "Nong Chok old market",
        "name_th": "ตลาดเก่าหนองจอก",
        "kind": "canal market",
        "period": "19th-century canal settlement",
        "typology": "Timber shophouse rows along Khlong Saen Saep",
        "evidence": "published inventory",
        "documented_units": null,
        "register_id": null,
        "onep_survey_ids": [],
        "onep_conservation_priorities": [],
        "note": "At the meeting of canals twelve, thirteen and Saen Saep, Chinese timber shops served a largely Muslim agricultural landscape. This is Bangkok too: not fringe, but the eastern half of the capital explaining how water, trade and coexistence built one another.",
        "explorer_tip": "Stand on the newer market side and look across the canal; the old commercial frontage makes sense from its former transport route.",
        "source": "Silpakorn University: Nong Chok timber-row study",
        "source_url": "https://sure.su.ac.th/xmlui/handle/123456789/11214",
        "geometry_method": "curated connection",
        "geometry_confidence": "medium",
        "feature_role": "cultural corridor"
      },
      "geometry": {
        "type": "LineString",
        "coordinates": [
          [
            100.864683,
            13.857574
          ],
          [
            100.865469,
            13.857182
          ],
          [
            100.866238,
            13.856789
          ]
        ]
      }
    },
    {
      "type": "Feature",
      "id": "nong-chok-old-market-anchor",
      "properties": {
        "slug": "nong-chok-old-market",
        "name_en": "Nong Chok old market",
        "name_th": "ตลาดเก่าหนองจอก",
        "kind": "canal market",
        "period": "19th-century canal settlement",
        "typology": "Timber shophouse rows along Khlong Saen Saep",
        "evidence": "published inventory",
        "documented_units": null,
        "register_id": null,
        "onep_survey_ids": [],
        "onep_conservation_priorities": [],
        "note": "At the meeting of canals twelve, thirteen and Saen Saep, Chinese timber shops served a largely Muslim agricultural landscape. This is Bangkok too: not fringe, but the eastern half of the capital explaining how water, trade and coexistence built one another.",
        "explorer_tip": "Stand on the newer market side and look across the canal; the old commercial frontage makes sense from its former transport route.",
        "source": "Silpakorn University: Nong Chok timber-row study",
        "source_url": "https://sure.su.ac.th/xmlui/handle/123456789/11214",
        "geometry_method": "curated connection",
        "geometry_confidence": "medium",
        "feature_role": "explorer anchor"
      },
      "geometry": {
        "type": "Point",
        "coordinates": [
          100.865469,
          13.857182
        ]
      }
    },
    {
      "type": "Feature",
      "id": "charoen-krung-103-corridor",
      "properties": {
        "slug": "charoen-krung-103",
        "name_en": "Charoen Krung 103 canal-market approach",
        "name_th": "ตึกแถวทางเข้าชุมชนเจริญกรุง 103",
        "kind": "community conservation",
        "period": "Historic mixed-faith canal community",
        "typology": "Roadside rowhouses leading to a Muslim canal market",
        "evidence": "mapped corridor",
        "documented_units": null,
        "register_id": null,
        "onep_survey_ids": [],
        "onep_conservation_priorities": [],
        "note": "The green-and-cream row is a threshold, not the destination. Pass through it and the arterial city gives way to a small weekend halal market, Buddhist–Muslim neighbourliness and a canal landscape hidden behind Charoen Krung.",
        "explorer_tip": "The canal market opens only on the first Saturday and Sunday of each month; the rowhouse approach is legible every day.",
        "source": "Bangkok News / Around Online neighbourhood guide",
        "source_url": "https://www.aroundonline.com/bangkok-news-43/",
        "geometry_method": "curated connection",
        "geometry_confidence": "medium",
        "feature_role": "cultural corridor"
      },
      "geometry": {
        "type": "LineString",
        "coordinates": [
          [
            100.50291,
            13.700744
          ],
          [
            100.50339,
            13.7005
          ],
          [
            100.503882,
            13.700258
          ]
        ]
      }
    },
    {
      "type": "Feature",
      "id": "charoen-krung-103-anchor",
      "properties": {
        "slug": "charoen-krung-103",
        "name_en": "Charoen Krung 103 canal-market approach",
        "name_th": "ตึกแถวทางเข้าชุมชนเจริญกรุง 103",
        "kind": "community conservation",
        "period": "Historic mixed-faith canal community",
        "typology": "Roadside rowhouses leading to a Muslim canal market",
        "evidence": "mapped corridor",
        "documented_units": null,
        "register_id": null,
        "onep_survey_ids": [],
        "onep_conservation_priorities": [],
        "note": "The green-and-cream row is a threshold, not the destination. Pass through it and the arterial city gives way to a small weekend halal market, Buddhist–Muslim neighbourliness and a canal landscape hidden behind Charoen Krung.",
        "explorer_tip": "The canal market opens only on the first Saturday and Sunday of each month; the rowhouse approach is legible every day.",
        "source": "Bangkok News / Around Online neighbourhood guide",
        "source_url": "https://www.aroundonline.com/bangkok-news-43/",
        "geometry_method": "curated connection",
        "geometry_confidence": "medium",
        "feature_role": "explorer anchor"
      },
      "geometry": {
        "type": "Point",
        "coordinates": [
          100.50339,
          13.7005
        ]
      }
    },
    {
      "type": "Feature",
      "id": "dilok-chan-corridor",
      "properties": {
        "slug": "dilok-chan",
        "name_en": "Dilok Chan lane",
        "name_th": "ตรอกดิลกจันทร์–ชุมชนสมเด็จย่า",
        "kind": "community conservation",
        "period": "Historic Khlong San trading community",
        "typology": "River-trade lane enclosed by ordinary rowhouses",
        "evidence": "mapped corridor",
        "documented_units": null,
        "register_id": null,
        "onep_survey_ids": [],
        "onep_conservation_priorities": [],
        "note": "A tiny lane holds the afterimage of a larger port economy—salt sheds, fish-sauce works, export trade and the Guan Yu shrine. The important space is not a monument but the narrow public room made by rowhouses around collective memory.",
        "explorer_tip": "Enter from Princess Mother Memorial Park and keep walking toward the Guan Yu shrine; the lane reveals its river logic gradually.",
        "source": "Bangkok News / Around Online neighbourhood guide",
        "source_url": "https://www.aroundonline.com/bangkok-news-43/",
        "geometry_method": "curated connection",
        "geometry_confidence": "medium",
        "feature_role": "cultural corridor"
      },
      "geometry": {
        "type": "LineString",
        "coordinates": [
          [
            100.495791,
            13.736936
          ],
          [
            100.496299,
            13.736642
          ],
          [
            100.496893,
            13.736296
          ]
        ]
      }
    },
    {
      "type": "Feature",
      "id": "dilok-chan-anchor",
      "properties": {
        "slug": "dilok-chan",
        "name_en": "Dilok Chan lane",
        "name_th": "ตรอกดิลกจันทร์–ชุมชนสมเด็จย่า",
        "kind": "community conservation",
        "period": "Historic Khlong San trading community",
        "typology": "River-trade lane enclosed by ordinary rowhouses",
        "evidence": "mapped corridor",
        "documented_units": null,
        "register_id": null,
        "onep_survey_ids": [],
        "onep_conservation_priorities": [],
        "note": "A tiny lane holds the afterimage of a larger port economy—salt sheds, fish-sauce works, export trade and the Guan Yu shrine. The important space is not a monument but the narrow public room made by rowhouses around collective memory.",
        "explorer_tip": "Enter from Princess Mother Memorial Park and keep walking toward the Guan Yu shrine; the lane reveals its river logic gradually.",
        "source": "Bangkok News / Around Online neighbourhood guide",
        "source_url": "https://www.aroundonline.com/bangkok-news-43/",
        "geometry_method": "curated connection",
        "geometry_confidence": "medium",
        "feature_role": "explorer anchor"
      },
      "geometry": {
        "type": "Point",
        "coordinates": [
          100.496299,
          13.736642
        ]
      }
    },
    {
      "type": "Feature",
      "id": "pak-khlong-talat-corridor",
      "properties": {
        "slug": "pak-khlong-talat",
        "name_en": "Pak Khlong Talat night market rows",
        "name_th": "แนวตลาดปากคลองตลาด",
        "kind": "market row",
        "period": "Rama V market history; later masonry market fabric",
        "typology": "Wholesale flower-market shophouses and covered market edge",
        "evidence": "mapped corridor",
        "documented_units": null,
        "register_id": null,
        "onep_survey_ids": [],
        "onep_conservation_priorities": [],
        "note": "The flowers are not decoration added to an old quarter; they are the machine that keeps it awake. Pak Khlong Talat still receives produce from across the country, sorts it through deep commercial rooms and turns an ordinary curb into a night economy.",
        "explorer_tip": "Go after 22:00, enter from Chak Phet Road and follow the handcarts rather than the camera crowd. The working section explains the architecture.",
        "source": "Phra Nakhon District, Bangkok Metropolitan Administration",
        "source_url": "https://webportal.bangkok.go.th/pranakorn/page/sub/22136/%E0%B8%9B%E0%B8%B2%E0%B8%81%E0%B8%84%E0%B8%A5%E0%B8%AD%E0%B8%87%E0%B8%95%E0%B8%A5%E0%B8%B2%E0%B8%94",
        "geometry_method": "OSM street axis",
        "geometry_confidence": "high",
        "feature_role": "cultural corridor"
      },
      "geometry": {
        "type": "LineString",
        "coordinates": [
          [
            100.49553,
            13.74072
          ],
          [
            100.49598,
            13.74131
          ],
          [
            100.49633,
            13.74171
          ],
          [
            100.49699,
            13.74255
          ]
        ]
      }
    },
    {
      "type": "Feature",
      "id": "pak-khlong-talat-anchor",
      "properties": {
        "slug": "pak-khlong-talat",
        "name_en": "Pak Khlong Talat night market rows",
        "name_th": "แนวตลาดปากคลองตลาด",
        "kind": "market row",
        "period": "Rama V market history; later masonry market fabric",
        "typology": "Wholesale flower-market shophouses and covered market edge",
        "evidence": "mapped corridor",
        "documented_units": null,
        "register_id": null,
        "onep_survey_ids": [],
        "onep_conservation_priorities": [],
        "note": "The flowers are not decoration added to an old quarter; they are the machine that keeps it awake. Pak Khlong Talat still receives produce from across the country, sorts it through deep commercial rooms and turns an ordinary curb into a night economy.",
        "explorer_tip": "Go after 22:00, enter from Chak Phet Road and follow the handcarts rather than the camera crowd. The working section explains the architecture.",
        "source": "Phra Nakhon District, Bangkok Metropolitan Administration",
        "source_url": "https://webportal.bangkok.go.th/pranakorn/page/sub/22136/%E0%B8%9B%E0%B8%B2%E0%B8%81%E0%B8%84%E0%B8%A5%E0%B8%AD%E0%B8%87%E0%B8%95%E0%B8%A5%E0%B8%B2%E0%B8%94",
        "geometry_method": "OSM street axis",
        "geometry_confidence": "high",
        "feature_role": "explorer anchor"
      },
      "geometry": {
        "type": "Point",
        "coordinates": [
          100.49633,
          13.74171
        ]
      }
    },
    {
      "type": "Feature",
      "id": "woeng-nakhon-khasem-corridor",
      "properties": {
        "slug": "woeng-nakhon-khasem",
        "name_en": "Woeng Nakhon Khasem",
        "name_th": "เวิ้งนครเกษม",
        "kind": "market row",
        "period": "Established late 19th century; redevelopment era",
        "typology": "Chinese commercial courtyard and perimeter shophouse block",
        "evidence": "published inventory",
        "documented_units": null,
        "register_id": null,
        "onep_survey_ids": [],
        "onep_conservation_priorities": [],
        "note": "This is the uncomfortable entry. Four generations made a specialist market here; land assembly and rail-led development then made continuity negotiable. Read the block as evidence of what Bangkok loses when conservation arrives after the transaction.",
        "explorer_tip": "Walk the full perimeter and compare the remaining street grain with the development footprint. This stop is about loss and negotiation, not nostalgia.",
        "source": "JARS: Design Process for Development and Conservation of Chinatown",
        "source_url": "https://doi.org/10.56261/jars.v11i2.30384",
        "geometry_method": "documented block extent",
        "geometry_confidence": "medium",
        "feature_role": "cultural corridor"
      },
      "geometry": {
        "type": "LineString",
        "coordinates": [
          [
            100.50347,
            13.74418
          ],
          [
            100.50562,
            13.74418
          ],
          [
            100.50562,
            13.74619
          ],
          [
            100.50347,
            13.74619
          ],
          [
            100.50347,
            13.74418
          ]
        ]
      }
    },
    {
      "type": "Feature",
      "id": "woeng-nakhon-khasem-anchor",
      "properties": {
        "slug": "woeng-nakhon-khasem",
        "name_en": "Woeng Nakhon Khasem",
        "name_th": "เวิ้งนครเกษม",
        "kind": "market row",
        "period": "Established late 19th century; redevelopment era",
        "typology": "Chinese commercial courtyard and perimeter shophouse block",
        "evidence": "published inventory",
        "documented_units": null,
        "register_id": null,
        "onep_survey_ids": [],
        "onep_conservation_priorities": [],
        "note": "This is the uncomfortable entry. Four generations made a specialist market here; land assembly and rail-led development then made continuity negotiable. Read the block as evidence of what Bangkok loses when conservation arrives after the transaction.",
        "explorer_tip": "Walk the full perimeter and compare the remaining street grain with the development footprint. This stop is about loss and negotiation, not nostalgia.",
        "source": "JARS: Design Process for Development and Conservation of Chinatown",
        "source_url": "https://doi.org/10.56261/jars.v11i2.30384",
        "geometry_method": "documented block extent",
        "geometry_confidence": "medium",
        "feature_role": "explorer anchor"
      },
      "geometry": {
        "type": "Point",
        "coordinates": [
          100.50445,
          13.7451
        ]
      }
    },
    {
      "type": "Feature",
      "id": "khlong-bang-luang-corridor",
      "properties": {
        "slug": "khlong-bang-luang",
        "name_en": "Khlong Bang Luang artist-house row",
        "name_th": "ชุมชนริมน้ำคลองบางหลวง–บ้านศิลปิน",
        "kind": "canal market",
        "period": "Historic canal settlement; century-old timber fabric",
        "typology": "Two-storey timber waterfront rooms and narrow canal-side walk",
        "evidence": "mapped corridor",
        "documented_units": null,
        "register_id": null,
        "onep_survey_ids": [],
        "onep_conservation_priorities": [],
        "note": "Here the shopfront faces a footpath barely wider than a conversation and the back of the building belongs to the water. The Artist's House is the known door; the real work is the ordinary inhabited row around it.",
        "explorer_tip": "Arrive on foot from Wat Kamphaeng, keep your voice low and continue beyond the famous house; the useful details are in thresholds, bridges and service edges.",
        "source": "Ministry of Foreign Affairs, Bangkok visitor guide",
        "source_url": "https://image.mfa.go.th/mfa/0/uK8Kxy2oDV/Bangkok_2019.pdf",
        "geometry_method": "curated connection",
        "geometry_confidence": "medium",
        "feature_role": "cultural corridor"
      },
      "geometry": {
        "type": "LineString",
        "coordinates": [
          [
            100.4619,
            13.72578
          ],
          [
            100.46248,
            13.72562
          ],
          [
            100.46302,
            13.72543
          ],
          [
            100.46398,
            13.72496
          ]
        ]
      }
    },
    {
      "type": "Feature",
      "id": "khlong-bang-luang-anchor",
      "properties": {
        "slug": "khlong-bang-luang",
        "name_en": "Khlong Bang Luang artist-house row",
        "name_th": "ชุมชนริมน้ำคลองบางหลวง–บ้านศิลปิน",
        "kind": "canal market",
        "period": "Historic canal settlement; century-old timber fabric",
        "typology": "Two-storey timber waterfront rooms and narrow canal-side walk",
        "evidence": "mapped corridor",
        "documented_units": null,
        "register_id": null,
        "onep_survey_ids": [],
        "onep_conservation_priorities": [],
        "note": "Here the shopfront faces a footpath barely wider than a conversation and the back of the building belongs to the water. The Artist's House is the known door; the real work is the ordinary inhabited row around it.",
        "explorer_tip": "Arrive on foot from Wat Kamphaeng, keep your voice low and continue beyond the famous house; the useful details are in thresholds, bridges and service edges.",
        "source": "Ministry of Foreign Affairs, Bangkok visitor guide",
        "source_url": "https://image.mfa.go.th/mfa/0/uK8Kxy2oDV/Bangkok_2019.pdf",
        "geometry_method": "curated connection",
        "geometry_confidence": "medium",
        "feature_role": "explorer anchor"
      },
      "geometry": {
        "type": "Point",
        "coordinates": [
          100.46302,
          13.72543
        ]
      }
    }
  ]
}
