{"type":"FeatureCollection","name":"bkk-hero-monuments","version":"2026-08-17.1","description":"Survey-informed procedural monument parts. Wat Arun uses current OSM footprints and the Fine Arts Department's published 82 m central envelope; tiering is interpretive.","modelStatus":"survey-informed schematic · not a measured conservation model","sourceConflict":"Fine Arts: 82 m; Tourism Authority of Thailand: 81 m; BMA Bangkok Yai: 67 m. The Fine Arts figure defines this model's envelope.","sources":[{"label":"Fine Arts Department publication","url":"https://www.finearts.go.th/storage/contents/2023/09/file/gC5gxouHsHKEl8WM0ywhLlkdrW3OR1WKmfpwoSM2.pdf"},{"label":"BMA Bangkok Yai record","url":"https://webportal.bangkok.go.th/public/bangkokyai/page/sub/1492"},{"label":"OpenStreetMap attribution","url":"https://www.openstreetmap.org/copyright"}],"featureCount":23,"features":[{"type":"Feature","geometry":{"type":"Polygon","coordinates":[[[100.4887351,13.7437125],[100.4887953,13.743825],[100.4888549,13.7438426],[100.4889197,13.7438633],[100.4890355,13.7438048],[100.4890556,13.7437432],[100.489075,13.7436839],[100.4890148,13.7435714],[100.4889545,13.7435534],[100.4888904,13.7435332],[100.4887745,13.7435916],[100.4887556,13.7436511],[100.4887351,13.7437125]]]},"properties":{"id":"wat-arun-central-base","hero_id":"wat-arun-prang-group","name":"พระปรางค์วัดอรุณราชวราราม","name_en":"Wat Arun prang group","part_label":"stepped base","kind":"hero_prang","height":12,"base_height":0,"material_color":"#e7d4aa","osm_id":23482275,"footprint_source":"OpenStreetMap way snapshot · 2026-08-17","height_source":"Fine Arts Department publication · 82 m overall envelope","height_confidence":"official-envelope","model_status":"survey-informed schematic","source":"Fine Arts Department official-height envelope + OSM footprint","source_url":"https://www.finearts.go.th/storage/contents/2023/09/file/gC5gxouHsHKEl8WM0ywhLlkdrW3OR1WKmfpwoSM2.pdf","source_note":"Fine Arts publishes 82 m; BMA publishes 67 m and TAT publishes 81 m. This model uses the Fine Arts envelope and does not resolve that source disagreement.","not_measured_survey":true}},{"type":"Feature","geometry":{"type":"Polygon","coordinates":[[[100.4887589,13.7437105],[100.4888107,13.7438072],[100.4888619,13.7438224],[100.4889177,13.7438402],[100.4890172,13.7437898],[100.4890345,13.7437369],[100.4890512,13.7436859],[100.4889994,13.7435891],[100.4889476,13.7435736],[100.4888925,13.7435563],[100.4887928,13.7436065],[100.4887765,13.7436577],[100.4887589,13.7437105]]]},"properties":{"id":"wat-arun-central-terrace","hero_id":"wat-arun-prang-group","name":"พระปรางค์วัดอรุณราชวราราม","name_en":"Wat Arun prang group","part_label":"processional terrace","kind":"hero_prang","height":24,"base_height":12,"material_color":"#c9ad78","osm_id":23482275,"footprint_source":"OpenStreetMap way snapshot · 2026-08-17","height_source":"Fine Arts Department publication · 82 m overall envelope","height_confidence":"official-envelope","model_status":"survey-informed schematic","source":"Fine Arts Department official-height envelope + OSM footprint","source_url":"https://www.finearts.go.th/storage/contents/2023/09/file/gC5gxouHsHKEl8WM0ywhLlkdrW3OR1WKmfpwoSM2.pdf","source_note":"Fine Arts publishes 82 m; BMA publishes 67 m and TAT publishes 81 m. This model uses the Fine Arts envelope and does not resolve that source disagreement.","not_measured_survey":true}},{"type":"Feature","geometry":{"type":"Polygon","coordinates":[[[100.4888031,13.7437067],[100.4888392,13.7437742],[100.488875,13.7437848],[100.4889139,13.7437972],[100.4889833,13.7437621],[100.4889954,13.7437251],[100.489007,13.7436895],[100.4889709,13.743622],[100.4889347,13.7436112],[100.4888963,13.7435991],[100.4888267,13.7436342],[100.4888154,13.7436699],[100.4888031,13.7437067]]]},"properties":{"id":"wat-arun-central-body","hero_id":"wat-arun-prang-group","name":"พระปรางค์วัดอรุณราชวราราม","name_en":"Wat Arun prang group","part_label":"central prang body","kind":"hero_prang","height":56,"base_height":24,"material_color":"#eee2c5","osm_id":23482275,"footprint_source":"OpenStreetMap way snapshot · 2026-08-17","height_source":"Fine Arts Department publication · 82 m overall envelope","height_confidence":"official-envelope","model_status":"survey-informed schematic","source":"Fine Arts Department official-height envelope + OSM footprint","source_url":"https://www.finearts.go.th/storage/contents/2023/09/file/gC5gxouHsHKEl8WM0ywhLlkdrW3OR1WKmfpwoSM2.pdf","source_note":"Fine Arts publishes 82 m; BMA publishes 67 m and TAT publishes 81 m. This model uses the Fine Arts envelope and does not resolve that source disagreement.","not_measured_survey":true}},{"type":"Feature","geometry":{"type":"Polygon","coordinates":[[[100.4888388,13.7437037],[100.4888623,13.7437475],[100.4888855,13.7437544],[100.4889108,13.7437625],[100.4889559,13.7437397],[100.4889638,13.7437156],[100.4889713,13.7436925],[100.4889479,13.7436486],[100.4889244,13.7436416],[100.4888994,13.7436337],[100.4888542,13.7436565],[100.4888468,13.7436797],[100.4888388,13.7437037]]]},"properties":{"id":"wat-arun-central-shoulder","hero_id":"wat-arun-prang-group","name":"พระปรางค์วัดอรุณราชวราราม","name_en":"Wat Arun prang group","part_label":"upper shoulder","kind":"hero_prang","height":68,"base_height":56,"material_color":"#b8a77e","osm_id":23482275,"footprint_source":"OpenStreetMap way snapshot · 2026-08-17","height_source":"Fine Arts Department publication · 82 m overall envelope","height_confidence":"official-envelope","model_status":"survey-informed schematic","source":"Fine Arts Department official-height envelope + OSM footprint","source_url":"https://www.finearts.go.th/storage/contents/2023/09/file/gC5gxouHsHKEl8WM0ywhLlkdrW3OR1WKmfpwoSM2.pdf","source_note":"Fine Arts publishes 82 m; BMA publishes 67 m and TAT publishes 81 m. This model uses the Fine Arts envelope and does not resolve that source disagreement.","not_measured_survey":true}},{"type":"Feature","geometry":{"type":"Polygon","coordinates":[[[100.4888592,13.7437019],[100.4888754,13.7437323],[100.4888915,13.743737],[100.488909,13.7437426],[100.4889403,13.7437268],[100.4889457,13.7437102],[100.488951,13.7436942],[100.4889347,13.7436638],[100.4889184,13.743659],[100.4889011,13.7436535],[100.4888698,13.7436693],[100.4888647,13.7436853],[100.4888592,13.7437019]]]},"properties":{"id":"wat-arun-central-crown","hero_id":"wat-arun-prang-group","name":"พระปรางค์วัดอรุณราชวราราม","name_en":"Wat Arun prang group","part_label":"crown","kind":"hero_prang","height":74,"base_height":68,"material_color":"#e9d39d","osm_id":23482275,"footprint_source":"OpenStreetMap way snapshot · 2026-08-17","height_source":"Fine Arts Department publication · 82 m overall envelope","height_confidence":"official-envelope","model_status":"survey-informed schematic","source":"Fine Arts Department official-height envelope + OSM footprint","source_url":"https://www.finearts.go.th/storage/contents/2023/09/file/gC5gxouHsHKEl8WM0ywhLlkdrW3OR1WKmfpwoSM2.pdf","source_note":"Fine Arts publishes 82 m; BMA publishes 67 m and TAT publishes 81 m. This model uses the Fine Arts envelope and does not resolve that source disagreement.","not_measured_survey":true}},{"type":"Feature","geometry":{"type":"Polygon","coordinates":[[[100.4888779,13.7437003],[100.4888875,13.7437183],[100.488897,13.7437211],[100.4889074,13.7437244],[100.4889259,13.7437151],[100.4889292,13.7437052],[100.4889323,13.7436957],[100.4889226,13.7436777],[100.488913,13.7436749],[100.4889027,13.7436716],[100.4888842,13.743681],[100.4888812,13.7436905],[100.4888779,13.7437003]]]},"properties":{"id":"wat-arun-central-spire","hero_id":"wat-arun-prang-group","name":"พระปรางค์วัดอรุณราชวราราม","name_en":"Wat Arun prang group","part_label":"spire","kind":"hero_prang","height":79,"base_height":74,"material_color":"#d8b85e","osm_id":23482275,"footprint_source":"OpenStreetMap way snapshot · 2026-08-17","height_source":"Fine Arts Department publication · 82 m overall envelope","height_confidence":"official-envelope","model_status":"survey-informed schematic","source":"Fine Arts Department official-height envelope + OSM footprint","source_url":"https://www.finearts.go.th/storage/contents/2023/09/file/gC5gxouHsHKEl8WM0ywhLlkdrW3OR1WKmfpwoSM2.pdf","source_note":"Fine Arts publishes 82 m; BMA publishes 67 m and TAT publishes 81 m. This model uses the Fine Arts envelope and does not resolve that source disagreement.","not_measured_survey":true}},{"type":"Feature","geometry":{"type":"Polygon","coordinates":[[[100.4888923,13.7436991],[100.4888968,13.7437075],[100.4889013,13.7437088],[100.4889062,13.7437104],[100.4889149,13.743706],[100.4889164,13.7437014],[100.4889178,13.7436969],[100.4889133,13.7436885],[100.4889088,13.7436872],[100.488904,13.7436856],[100.4888953,13.74369],[100.4888939,13.7436945],[100.4888923,13.7436991]]]},"properties":{"id":"wat-arun-central-finial","hero_id":"wat-arun-prang-group","name":"พระปรางค์วัดอรุณราชวราราม","name_en":"Wat Arun prang group","part_label":"gilded finial","kind":"hero_prang","height":82,"base_height":79,"material_color":"#f4c84d","osm_id":23482275,"footprint_source":"OpenStreetMap way snapshot · 2026-08-17","height_source":"Fine Arts Department publication · 82 m overall envelope","height_confidence":"official-envelope","model_status":"survey-informed schematic","source":"Fine Arts Department official-height envelope + OSM footprint","source_url":"https://www.finearts.go.th/storage/contents/2023/09/file/gC5gxouHsHKEl8WM0ywhLlkdrW3OR1WKmfpwoSM2.pdf","source_note":"Fine Arts publishes 82 m; BMA publishes 67 m and TAT publishes 81 m. This model uses the Fine Arts envelope and does not resolve that source disagreement.","not_measured_survey":true}},{"type":"Feature","geometry":{"type":"Polygon","coordinates":[[[100.4886219,13.743844],[100.4886109,13.7438245],[100.4886232,13.7437831],[100.4886434,13.7437723],[100.4886861,13.7437843],[100.4886971,13.7438039],[100.4886848,13.7438454],[100.4886646,13.7438561],[100.4886219,13.743844]]]},"properties":{"id":"wat-arun-satellite-1-base","hero_id":"wat-arun-prang-group","name":"พระปรางค์วัดอรุณราชวราราม","name_en":"Wat Arun prang group","part_label":"satellite base 1","kind":"satellite_prang","height":10,"base_height":0,"material_color":"#d9c69f","osm_id":1148151954,"footprint_source":"OpenStreetMap way snapshot · 2026-08-17","height_source":"proportional schematic · 51% of central envelope","height_confidence":"interpretive-proportion","model_status":"survey-informed schematic","source":"OSM footprint + BKKx proportional tiering","source_url":"https://www.finearts.go.th/storage/contents/2023/09/file/gC5gxouHsHKEl8WM0ywhLlkdrW3OR1WKmfpwoSM2.pdf","source_note":"Fine Arts publishes 82 m; BMA publishes 67 m and TAT publishes 81 m. This model uses the Fine Arts envelope and does not resolve that source disagreement.","not_measured_survey":true}},{"type":"Feature","geometry":{"type":"Polygon","coordinates":[[[100.4886335,13.7438333],[100.4886264,13.7438208],[100.4886343,13.7437943],[100.4886472,13.7437874],[100.4886745,13.7437951],[100.4886816,13.7438076],[100.4886737,13.7438342],[100.4886608,13.743841],[100.4886335,13.7438333]]]},"properties":{"id":"wat-arun-satellite-1-body","hero_id":"wat-arun-prang-group","name":"พระปรางค์วัดอรุณราชวราราม","name_en":"Wat Arun prang group","part_label":"satellite body 1","kind":"satellite_prang","height":28,"base_height":10,"material_color":"#e9ddc1","osm_id":1148151954,"footprint_source":"OpenStreetMap way snapshot · 2026-08-17","height_source":"proportional schematic · 51% of central envelope","height_confidence":"interpretive-proportion","model_status":"survey-informed schematic","source":"OSM footprint + BKKx proportional tiering","source_url":"https://www.finearts.go.th/storage/contents/2023/09/file/gC5gxouHsHKEl8WM0ywhLlkdrW3OR1WKmfpwoSM2.pdf","source_note":"Fine Arts publishes 82 m; BMA publishes 67 m and TAT publishes 81 m. This model uses the Fine Arts envelope and does not resolve that source disagreement.","not_measured_survey":true}},{"type":"Feature","geometry":{"type":"Polygon","coordinates":[[[100.4886431,13.7438243],[100.4886393,13.7438177],[100.4886435,13.7438036],[100.4886504,13.7438],[100.4886649,13.743804],[100.4886687,13.7438107],[100.4886645,13.7438248],[100.4886576,13.7438284],[100.4886431,13.7438243]]]},"properties":{"id":"wat-arun-satellite-1-crown","hero_id":"wat-arun-prang-group","name":"พระปรางค์วัดอรุณราชวราราม","name_en":"Wat Arun prang group","part_label":"satellite crown 1","kind":"satellite_prang","height":36,"base_height":28,"material_color":"#c5aa74","osm_id":1148151954,"footprint_source":"OpenStreetMap way snapshot · 2026-08-17","height_source":"proportional schematic · 51% of central envelope","height_confidence":"interpretive-proportion","model_status":"survey-informed schematic","source":"OSM footprint + BKKx proportional tiering","source_url":"https://www.finearts.go.th/storage/contents/2023/09/file/gC5gxouHsHKEl8WM0ywhLlkdrW3OR1WKmfpwoSM2.pdf","source_note":"Fine Arts publishes 82 m; BMA publishes 67 m and TAT publishes 81 m. This model uses the Fine Arts envelope and does not resolve that source disagreement.","not_measured_survey":true}},{"type":"Feature","geometry":{"type":"Polygon","coordinates":[[[100.4886501,13.7438178],[100.4886488,13.7438154],[100.4886503,13.7438105],[100.4886527,13.7438092],[100.4886579,13.7438106],[100.4886592,13.743813],[100.4886577,13.7438179],[100.4886553,13.7438192],[100.4886501,13.7438178]]]},"properties":{"id":"wat-arun-satellite-1-spire","hero_id":"wat-arun-prang-group","name":"พระปรางค์วัดอรุณราชวราราม","name_en":"Wat Arun prang group","part_label":"satellite spire 1","kind":"satellite_prang","height":42,"base_height":36,"material_color":"#e8bd50","osm_id":1148151954,"footprint_source":"OpenStreetMap way snapshot · 2026-08-17","height_source":"proportional schematic · 51% of central envelope","height_confidence":"interpretive-proportion","model_status":"survey-informed schematic","source":"OSM footprint + BKKx proportional tiering","source_url":"https://www.finearts.go.th/storage/contents/2023/09/file/gC5gxouHsHKEl8WM0ywhLlkdrW3OR1WKmfpwoSM2.pdf","source_note":"Fine Arts publishes 82 m; BMA publishes 67 m and TAT publishes 81 m. This model uses the Fine Arts envelope and does not resolve that source disagreement.","not_measured_survey":true}},{"type":"Feature","geometry":{"type":"Polygon","coordinates":[[[100.4889914,13.7439615],[100.4889802,13.7439419],[100.4889927,13.7439006],[100.4890129,13.7438897],[100.4890555,13.7439018],[100.4890666,13.7439214],[100.4890541,13.7439628],[100.4890339,13.7439736],[100.4889914,13.7439615]]]},"properties":{"id":"wat-arun-satellite-2-base","hero_id":"wat-arun-prang-group","name":"พระปรางค์วัดอรุณราชวราราม","name_en":"Wat Arun prang group","part_label":"satellite base 2","kind":"satellite_prang","height":10,"base_height":0,"material_color":"#d9c69f","osm_id":1148151955,"footprint_source":"OpenStreetMap way snapshot · 2026-08-17","height_source":"proportional schematic · 51% of central envelope","height_confidence":"interpretive-proportion","model_status":"survey-informed schematic","source":"OSM footprint + BKKx proportional tiering","source_url":"https://www.finearts.go.th/storage/contents/2023/09/file/gC5gxouHsHKEl8WM0ywhLlkdrW3OR1WKmfpwoSM2.pdf","source_note":"Fine Arts publishes 82 m; BMA publishes 67 m and TAT publishes 81 m. This model uses the Fine Arts envelope and does not resolve that source disagreement.","not_measured_survey":true}},{"type":"Feature","geometry":{"type":"Polygon","coordinates":[[[100.4890029,13.7439508],[100.4889958,13.7439382],[100.4890038,13.7439118],[100.4890167,13.7439048],[100.4890439,13.7439126],[100.4890511,13.7439251],[100.4890431,13.7439516],[100.4890301,13.7439585],[100.4890029,13.7439508]]]},"properties":{"id":"wat-arun-satellite-2-body","hero_id":"wat-arun-prang-group","name":"พระปรางค์วัดอรุณราชวราราม","name_en":"Wat Arun prang group","part_label":"satellite body 2","kind":"satellite_prang","height":28,"base_height":10,"material_color":"#e9ddc1","osm_id":1148151955,"footprint_source":"OpenStreetMap way snapshot · 2026-08-17","height_source":"proportional schematic · 51% of central envelope","height_confidence":"interpretive-proportion","model_status":"survey-informed schematic","source":"OSM footprint + BKKx proportional tiering","source_url":"https://www.finearts.go.th/storage/contents/2023/09/file/gC5gxouHsHKEl8WM0ywhLlkdrW3OR1WKmfpwoSM2.pdf","source_note":"Fine Arts publishes 82 m; BMA publishes 67 m and TAT publishes 81 m. This model uses the Fine Arts envelope and does not resolve that source disagreement.","not_measured_survey":true}},{"type":"Feature","geometry":{"type":"Polygon","coordinates":[[[100.4890125,13.7439418],[100.4890087,13.7439351],[100.489013,13.7439211],[100.4890198,13.7439174],[100.4890343,13.7439215],[100.4890381,13.7439282],[100.4890338,13.7439422],[100.489027,13.7439459],[100.4890125,13.7439418]]]},"properties":{"id":"wat-arun-satellite-2-crown","hero_id":"wat-arun-prang-group","name":"พระปรางค์วัดอรุณราชวราราม","name_en":"Wat Arun prang group","part_label":"satellite crown 2","kind":"satellite_prang","height":36,"base_height":28,"material_color":"#c5aa74","osm_id":1148151955,"footprint_source":"OpenStreetMap way snapshot · 2026-08-17","height_source":"proportional schematic · 51% of central envelope","height_confidence":"interpretive-proportion","model_status":"survey-informed schematic","source":"OSM footprint + BKKx proportional tiering","source_url":"https://www.finearts.go.th/storage/contents/2023/09/file/gC5gxouHsHKEl8WM0ywhLlkdrW3OR1WKmfpwoSM2.pdf","source_note":"Fine Arts publishes 82 m; BMA publishes 67 m and TAT publishes 81 m. This model uses the Fine Arts envelope and does not resolve that source disagreement.","not_measured_survey":true}},{"type":"Feature","geometry":{"type":"Polygon","coordinates":[[[100.4890196,13.7439352],[100.4890182,13.7439329],[100.4890197,13.7439279],[100.4890222,13.7439266],[100.4890273,13.7439281],[100.4890286,13.7439304],[100.4890271,13.7439354],[100.4890247,13.7439367],[100.4890196,13.7439352]]]},"properties":{"id":"wat-arun-satellite-2-spire","hero_id":"wat-arun-prang-group","name":"พระปรางค์วัดอรุณราชวราราม","name_en":"Wat Arun prang group","part_label":"satellite spire 2","kind":"satellite_prang","height":42,"base_height":36,"material_color":"#e8bd50","osm_id":1148151955,"footprint_source":"OpenStreetMap way snapshot · 2026-08-17","height_source":"proportional schematic · 51% of central envelope","height_confidence":"interpretive-proportion","model_status":"survey-informed schematic","source":"OSM footprint + BKKx proportional tiering","source_url":"https://www.finearts.go.th/storage/contents/2023/09/file/gC5gxouHsHKEl8WM0ywhLlkdrW3OR1WKmfpwoSM2.pdf","source_note":"Fine Arts publishes 82 m; BMA publishes 67 m and TAT publishes 81 m. This model uses the Fine Arts envelope and does not resolve that source disagreement.","not_measured_survey":true}},{"type":"Feature","geometry":{"type":"Polygon","coordinates":[[[100.4891151,13.743606],[100.489104,13.7435864],[100.4891164,13.7435449],[100.4891365,13.7435342],[100.4891792,13.7435463],[100.4891902,13.7435658],[100.4891779,13.7436073],[100.4891577,13.743618],[100.4891151,13.743606]]]},"properties":{"id":"wat-arun-satellite-3-base","hero_id":"wat-arun-prang-group","name":"พระปรางค์วัดอรุณราชวราราม","name_en":"Wat Arun prang group","part_label":"satellite base 3","kind":"satellite_prang","height":10,"base_height":0,"material_color":"#d9c69f","osm_id":1148151956,"footprint_source":"OpenStreetMap way snapshot · 2026-08-17","height_source":"proportional schematic · 51% of central envelope","height_confidence":"interpretive-proportion","model_status":"survey-informed schematic","source":"OSM footprint + BKKx proportional tiering","source_url":"https://www.finearts.go.th/storage/contents/2023/09/file/gC5gxouHsHKEl8WM0ywhLlkdrW3OR1WKmfpwoSM2.pdf","source_note":"Fine Arts publishes 82 m; BMA publishes 67 m and TAT publishes 81 m. This model uses the Fine Arts envelope and does not resolve that source disagreement.","not_measured_survey":true}},{"type":"Feature","geometry":{"type":"Polygon","coordinates":[[[100.4891266,13.7435952],[100.4891195,13.7435827],[100.4891275,13.7435561],[100.4891403,13.7435493],[100.4891677,13.743557],[100.4891747,13.7435695],[100.4891668,13.7435961],[100.4891539,13.7436029],[100.4891266,13.7435952]]]},"properties":{"id":"wat-arun-satellite-3-body","hero_id":"wat-arun-prang-group","name":"พระปรางค์วัดอรุณราชวราราม","name_en":"Wat Arun prang group","part_label":"satellite body 3","kind":"satellite_prang","height":28,"base_height":10,"material_color":"#e9ddc1","osm_id":1148151956,"footprint_source":"OpenStreetMap way snapshot · 2026-08-17","height_source":"proportional schematic · 51% of central envelope","height_confidence":"interpretive-proportion","model_status":"survey-informed schematic","source":"OSM footprint + BKKx proportional tiering","source_url":"https://www.finearts.go.th/storage/contents/2023/09/file/gC5gxouHsHKEl8WM0ywhLlkdrW3OR1WKmfpwoSM2.pdf","source_note":"Fine Arts publishes 82 m; BMA publishes 67 m and TAT publishes 81 m. This model uses the Fine Arts envelope and does not resolve that source disagreement.","not_measured_survey":true}},{"type":"Feature","geometry":{"type":"Polygon","coordinates":[[[100.4891362,13.7435863],[100.4891325,13.7435796],[100.4891367,13.7435655],[100.4891435,13.7435619],[100.489158,13.743566],[100.4891618,13.7435726],[100.4891576,13.7435867],[100.4891507,13.7435904],[100.4891362,13.7435863]]]},"properties":{"id":"wat-arun-satellite-3-crown","hero_id":"wat-arun-prang-group","name":"พระปรางค์วัดอรุณราชวราราม","name_en":"Wat Arun prang group","part_label":"satellite crown 3","kind":"satellite_prang","height":36,"base_height":28,"material_color":"#c5aa74","osm_id":1148151956,"footprint_source":"OpenStreetMap way snapshot · 2026-08-17","height_source":"proportional schematic · 51% of central envelope","height_confidence":"interpretive-proportion","model_status":"survey-informed schematic","source":"OSM footprint + BKKx proportional tiering","source_url":"https://www.finearts.go.th/storage/contents/2023/09/file/gC5gxouHsHKEl8WM0ywhLlkdrW3OR1WKmfpwoSM2.pdf","source_note":"Fine Arts publishes 82 m; BMA publishes 67 m and TAT publishes 81 m. This model uses the Fine Arts envelope and does not resolve that source disagreement.","not_measured_survey":true}},{"type":"Feature","geometry":{"type":"Polygon","coordinates":[[[100.4891433,13.7435797],[100.4891419,13.7435773],[100.4891434,13.7435724],[100.4891458,13.7435711],[100.489151,13.7435725],[100.4891523,13.7435749],[100.4891508,13.7435799],[100.4891484,13.7435811],[100.4891433,13.7435797]]]},"properties":{"id":"wat-arun-satellite-3-spire","hero_id":"wat-arun-prang-group","name":"พระปรางค์วัดอรุณราชวราราม","name_en":"Wat Arun prang group","part_label":"satellite spire 3","kind":"satellite_prang","height":42,"base_height":36,"material_color":"#e8bd50","osm_id":1148151956,"footprint_source":"OpenStreetMap way snapshot · 2026-08-17","height_source":"proportional schematic · 51% of central envelope","height_confidence":"interpretive-proportion","model_status":"survey-informed schematic","source":"OSM footprint + BKKx proportional tiering","source_url":"https://www.finearts.go.th/storage/contents/2023/09/file/gC5gxouHsHKEl8WM0ywhLlkdrW3OR1WKmfpwoSM2.pdf","source_note":"Fine Arts publishes 82 m; BMA publishes 67 m and TAT publishes 81 m. This model uses the Fine Arts envelope and does not resolve that source disagreement.","not_measured_survey":true}},{"type":"Feature","geometry":{"type":"Polygon","coordinates":[[[100.4887497,13.7434851],[100.4887386,13.7434656],[100.488751,13.7434242],[100.4887711,13.7434134],[100.4888138,13.7434255],[100.4888248,13.743445],[100.4888125,13.7434865],[100.4887923,13.7434972],[100.4887497,13.7434851]]]},"properties":{"id":"wat-arun-satellite-4-base","hero_id":"wat-arun-prang-group","name":"พระปรางค์วัดอรุณราชวราราม","name_en":"Wat Arun prang group","part_label":"satellite base 4","kind":"satellite_prang","height":10,"base_height":0,"material_color":"#d9c69f","osm_id":1148151957,"footprint_source":"OpenStreetMap way snapshot · 2026-08-17","height_source":"proportional schematic · 51% of central envelope","height_confidence":"interpretive-proportion","model_status":"survey-informed schematic","source":"OSM footprint + BKKx proportional tiering","source_url":"https://www.finearts.go.th/storage/contents/2023/09/file/gC5gxouHsHKEl8WM0ywhLlkdrW3OR1WKmfpwoSM2.pdf","source_note":"Fine Arts publishes 82 m; BMA publishes 67 m and TAT publishes 81 m. This model uses the Fine Arts envelope and does not resolve that source disagreement.","not_measured_survey":true}},{"type":"Feature","geometry":{"type":"Polygon","coordinates":[[[100.4887612,13.7434744],[100.4887541,13.7434619],[100.4887621,13.7434354],[100.4887749,13.7434285],[100.4888023,13.7434362],[100.4888093,13.7434487],[100.4888014,13.7434753],[100.4887885,13.7434821],[100.4887612,13.7434744]]]},"properties":{"id":"wat-arun-satellite-4-body","hero_id":"wat-arun-prang-group","name":"พระปรางค์วัดอรุณราชวราราม","name_en":"Wat Arun prang group","part_label":"satellite body 4","kind":"satellite_prang","height":28,"base_height":10,"material_color":"#e9ddc1","osm_id":1148151957,"footprint_source":"OpenStreetMap way snapshot · 2026-08-17","height_source":"proportional schematic · 51% of central envelope","height_confidence":"interpretive-proportion","model_status":"survey-informed schematic","source":"OSM footprint + BKKx proportional tiering","source_url":"https://www.finearts.go.th/storage/contents/2023/09/file/gC5gxouHsHKEl8WM0ywhLlkdrW3OR1WKmfpwoSM2.pdf","source_note":"Fine Arts publishes 82 m; BMA publishes 67 m and TAT publishes 81 m. This model uses the Fine Arts envelope and does not resolve that source disagreement.","not_measured_survey":true}},{"type":"Feature","geometry":{"type":"Polygon","coordinates":[[[100.4887708,13.7434654],[100.4887671,13.7434588],[100.4887713,13.7434447],[100.4887781,13.7434411],[100.4887926,13.7434452],[100.4887964,13.7434518],[100.4887922,13.7434659],[100.4887853,13.7434696],[100.4887708,13.7434654]]]},"properties":{"id":"wat-arun-satellite-4-crown","hero_id":"wat-arun-prang-group","name":"พระปรางค์วัดอรุณราชวราราม","name_en":"Wat Arun prang group","part_label":"satellite crown 4","kind":"satellite_prang","height":36,"base_height":28,"material_color":"#c5aa74","osm_id":1148151957,"footprint_source":"OpenStreetMap way snapshot · 2026-08-17","height_source":"proportional schematic · 51% of central envelope","height_confidence":"interpretive-proportion","model_status":"survey-informed schematic","source":"OSM footprint + BKKx proportional tiering","source_url":"https://www.finearts.go.th/storage/contents/2023/09/file/gC5gxouHsHKEl8WM0ywhLlkdrW3OR1WKmfpwoSM2.pdf","source_note":"Fine Arts publishes 82 m; BMA publishes 67 m and TAT publishes 81 m. This model uses the Fine Arts envelope and does not resolve that source disagreement.","not_measured_survey":true}},{"type":"Feature","geometry":{"type":"Polygon","coordinates":[[[100.4887779,13.7434589],[100.4887765,13.7434565],[100.488778,13.7434516],[100.4887804,13.7434503],[100.4887856,13.7434517],[100.4887869,13.7434541],[100.4887854,13.7434591],[100.488783,13.7434603],[100.4887779,13.7434589]]]},"properties":{"id":"wat-arun-satellite-4-spire","hero_id":"wat-arun-prang-group","name":"พระปรางค์วัดอรุณราชวราราม","name_en":"Wat Arun prang group","part_label":"satellite spire 4","kind":"satellite_prang","height":42,"base_height":36,"material_color":"#e8bd50","osm_id":1148151957,"footprint_source":"OpenStreetMap way snapshot · 2026-08-17","height_source":"proportional schematic · 51% of central envelope","height_confidence":"interpretive-proportion","model_status":"survey-informed schematic","source":"OSM footprint + BKKx proportional tiering","source_url":"https://www.finearts.go.th/storage/contents/2023/09/file/gC5gxouHsHKEl8WM0ywhLlkdrW3OR1WKmfpwoSM2.pdf","source_note":"Fine Arts publishes 82 m; BMA publishes 67 m and TAT publishes 81 m. This model uses the Fine Arts envelope and does not resolve that source disagreement.","not_measured_survey":true}}]}
