{"type":"FeatureCollection","name":"bkk-landmarks","version":"2026-08-10","description":"Curated landmark extrusions: Victory Monument 50 m shaft, Democracy Monument, Golden Mount (~60 m), and Rattanakosin heritage height overrides. Pair with bkk-heritage-detail.geojson.","featureCount":73,"features":[{"type":"Feature","geometry":{"type":"Polygon","coordinates":[[[100.5015711,13.7566905],[100.5015842,13.7566059],[100.5016246,13.7565298],[100.5016881,13.7564704],[100.5017678,13.7564339],[100.5018573,13.7564244],[100.501945,13.756444],[100.5019783,13.7564643],[100.5020213,13.7564904],[100.5020777,13.7565586],[100.5021078,13.756641],[100.5021085,13.7567284],[100.5020796,13.7568112],[100.5020243,13.7568802],[100.5019488,13.7569278],[100.5018633,13.7569485],[100.5017755,13.7569414],[100.5016946,13.7569072],[100.5016294,13.7568496],[100.5015867,13.7567748],[100.5015711,13.7566905]]]},"properties":{"id":"landmark-democracy-monument","osm_id":178329973,"name":"อนุสาวรีย์ประชาธิปไตย","name_en":"Democracy Monument","kind":"monument","height":24,"base_height":0,"source":"OSM way 178329973 · schematic wing massing"}},{"type":"Feature","geometry":{"type":"Polygon","coordinates":[[[100.50188831283683,13.756676115],[100.5018862759149,13.756688606703868],[100.50188036453726,13.756699875632728],[100.50187115735072,13.756708818705306],[100.50185955561885,13.756714560511348],[100.501846695,13.756716539002873],[100.50183383438115,13.756714560511348],[100.50182223264927,13.756708818705306],[100.50181302546274,13.756699875632728],[100.5018071140851,13.756688606703868],[100.50180507716317,13.756676115],[100.5018071140851,13.75666362329613],[100.50181302546274,13.75665235436727],[100.50182223264927,13.756643411294693],[100.50183383438115,13.75663766948865],[100.501846695,13.756635690997125],[100.50185955561885,13.75663766948865],[100.50187115735072,13.756643411294693],[100.50188036453726,13.75665235436727],[100.5018862759149,13.75666362329613],[100.50188831283683,13.756676115]]]},"properties":{"id":"landmark-democracy-core","name":"อนุสาวรีย์ประชาธิปไตย (ศูนย์กลาง)","name_en":"Democracy Monument core","kind":"monument","height":28,"base_height":0,"source":"schematic central pedestal"}},{"type":"Feature","geometry":{"type":"Polygon","coordinates":[[[100.50701668714356,13.753849642857144],[100.50701176950001,13.753904239391625],[100.50699716598949,13.753957177038032],[100.50697332033224,13.754006847312768],[100.50694095706652,13.754051741009668],[100.50690105953377,13.754090494056472],[100.50685484000036,13.75412192896146],[100.50680370282338,13.754145090590953],[100.5067492017801,13.754159275190556],[100.50669299285714,13.754164051768392],[100.50663678393418,13.754159275190556],[100.5065822828909,13.754145090590953],[100.50653114571392,13.75412192896146],[100.5064849261805,13.754090494056472],[100.50644502864776,13.754051741009668],[100.50641266538204,13.754006847312768],[100.50638881972479,13.753957177038032],[100.50637421621427,13.753904239391625],[100.50636929857072,13.753849642857144],[100.50637421621427,13.753795046322663],[100.50638881972479,13.753742108676256],[100.50641266538204,13.75369243840152],[100.50644502864776,13.75364754470462],[100.5064849261805,13.753608791657816],[100.50653114571392,13.753577356752828],[100.5065822828909,13.753554195123336],[100.50663678393418,13.753540010523732],[100.50669299285714,13.753535233945897],[100.5067492017801,13.753540010523732],[100.50680370282338,13.753554195123336],[100.50685484000036,13.753577356752828],[100.50690105953377,13.753608791657816],[100.50694095706652,13.75364754470462],[100.50697332033224,13.75369243840152],[100.50699716598949,13.753742108676256],[100.50701176950001,13.753795046322663],[100.50701668714356,13.753849642857144]]]},"properties":{"id":"landmark-golden-mount","name":"ภูเขาทอง","name_en":"Golden Mount","kind":"golden_mount","height":45,"base_height":0,"source":"schematic artificial hill under Wat Saket chedi"}},{"type":"Feature","geometry":{"type":"Polygon","coordinates":[[[100.5067669801226,13.753849642857144],[100.50676335892808,13.75387185033069],[100.50675284981227,13.753891883981995],[100.50673648148064,13.753907782777688],[100.50671585617954,13.753917990432875],[100.50669299285714,13.753921507751144],[100.50667012953474,13.753917990432875],[100.50664950423364,13.753907782777688],[100.506633135902,13.753891883981995],[100.5066226267862,13.75387185033069],[100.50661900559167,13.753849642857144],[100.5066226267862,13.753827435383599],[100.506633135902,13.753807401732294],[100.50664950423364,13.7537915029366],[100.50667012953474,13.753781295281414],[100.50669299285714,13.753777777963144],[100.50671585617954,13.753781295281414],[100.50673648148064,13.7537915029366],[100.50675284981227,13.753807401732294],[100.50676335892808,13.753827435383599],[100.5067669801226,13.753849642857144]]]},"properties":{"id":"landmark-golden-mount-chedi","name":"พระบรมบรรพต","name_en":"Golden Mount Chedi","kind":"chedi","height":45,"base_height":0,"source":"schematic hill-top drum under the stacked chedi · hero parts carry the 45–60 m silhouette"}},{"type":"Feature","geometry":{"type":"Polygon","coordinates":[[[100.53840748228255,13.76493],[100.53840588814079,13.764949673755934],[100.53840114496857,13.764968863078703],[100.53839336955852,13.764987095463496],[100.53838275336706,13.765003921968487],[100.53836955780004,13.765018928269283],[100.53835410777612,13.765031744860952],[100.53833678372617,13.765042056156473],[100.53831801222579,13.765049608257529],[100.53829825549161,13.765054215206327],[100.538278,13.765055763564499],[100.5382577445084,13.765054215206327],[100.53823798777422,13.765049608257529],[100.53821921627384,13.765042056156473],[100.5382018922239,13.765031744860952],[100.53818644219997,13.765018928269283],[100.53817324663295,13.765003921968487],[100.53816263044149,13.764987095463496],[100.53815485503144,13.764968863078703],[100.53815011185922,13.764949673755934],[100.53814851771746,13.76493],[100.53815011185922,13.764910326244065],[100.53815485503144,13.764891136921296],[100.53816263044149,13.764872904536503],[100.53817324663295,13.764856078031512],[100.53818644219997,13.764841071730716],[100.5382018922239,13.764828255139047],[100.53821921627384,13.764817943843527],[100.53823798777422,13.76481039174247],[100.5382577445084,13.764805784793673],[100.538278,13.7648042364355],[100.53829825549161,13.764805784793673],[100.53831801222579,13.76481039174247],[100.53833678372617,13.764817943843527],[100.53835410777612,13.764828255139047],[100.53836955780004,13.764841071730716],[100.53838275336706,13.764856078031512],[100.53839336955852,13.764872904536503],[100.53840114496857,13.764891136921296],[100.53840588814079,13.764910326244065],[100.53840748228255,13.76493]]]},"properties":{"id":"landmark-victory-monument-base","osm_id":158185227,"name":"อนุสาวรีย์ชัยสมรภูมิ (ฐาน)","name_en":"Victory Monument base","kind":"monument","height":6,"base_height":0,"source":"schematic podium under 50 m shaft"}},{"type":"Feature","geometry":{"type":"Polygon","coordinates":[[[100.538278,13.764983359683795],[100.53822575134906,13.764946489049107],[100.53824570855785,13.764886831108996],[100.53831029144216,13.764886831108996],[100.53833024865095,13.764946489049107],[100.538278,13.764983359683795]]]},"properties":{"id":"landmark-victory-monument","osm_id":158185227,"name":"อนุสาวรีย์ชัยสมรภูมิ","name_en":"Victory Monument","kind":"monument","height":50,"base_height":0,"source":"schematic 5-bayonet shaft · Fine Arts Dept. height ≈50 m"}},{"type":"Feature","geometry":{"type":"Polygon","coordinates":[[[100.492334,13.7510396],[100.4923207,13.7512873],[100.4928781,13.7513153],[100.4928913,13.7510676],[100.492334,13.7510396]]]},"properties":{"id":"bkk-building-23482983","name":"พระอุโบสถ","name_en":"","kind":"heritage","building_type":"temple","height":22,"base_height":0,"source":"heritage height override"}},{"type":"Feature","geometry":{"type":"Polygon","coordinates":[[[100.4924608,13.7518782],[100.4924581,13.7519131],[100.4924368,13.7519116],[100.4924307,13.7519927],[100.4924461,13.7519938],[100.4924413,13.7520575],[100.4925241,13.7520634],[100.4925284,13.7520061],[100.4925459,13.7520073],[100.4925521,13.7519255],[100.4925323,13.7519241],[100.4925354,13.7518835],[100.4924608,13.7518782]]]},"properties":{"id":"bkk-building-23482987","name":"พระวิหารยอด","name_en":"","kind":"viharn","building_type":"temple","height":16,"base_height":0,"source":"heritage height override"}},{"type":"Feature","geometry":{"type":"Polygon","coordinates":[[[100.492314,13.7515522],[100.4922906,13.7515474],[100.4922826,13.7515483],[100.4922668,13.7515502],[100.4922449,13.7515606],[100.4922278,13.7515772],[100.4922172,13.7515984],[100.4922143,13.7516218],[100.4922194,13.7516448],[100.492232,13.751665],[100.4922507,13.75168],[100.4922734,13.7516883],[100.4922977,13.7516889],[100.4923205,13.751682],[100.4923399,13.7516682],[100.4923536,13.7516491],[100.4923602,13.7516267],[100.4923591,13.7516034],[100.4923502,13.7515818],[100.4923347,13.7515641],[100.492314,13.7515522]]]},"properties":{"id":"bkk-building-23482988","name":"พระศรีรัตนเจดีย์","name_en":"","kind":"heritage","building_type":"temple","height":42,"base_height":0,"source":"heritage height override"}},{"type":"Feature","geometry":{"type":"Polygon","coordinates":[[[100.4924239,13.7515496],[100.4924174,13.7516781],[100.4924797,13.7516811],[100.4925424,13.7516841],[100.4925489,13.7515556],[100.4924239,13.7515496]]]},"properties":{"id":"bkk-building-23482989","name":"พระมณฑป","name_en":"","kind":"heritage","building_type":"temple","height":28,"base_height":0,"source":"heritage height override"}},{"type":"Feature","geometry":{"type":"Polygon","coordinates":[[[100.4926393,13.751496],[100.4926355,13.7515781],[100.4925818,13.7515758],[100.4925767,13.7516832],[100.4926279,13.7516855],[100.4926234,13.7517805],[100.49269,13.7517835],[100.4927744,13.7517873],[100.4927788,13.7516927],[100.4928747,13.7516969],[100.4928792,13.7516009],[100.4927943,13.7515971],[100.4927988,13.751503],[100.4926393,13.751496]]]},"properties":{"id":"bkk-building-23482990","name":"ปราสาทพระเทพบิดร","name_en":"","kind":"heritage","building_type":"temple","height":32,"base_height":0,"source":"heritage height override"}},{"type":"Feature","geometry":{"type":"Polygon","coordinates":[[[100.4930156,13.7521189],[100.4930379,13.7521445],[100.4930718,13.7521472],[100.4930972,13.7521267],[100.4931008,13.7520898],[100.4930773,13.7520635],[100.4930443,13.7520615],[100.4930195,13.7520813],[100.4930156,13.7521189]]]},"properties":{"id":"bkk-building-23482991","name":"พระสัมมาสัมพุทธมหาเจดีย์","name_en":"","kind":"chedi","building_type":"temple","height":40,"base_height":0,"source":"heritage height override"}},{"type":"Feature","geometry":{"type":"Polygon","coordinates":[[[100.4930408,13.7519426],[100.4930638,13.7519677],[100.4930975,13.7519702],[100.4931232,13.7519503],[100.4931276,13.7519157],[100.4931027,13.7518877],[100.4930703,13.7518857],[100.493045,13.7519046],[100.4930408,13.7519426]]]},"properties":{"id":"bkk-building-23482992","name":"พระสัทธรรมปริยัติวรมหาเจดีย์","name_en":"","kind":"chedi","building_type":"temple","height":40,"base_height":0,"source":"heritage height override"}},{"type":"Feature","geometry":{"type":"Polygon","coordinates":[[[100.4930486,13.7517772],[100.4930689,13.7518042],[100.4931026,13.7518092],[100.4931294,13.7517905],[100.4931356,13.751754],[100.493114,13.7517262],[100.4930812,13.751722],[100.4930551,13.75174],[100.4930486,13.7517772]]]},"properties":{"id":"bkk-building-23482993","name":"พระอริยสงฆ์สาวกมหาเจดีย์","name_en":"","kind":"chedi","building_type":"temple","height":40,"base_height":0,"source":"heritage height override"}},{"type":"Feature","geometry":{"type":"Polygon","coordinates":[[[100.4930777,13.7516026],[100.4930973,13.7516301],[100.4931308,13.7516361],[100.4931582,13.7516181],[100.4931654,13.7515817],[100.4931446,13.7515534],[100.493112,13.7515481],[100.4930854,13.7515655],[100.4930777,13.7516026]]]},"properties":{"id":"bkk-building-23482994","name":"พระอริยสาวิกาภิกษุสังฆมหาเจดีย์","name_en":"","kind":"chedi","building_type":"temple","height":40,"base_height":0,"source":"heritage height override"}},{"type":"Feature","geometry":{"type":"Polygon","coordinates":[[[100.4931143,13.7514514],[100.4931353,13.751478],[100.4931691,13.7514824],[100.4931954,13.7514632],[100.493201,13.7514266],[100.4931789,13.7513991],[100.493146,13.7513955],[100.4931202,13.751414],[100.4931143,13.7514514]]]},"properties":{"id":"bkk-building-23482995","name":"พระปัจเจกโพธิสัมพุทธมหาเจดีย์","name_en":"","kind":"chedi","building_type":"temple","height":40,"base_height":0,"source":"heritage height override"}},{"type":"Feature","geometry":{"type":"Polygon","coordinates":[[[100.4931395,13.7512904],[100.493161,13.7513165],[100.4931949,13.7513201],[100.4932209,13.7513003],[100.4932254,13.7512635],[100.4932027,13.7512366],[100.4931697,13.7512337],[100.4931444,13.7512529],[100.4931395,13.7512904]]]},"properties":{"id":"bkk-building-23482996","name":"พระบรมจักรวรรดิราชามหาเจดีย์","name_en":"","kind":"chedi","building_type":"temple","height":40,"base_height":0,"source":"heritage height override"}},{"type":"Feature","geometry":{"type":"Polygon","coordinates":[[[100.4931698,13.7511633],[100.4931911,13.7511895],[100.4932249,13.7511935],[100.493251,13.7511739],[100.493256,13.7511372],[100.4932334,13.7511101],[100.4932004,13.7511069],[100.493175,13.7511259],[100.4931698,13.7511633]]]},"properties":{"id":"bkk-building-23482997","name":"พระโพธิสัตว์กฤษฎามหาเจดีย์","name_en":"","kind":"chedi","building_type":"temple","height":40,"base_height":0,"source":"heritage height override"}},{"type":"Feature","geometry":{"type":"Polygon","coordinates":[[[100.4931954,13.7509947],[100.4932155,13.7510219],[100.4932491,13.7510272],[100.4932761,13.7510087],[100.4932827,13.7509722],[100.4932614,13.7509442],[100.4932286,13.7509397],[100.4932023,13.7509575],[100.4931954,13.7509947]]]},"properties":{"id":"bkk-building-23482998","name":"พระศรีอริยเมตตะมหาเจดีย์","name_en":"","kind":"chedi","building_type":"temple","height":40,"base_height":0,"source":"heritage height override"}},{"type":"Feature","geometry":{"type":"Polygon","coordinates":[[[100.4930276,13.7466183],[100.4934592,13.7467423],[100.4935419,13.7464709],[100.4931103,13.7463468],[100.4930276,13.7466183]]]},"properties":{"id":"bkk-building-23630098","name":"พระอุโบสถ","name_en":"","kind":"ubosot","building_type":"temple","height":20,"base_height":0,"source":"heritage height override"}},{"type":"Feature","geometry":{"type":"Polygon","coordinates":[[[100.4941005,13.74641],[100.4941799,13.7461183],[100.4939035,13.7460472],[100.4938819,13.7461267],[100.4940862,13.7461792],[100.4940284,13.7463915],[100.4941005,13.74641]]]},"properties":{"id":"bkk-building-23630109","name":"พระวิหารคด","name_en":"","kind":"viharn","building_type":"temple","height":16,"base_height":0,"source":"heritage height override"}},{"type":"Feature","geometry":{"type":"Polygon","coordinates":[[[100.493028,13.7457382],[100.4927468,13.7456514],[100.4926627,13.7459083],[100.4927369,13.7459312],[100.4927965,13.7457489],[100.4930035,13.7458128],[100.493016,13.7457746],[100.493028,13.7457382]]]},"properties":{"id":"bkk-building-23630110","name":"พระวิหารคด","name_en":"","kind":"viharn","building_type":"temple","height":16,"base_height":0,"source":"heritage height override"}},{"type":"Feature","geometry":{"type":"Polygon","coordinates":[[[100.4924181,13.7466515],[100.4923141,13.7469274],[100.492571,13.7470188],[100.4925979,13.7469474],[100.4924141,13.746882],[100.4924912,13.7466775],[100.4924181,13.7466515]]]},"properties":{"id":"bkk-building-23630113","name":"พระวิหารคด","name_en":"","kind":"viharn","building_type":"temple","height":16,"base_height":0,"source":"heritage height override"}},{"type":"Feature","geometry":{"type":"Polygon","coordinates":[[[100.4913681,13.7465137],[100.4913956,13.7464469],[100.4914645,13.7462798],[100.4920155,13.7464943],[100.4920015,13.7465282],[100.4919372,13.7466843],[100.4919191,13.746728],[100.4913681,13.7465137]]]},"properties":{"id":"bkk-building-23630142","name":"พระวิหารพระพุทธไสยาส","name_en":"","kind":"heritage","building_type":"temple","height":24,"base_height":0,"source":"heritage height override"}},{"type":"Feature","geometry":{"type":"Polygon","coordinates":[[[100.4955479,13.7601995],[100.4953052,13.7604934],[100.4955165,13.760658],[100.4957592,13.7603642],[100.4955479,13.7601995]]]},"properties":{"id":"bkk-building-82072863","name":"พระอุโบสถ","name_en":"","kind":"ubosot","building_type":"temple","height":20,"base_height":0,"source":"heritage height override"}},{"type":"Feature","geometry":{"type":"Polygon","coordinates":[[[100.4919388,13.7500348],[100.4918557,13.7500338],[100.4918527,13.7502621],[100.4919072,13.7502628],[100.4921226,13.7502655],[100.4921848,13.7502663],[100.4921879,13.750038],[100.4921038,13.7500369],[100.4919388,13.7500348]]]},"properties":{"id":"bkk-building-82538505","name":"พระที่นั่งไพศาลทักษิณ","name_en":"","kind":"throne","building_type":"temple","height":20,"base_height":0,"source":"heritage height override"}},{"type":"Feature","geometry":{"type":"Polygon","coordinates":[[[100.4904837,13.7499851],[100.4904666,13.7500988],[100.4903531,13.7500837],[100.4903383,13.750189],[100.4904554,13.7502045],[100.4904387,13.7503235],[100.4905256,13.750335],[100.4905417,13.7502206],[100.4906696,13.7502376],[100.4906848,13.750129],[100.4905623,13.7501128],[100.4905772,13.7499974],[100.4904837,13.7499851]]]},"properties":{"id":"bkk-building-82541999","name":"พระที่นั่งดุสิตมหาปราสาท","name_en":"","kind":"heritage","building_type":"temple","height":30,"base_height":0,"source":"heritage height override"}},{"type":"Feature","geometry":{"type":"Polygon","coordinates":[[[100.4927082,13.750306],[100.4927014,13.7503732],[100.492641,13.7503674],[100.4926378,13.7503986],[100.4925907,13.7503941],[100.4925876,13.7504246],[100.4926254,13.7504282],[100.4926214,13.7504681],[100.4926825,13.7504739],[100.4926805,13.7504932],[100.4926776,13.7505217],[100.4928012,13.7505335],[100.4928592,13.750539],[100.4928658,13.7505614],[100.4928864,13.7505745],[100.4929729,13.7505836],[100.4929715,13.7505955],[100.4929621,13.750681],[100.4930656,13.7506918],[100.4930757,13.7506011],[100.4930786,13.7505748],[100.4931079,13.7505779],[100.4931061,13.7505943],[100.4932155,13.7506058],[100.4932203,13.7505629],[100.4932221,13.750547],[100.4932717,13.7505522],[100.4932822,13.7504573],[100.4933387,13.7504632],[100.4933496,13.7503648],[100.4933145,13.7503611],[100.4933374,13.7501552],[100.493155,13.7501361],[100.4931359,13.750308],[100.4931266,13.7503922],[100.4929679,13.7503756],[100.4929571,13.7503629],[100.4929383,13.7503554],[100.4927869,13.7503409],[100.4927896,13.7503138],[100.4927082,13.750306]]]},"properties":{"id":"bkk-building-82543520","name":"พระที่นั่งบรมพิมาน","name_en":"","kind":"throne","building_type":"temple","height":20,"base_height":0,"source":"heritage height override"}},{"type":"Feature","geometry":{"type":"Polygon","coordinates":[[[100.4930519,13.7491036],[100.493216,13.7491153],[100.4932144,13.7491368],[100.4932924,13.7491423],[100.493294,13.7491204],[100.4934676,13.7491327],[100.4934763,13.7490164],[100.4933053,13.7490043],[100.4933065,13.748989],[100.4932255,13.7489833],[100.4932242,13.7489997],[100.4930606,13.7489881],[100.4930519,13.7491036]]]},"properties":{"id":"bkk-building-82546665","name":"พระที่นั่งศิวาลัยมหาปราสาท","name_en":"","kind":"prasat","building_type":"temple","height":28,"base_height":0,"source":"heritage height override"}},{"type":"Feature","geometry":{"type":"Polygon","coordinates":[[[100.4936976,13.7496149],[100.4937982,13.7496303],[100.4938796,13.7491288],[100.493779,13.7491134],[100.4936976,13.7496149]]]},"properties":{"id":"bkk-building-82546666","name":"พระที่นั่งสุทไธสวรรยปราสาท","name_en":"","kind":"prasat","building_type":"temple","height":28,"base_height":0,"source":"heritage height override"}},{"type":"Feature","geometry":{"type":"Polygon","coordinates":[[[100.4919729,13.7577225],[100.4924125,13.757533],[100.4923106,13.7573102],[100.4918711,13.7574998],[100.4919729,13.7577225]]]},"properties":{"id":"bkk-building-83608613","name":"พระที่นั่งศิวโมกขพิมาน","name_en":"","kind":"throne","building_type":"temple","height":20,"base_height":0,"source":"heritage height override"}},{"type":"Feature","geometry":{"type":"Polygon","coordinates":[[[100.496658,13.7496338],[100.4967834,13.7496287],[100.496779,13.7495261],[100.4966536,13.7495312],[100.496658,13.7496338]]]},"properties":{"id":"bkk-building-88234762","name":"วิหารน้อย","name_en":"","kind":"viharn","building_type":"temple","height":16,"base_height":0,"source":"heritage height override"}},{"type":"Feature","geometry":{"type":"Polygon","coordinates":[[[100.5011402,13.7509305],[100.501128,13.7508337],[100.5009506,13.7508546],[100.5009631,13.7509539],[100.5009077,13.7509604],[100.5009352,13.75118],[100.5009879,13.7511738],[100.5010011,13.7512795],[100.5011785,13.7512586],[100.501165,13.7511502],[100.5012265,13.751143],[100.501199,13.7509236],[100.5011402,13.7509305]]]},"properties":{"id":"bkk-building-88335184","name":"วิหารหลวง","name_en":"","kind":"viharn","building_type":"temple","height":22,"base_height":0,"source":"heritage height override"}},{"type":"Feature","geometry":{"type":"Polygon","coordinates":[[[100.5006433,13.7504315],[100.5013208,13.7503637],[100.5012992,13.7501599],[100.5006216,13.7502277],[100.5006433,13.7504315]]]},"properties":{"id":"bkk-building-88335204","name":"พระอุโบสถ","name_en":"","kind":"ubosot","building_type":"temple","height":20,"base_height":0,"source":"heritage height override"}},{"type":"Feature","geometry":{"type":"Polygon","coordinates":[[[100.5065769,13.7539422],[100.5066044,13.7539452],[100.5066694,13.7539523],[100.5067596,13.7539622],[100.5067871,13.7539652],[100.50679,13.7539401],[100.5068083,13.7537827],[100.5068112,13.7537572],[100.5067864,13.7537545],[100.5067036,13.7537455],[100.5066261,13.753737],[100.506601,13.7537343],[100.5065979,13.7537609],[100.50658,13.7539157],[100.5065769,13.7539422]]]},"properties":{"id":"bkk-building-88359228","name":"วัดสระเกศราชวรมหาวิหาร","name_en":"","kind":"viharn","building_type":"temple","height":16,"base_height":0,"source":"heritage height override"}},{"type":"Feature","geometry":{"type":"Polygon","coordinates":[[[100.5039863,13.754712],[100.5040811,13.7550544],[100.5044286,13.7549636],[100.5043338,13.7546212],[100.5039863,13.754712]]]},"properties":{"id":"bkk-building-103097698","name":"โลหะปราสาท","name_en":"","kind":"heritage","building_type":"temple","height":33,"base_height":0,"source":"heritage height override"}},{"type":"Feature","geometry":{"type":"Polygon","coordinates":[[[100.5040543,13.7531543],[100.5040268,13.7530332],[100.5042328,13.752989],[100.5042603,13.7531101],[100.5040543,13.7531543]]]},"properties":{"id":"bkk-building-134011638","name":"วิหาร","name_en":"","kind":"viharn","building_type":"temple","height":16,"base_height":0,"source":"heritage height override"}},{"type":"Feature","geometry":{"type":"Polygon","coordinates":[[[100.4922437,13.7579381],[100.4919121,13.7580897],[100.4918336,13.7579276],[100.4921652,13.757776],[100.4921763,13.757799],[100.4922316,13.7579132],[100.4922437,13.7579381]]]},"properties":{"id":"bkk-building-190739714","name":"พระที่นั่งพุทไธสวรรย์","name_en":"","kind":"throne","building_type":"temple","height":20,"base_height":0,"source":"heritage height override"}},{"type":"Feature","geometry":{"type":"Polygon","coordinates":[[[100.4919043,13.7504806],[100.4919072,13.7502628],[100.4921226,13.7502655],[100.4921197,13.7504861],[100.4920913,13.7504857],[100.4920906,13.7505377],[100.4919336,13.7505357],[100.4919344,13.750481],[100.4919043,13.7504806]]]},"properties":{"id":"bkk-building-205631558","name":"พระที่นั่งอมรินทรวินิจฉัย","name_en":"","kind":"throne","building_type":"temple","height":20,"base_height":0,"source":"heritage height override"}},{"type":"Feature","geometry":{"type":"Polygon","coordinates":[[[100.4928899,13.7515282],[100.4929094,13.7515558],[100.492943,13.7515617],[100.4929703,13.7515437],[100.4929775,13.7515073],[100.4929568,13.751479],[100.4929241,13.7514738],[100.4928976,13.7514912],[100.4928899,13.7515282]]]},"properties":{"id":"bkk-building-229771456","name":"พระสุวรรณเจดีย์","name_en":"","kind":"chedi","building_type":"temple","height":40,"base_height":0,"source":"heritage height override"}},{"type":"Feature","geometry":{"type":"Polygon","coordinates":[[[100.4928613,13.7518241],[100.4928808,13.7518517],[100.4929144,13.7518576],[100.4929417,13.7518396],[100.4929489,13.7518032],[100.4929282,13.7517749],[100.4928955,13.7517697],[100.492869,13.7517871],[100.4928613,13.7518241]]]},"properties":{"id":"bkk-building-229771457","name":"พระสุวรรณเจดีย์","name_en":"","kind":"chedi","building_type":"temple","height":40,"base_height":0,"source":"heritage height override"}},{"type":"Feature","geometry":{"type":"Polygon","coordinates":[[[100.4919517,13.7497276],[100.4918286,13.7497261],[100.491826,13.7499214],[100.4919402,13.7499229],[100.4921053,13.749925],[100.4922135,13.7499263],[100.4922161,13.7497277],[100.4920892,13.7497261],[100.4919517,13.7497276]]]},"properties":{"id":"bkk-building-229772447","name":"พระที่นั่งจักรพรรดิพิมาน","name_en":"","kind":"throne","building_type":"temple","height":20,"base_height":0,"source":"heritage height override"}},{"type":"Feature","geometry":{"type":"Polygon","coordinates":[[[100.4922622,13.750358],[100.4922661,13.7502481],[100.4922028,13.750246],[100.4921989,13.7503559],[100.4922622,13.750358]]]},"properties":{"id":"bkk-building-229783073","name":"พระที่นั่งราชฤดี","name_en":"","kind":"throne","building_type":"temple","height":20,"base_height":0,"source":"heritage height override"}},{"type":"Feature","geometry":{"type":"Polygon","coordinates":[[[100.4927731,13.7501397],[100.4928152,13.7501441],[100.4928396,13.7501466],[100.492846,13.7500883],[100.4927795,13.7500814],[100.4927731,13.7501397]]]},"properties":{"id":"bkk-building-229783075","name":"พระที่นั่งสีตลาภิรมย์","name_en":"","kind":"throne","building_type":"temple","height":20,"base_height":0,"source":"heritage height override"}},{"type":"Feature","geometry":{"type":"Polygon","coordinates":[[[100.490794,13.7500877],[100.4908096,13.749965],[100.4908111,13.7499528],[100.4907196,13.7499418],[100.4907165,13.7499661],[100.4907025,13.7500768],[100.4907674,13.7500845],[100.490794,13.7500877]]]},"properties":{"id":"bkk-building-229783076","name":"พระที่นั่งราชกรัณยสภา","name_en":"","kind":"throne","building_type":"temple","height":20,"base_height":0,"source":"heritage height override"}},{"type":"Feature","geometry":{"type":"Polygon","coordinates":[[[100.4924101,13.7498603],[100.4924119,13.7497134],[100.4923486,13.7497127],[100.4923469,13.7498596],[100.4924101,13.7498603]]]},"properties":{"id":"bkk-building-229783092","name":"พระที่นั่งมหิศรปราสาท","name_en":"","kind":"prasat","building_type":"temple","height":28,"base_height":0,"source":"heritage height override"}},{"type":"Feature","geometry":{"type":"Polygon","coordinates":[[[100.491822,13.7505202],[100.491827,13.7504247],[100.4917625,13.7504216],[100.4917575,13.750517],[100.491822,13.7505202]]]},"properties":{"id":"bkk-building-229783116","name":"พระที่นั่งดุสิตาภิรมย์","name_en":"","kind":"throne","building_type":"temple","height":20,"base_height":0,"source":"heritage height override"}},{"type":"Feature","geometry":{"type":"Polygon","coordinates":[[[100.4907559,13.7503601],[100.4907736,13.7502265],[100.4907512,13.7502237],[100.490705,13.750218],[100.4906874,13.7503516],[100.4906986,13.750353],[100.4907206,13.7503557],[100.4907559,13.7503601]]]},"properties":{"id":"bkk-building-229783128","name":"พระที่นั่งอาภรณ์พิโมกข์ปราสาท","name_en":"","kind":"prasat","building_type":"temple","height":28,"base_height":0,"source":"heritage height override"}},{"type":"Feature","geometry":{"type":"Polygon","coordinates":[[[100.4934801,13.7513126],[100.4935229,13.7513192],[100.4935354,13.7512431],[100.4934925,13.7512365],[100.4934801,13.7513126]]]},"properties":{"id":"bkk-building-229891961","name":"พระที่นั่งไชยชุมพล","name_en":"","kind":"throne","building_type":"temple","height":20,"base_height":0,"source":"heritage height override"}},{"type":"Feature","geometry":{"type":"Polygon","coordinates":[[[100.4915596,13.7499327],[100.4916842,13.7499399],[100.4916926,13.7498036],[100.4913776,13.7497853],[100.4913692,13.7499216],[100.4915267,13.7499308],[100.4915596,13.7499327]]]},"properties":{"id":"bkk-building-229891966","name":"พระที่นั่งมูลสถานบรมอาสน์","name_en":"","kind":"throne","building_type":"temple","height":20,"base_height":0,"source":"heritage height override"}},{"type":"Feature","geometry":{"type":"Polygon","coordinates":[[[100.4905772,13.7499974],[100.4905852,13.7499467],[100.4905889,13.7499229],[100.4905934,13.7498939],[100.4906358,13.7499001],[100.4906891,13.7495582],[100.4905041,13.749531],[100.4904517,13.7498669],[100.490501,13.7498741],[100.4904958,13.7499077],[100.4904919,13.7499323],[100.4904837,13.7499851],[100.4905772,13.7499974]]]},"properties":{"id":"bkk-building-229891967","name":"พระที่นั่งพิมานรัตยา","name_en":"","kind":"throne","building_type":"temple","height":20,"base_height":0,"source":"heritage height override"}},{"type":"Feature","geometry":{"type":"Polygon","coordinates":[[[100.4918073,13.7502769],[100.4918384,13.7502773],[100.4918389,13.750237],[100.4918078,13.7502367],[100.4918073,13.7502769]]]},"properties":{"id":"bkk-building-229891968","name":"พระที่นั่งสนามจันทร์","name_en":"","kind":"throne","building_type":"temple","height":20,"base_height":0,"source":"heritage height override"}},{"type":"Feature","geometry":{"type":"Polygon","coordinates":[[[100.4909909,13.7498991],[100.49103,13.7499014],[100.4911982,13.7499111],[100.4912066,13.7497754],[100.4908849,13.7497567],[100.4908766,13.7498925],[100.4909909,13.7498991]]]},"properties":{"id":"bkk-building-229891969","name":"พระที่นั่งสมมติเทวราชอุปบัติ","name_en":"","kind":"throne","building_type":"temple","height":20,"base_height":0,"source":"heritage height override"}},{"type":"Feature","geometry":{"type":"Polygon","coordinates":[[[100.4916672,13.7587389],[100.491817,13.7586707],[100.4917042,13.7584369],[100.4915545,13.758505],[100.4916672,13.7587389]]]},"properties":{"id":"bkk-building-234366110","name":"พระที่นั่งอิศเรศราชนุสรณ์","name_en":"","kind":"throne","building_type":"temple","height":20,"base_height":0,"source":"heritage height override"}},{"type":"Feature","geometry":{"type":"Polygon","coordinates":[[[100.5148421,13.7472572],[100.5152158,13.7472015],[100.5151802,13.7469761],[100.5148064,13.7470319],[100.5148421,13.7472572]]]},"properties":{"id":"bkk-building-628951388","name":"พระอุโบสถ วัดเทพศิรินทร์","name_en":"","kind":"ubosot","building_type":"temple","height":20,"base_height":0,"source":"heritage height override"}},{"type":"Feature","geometry":{"type":"Polygon","coordinates":[[[100.4921459,13.7516945],[100.492147,13.7516652],[100.4921783,13.7516663],[100.4921772,13.7516956],[100.4921459,13.7516945]]]},"properties":{"id":"bkk-building-782453387","name":"พระเจดีย์ทรงเครื่อง","name_en":"","kind":"chedi","building_type":"temple","height":40,"base_height":0,"source":"heritage height override"}},{"type":"Feature","geometry":{"type":"Polygon","coordinates":[[[100.4921991,13.7517439],[100.4922002,13.7517145],[100.4922314,13.7517156],[100.4922303,13.751745],[100.4921991,13.7517439]]]},"properties":{"id":"bkk-building-782453388","name":"พระเจดีย์ทรงเครื่อง","name_en":"","kind":"chedi","building_type":"temple","height":40,"base_height":0,"source":"heritage height override"}},{"type":"Feature","geometry":{"type":"Polygon","coordinates":[[[100.4921538,13.7515603],[100.4921549,13.7515309],[100.4921862,13.751532],[100.4921851,13.7515614],[100.4921538,13.7515603]]]},"properties":{"id":"bkk-building-782453389","name":"พระเจดีย์ทรงเครื่อง","name_en":"","kind":"chedi","building_type":"temple","height":40,"base_height":0,"source":"heritage height override"}},{"type":"Feature","geometry":{"type":"Polygon","coordinates":[[[100.4922118,13.7515094],[100.4922129,13.7514801],[100.4922441,13.7514812],[100.492243,13.7515105],[100.4922118,13.7515094]]]},"properties":{"id":"bkk-building-782453390","name":"พระเจดีย์ทรงเครื่อง","name_en":"","kind":"chedi","building_type":"temple","height":40,"base_height":0,"source":"heritage height override"}},{"type":"Feature","geometry":{"type":"Polygon","coordinates":[[[100.4938922,13.7462535],[100.4938997,13.7462112],[100.4939422,13.7462183],[100.4939433,13.7462122],[100.4939478,13.7462129],[100.4939552,13.7461714],[100.4940014,13.7461791],[100.493994,13.7462206],[100.4939995,13.7462216],[100.4939985,13.7462272],[100.4940395,13.746234],[100.4940322,13.746275],[100.4939896,13.7462678],[100.4939887,13.746273],[100.493983,13.7462721],[100.4939756,13.7463133],[100.4939316,13.7463059],[100.4939385,13.7462669],[100.4939329,13.746266],[100.4939339,13.7462605],[100.4938922,13.7462535]]]},"properties":{"id":"bkk-building-783479469","name":"พระเจดีย์หมู่ห้าฐานเดียว","name_en":"","kind":"chedi","building_type":"temple","height":40,"base_height":0,"source":"heritage height override"}},{"type":"Feature","geometry":{"type":"Polygon","coordinates":[[[100.4927985,13.7458782],[100.4928125,13.7458374],[100.4928534,13.7458507],[100.4928554,13.7458448],[100.4928598,13.7458462],[100.4928735,13.7458062],[100.492918,13.7458206],[100.4929043,13.7458606],[100.4929095,13.7458622],[100.4929077,13.7458676],[100.4929472,13.7458804],[100.4929337,13.7459198],[100.4928926,13.7459066],[100.4928909,13.7459116],[100.4928854,13.7459098],[100.4928718,13.7459495],[100.4928294,13.7459357],[100.4928422,13.7458982],[100.4928369,13.7458965],[100.4928387,13.7458912],[100.4927985,13.7458782]]]},"properties":{"id":"bkk-building-783479475","name":"พระเจดีย์หมู่ห้าฐานเดียว","name_en":"","kind":"chedi","building_type":"temple","height":40,"base_height":0,"source":"heritage height override"}},{"type":"Feature","geometry":{"type":"Polygon","coordinates":[[[100.4924851,13.746814],[100.4924973,13.7467727],[100.4925387,13.7467842],[100.4925405,13.7467782],[100.4925449,13.7467795],[100.4925568,13.7467389],[100.4926019,13.7467515],[100.49259,13.746792],[100.4925953,13.7467934],[100.4925937,13.7467989],[100.4926337,13.74681],[100.4926219,13.74685],[100.4925803,13.7468384],[100.4925788,13.7468435],[100.4925733,13.746842],[100.4925614,13.7468821],[100.4925184,13.7468702],[100.4925296,13.7468322],[100.4925242,13.7468306],[100.4925258,13.7468253],[100.4924851,13.746814]]]},"properties":{"id":"bkk-building-783479481","name":"พระเจดีย์หมู่ห้าฐานเดียว","name_en":"","kind":"chedi","building_type":"temple","height":40,"base_height":0,"source":"heritage height override"}},{"type":"Feature","geometry":{"type":"Polygon","coordinates":[[[100.4930643,13.7470691],[100.4930871,13.7469924],[100.4930965,13.7469609],[100.4931213,13.7468776],[100.493143,13.7468049],[100.4931538,13.7467685],[100.4932064,13.7467833],[100.4932599,13.7467984],[100.4932498,13.7468324],[100.4932287,13.7469033],[100.4932017,13.746994],[100.4931932,13.7470224],[100.4931704,13.747099],[100.4931105,13.7470821],[100.4930643,13.7470691]]]},"properties":{"id":"bkk-building-783479489","name":"วิหารเหนือ (พระปาลิไลย)","name_en":"","kind":"viharn","building_type":"temple","height":16,"base_height":0,"source":"heritage height override"}},{"type":"Feature","geometry":{"type":"Polygon","coordinates":[[[100.4933039,13.7463],[100.4933176,13.746254],[100.4933386,13.7461835],[100.4933688,13.7460822],[100.4933783,13.7460504],[100.4933935,13.7459994],[100.4934996,13.7460292],[100.4934824,13.7460871],[100.493474,13.7461153],[100.4934459,13.7462095],[100.4934244,13.7462817],[100.4934101,13.7463298],[100.4933559,13.7463146],[100.4933039,13.7463]]]},"properties":{"id":"bkk-building-783479490","name":"พระวิหารใต้ (พระปัญจวัคคีย์)","name_en":"","kind":"viharn","building_type":"temple","height":16,"base_height":0,"source":"heritage height override"}},{"type":"Feature","geometry":{"type":"Polygon","coordinates":[[[100.4926623,13.7463157],[100.4927183,13.7463314],[100.4927522,13.7463409],[100.4928461,13.7463673],[100.4929325,13.7463916],[100.4929718,13.7464027],[100.4929411,13.7465057],[100.4929031,13.7464921],[100.4928135,13.7464657],[100.4927227,13.7464423],[100.4926889,13.7464336],[100.4926316,13.7464188],[100.4926623,13.7463157]]]},"properties":{"id":"bkk-building-783479491","name":"พระวิหารตะวันตก (พระนาคปรก)","name_en":"","kind":"viharn","building_type":"temple","height":16,"base_height":0,"source":"heritage height override"}},{"type":"Feature","geometry":{"type":"Polygon","coordinates":[[[100.492292,13.7464676],[100.49227,13.7464217],[100.4922926,13.7463566],[100.4923398,13.7463357],[100.4924071,13.7463587],[100.4924291,13.7464013],[100.4924065,13.7464664],[100.4923592,13.7464907],[100.492292,13.7464676]]]},"properties":{"id":"bkk-building-783589706","name":"พระมหาเจดีย์ดิลกธรรมกรกนิทาน","name_en":"","kind":"chedi","building_type":"temple","height":40,"base_height":0,"source":"heritage height override"}},{"type":"Feature","geometry":{"type":"Polygon","coordinates":[[[100.492164,13.7462361],[100.492142,13.7461902],[100.4921646,13.7461251],[100.4922119,13.7461041],[100.4922402,13.7461138],[100.4922792,13.7461272],[100.4923012,13.7461698],[100.4922786,13.7462349],[100.4922313,13.7462591],[100.492164,13.7462361]]]},"properties":{"id":"bkk-building-783589707","name":"พระมหาเจดีย์ทรงพระศรีสุริโยทัย","name_en":"","kind":"chedi","building_type":"temple","height":40,"base_height":0,"source":"heritage height override"}},{"type":"Feature","geometry":{"type":"Polygon","coordinates":[[[100.492353,13.7462916],[100.492331,13.7462456],[100.4923536,13.7461805],[100.4924009,13.7461596],[100.4924682,13.7461826],[100.4924902,13.7462252],[100.4924676,13.7462903],[100.4924202,13.7463146],[100.492353,13.7462916]]]},"properties":{"id":"bkk-building-783589708","name":"พระมหาเจดีย์ศรีสรรเพชดาญาณ","name_en":"","kind":"chedi","building_type":"temple","height":40,"base_height":0,"source":"heritage height override"}},{"type":"Feature","geometry":{"type":"Polygon","coordinates":[[[100.4924187,13.7461141],[100.4923968,13.7460682],[100.4924194,13.7460031],[100.4924666,13.7459822],[100.4925339,13.7460052],[100.4925559,13.7460478],[100.4925333,13.7461129],[100.492486,13.7461371],[100.4924187,13.7461141]]]},"properties":{"id":"bkk-building-783589709","name":"พระมหาเจดีย์มุนีบัตบริขาร","name_en":"","kind":"chedi","building_type":"temple","height":40,"base_height":0,"source":"heritage height override"}},{"type":"Feature","geometry":{"type":"Polygon","coordinates":[[[100.4919232,13.7461258],[100.4919013,13.7460799],[100.4919238,13.7460148],[100.4919711,13.7459939],[100.4920384,13.7460169],[100.4920604,13.7460595],[100.4920378,13.7461246],[100.4919905,13.7461489],[100.4919232,13.7461258]]]},"properties":{"id":"bkk-building-783589714","name":"พระมณฑป (หอไตรจตุรมุข)","name_en":"","kind":"mondop","building_type":"temple","height":26,"base_height":0,"source":"heritage height override"}},{"type":"Feature","geometry":{"type":"Polygon","coordinates":[[[100.495862,13.755379],[100.4958821,13.75527],[100.4961293,13.755313],[100.4961092,13.755422],[100.495862,13.755379]]]},"properties":{"id":"bkk-building-784289878","name":"พระอุโบสถ","name_en":"","kind":"ubosot","building_type":"temple","height":20,"base_height":0,"source":"heritage height override"}},{"type":"Feature","geometry":{"type":"Polygon","coordinates":[[[100.4919075,13.7582091],[100.4919699,13.7581795],[100.4919472,13.7581346],[100.4918849,13.7581642],[100.4919075,13.7582091]]]},"properties":{"id":"bkk-building-1157161864","name":"พระที่นั่งมังคลาภิเษก","name_en":"","kind":"throne","building_type":"temple","height":20,"base_height":0,"source":"heritage height override"}},{"type":"Feature","geometry":{"type":"Polygon","coordinates":[[[100.5042529,13.7528939],[100.5042388,13.7528392],[100.5043312,13.7528168],[100.5043453,13.7528714],[100.5042529,13.7528939]]]},"properties":{"id":"bkk-building-1466799343","name":"วิหารน้อย","name_en":"","kind":"viharn","building_type":"temple","height":16,"base_height":0,"source":"heritage height override"}}]}