{"type":"FeatureCollection","name":"rattanakosin-gates","version":"2026-08-25.2","scale_blocks_per_meter":1.0,"expected_count":9,"found_count":9,"osm_hits":0,"operator_hits":9,"gates":{"Pratu Phi":{"name_en":"Pratu Phi","name_th":"?","description":"Ghost Gate, north wall, west of Sanam Luang. Now commemorated by the Wu Yentafo restaurant across the street.","lon":100.4965,"lat":13.761,"mcx":1901,"mcz":563,"source":"1926 Ratcha-anusorn plan + Wikipedia 'Pratu Phi'","source_url":"https://en.wikipedia.org/wiki/Pratu_Phi"},"Pratu Suan Mali":{"name_en":"Pratu Suan Mali","name_th":"?","description":"Jasmine Garden Gate, east wall, near Suan Amphorn.","lon":100.5049,"lat":13.756,"mcx":2808,"mcz":1119,"source":"1926 Ratcha-anusorn plan + BMA city map","source_url":"https://www.bangkok.go.th/"},"Pratu Tha Phra":{"name_en":"Pratu Tha Phra","name_th":"?","description":"Monk's Landing Gate, west wall, near Tha Tien pier.","lon":100.4905,"lat":13.751,"mcx":1253,"mcz":1675,"source":"1926 Ratcha-anusorn plan + Wikipedia 'Tha Chang, Bangkok'","source_url":"https://en.wikipedia.org/wiki/Tha_Chang,_Bangkok"},"Pratu Chakkrawat":{"name_en":"Pratu Chakkrawat","name_th":"?","description":"Emperor's Gate, west wall, near Tha Chang.","lon":100.493,"lat":13.754,"mcx":1523,"mcz":1341,"source":"1926 Ratcha-anusorn plan + Wikipedia 'Odeon Circle'","source_url":"https://en.wikipedia.org/wiki/Odeon_Circle"},"Pratu Thep Ratcha":{"name_en":"Pratu Thep Ratcha","name_th":"?","description":"north wall, near Wat Bowonniwet (named for the Thep Ratcha quarter).","lon":100.499,"lat":13.761,"mcx":2171,"mcz":563,"source":"1926 Ratcha-anusorn plan","source_url":"https://www.bangkok.go.th/"},"Pratu Ratcha Dindam":{"name_en":"Pratu Ratcha Dindam","name_th":"?","description":"south wall, on Ratchadamnoen Klang. The street name comes from this gate.","lon":100.498,"lat":13.752,"mcx":2063,"mcz":1563,"source":"1926 Ratcha-anusorn plan + Wikipedia 'Ratchadamnoen Avenue'","source_url":"https://en.wikipedia.org/wiki/Ratchadamnoen_Avenue"},"Pratu Suan Phu":{"name_en":"Pratu Suan Phu","name_th":"?","description":"Banana Garden Gate, east wall, near Pom Mahakan.","lon":100.506,"lat":13.753,"mcx":2927,"mcz":1452,"source":"1926 Ratcha-anusorn plan + BMA city map","source_url":"https://www.bangkok.go.th/"},"Pratu Damrong Sawan":{"name_en":"Pratu Damrong Sawan","name_th":"?","description":"east wall, near Suan Amphorn.","lon":100.5055,"lat":13.7555,"mcx":2873,"mcz":1174,"source":"1926 Ratcha-anusorn plan + BMA city map","source_url":"https://www.bangkok.go.th/"},"Pratu Phutthai Sawan":{"name_en":"Pratu Phutthai Sawan","name_th":"?","description":"north wall, near the corner of Phra Sumen Fort.","lon":100.496,"lat":13.761,"mcx":1847,"mcz":563,"source":"1926 Ratcha-anusorn plan","source_url":"https://www.bangkok.go.th/"}},"missing":[],"sources":[{"label":"OpenStreetMap","url":"https://www.openstreetmap.org/copyright"},{"label":"Overpass API","url":"https://overpass-api.de/"},{"label":"1926 Ratcha-anusorn plan (operator override file)","url":"https://en.wikipedia.org/wiki/Rattanakosin"}]}
