{"type":"FeatureCollection","name":"rattanakosin-water","version":"2026-08-25.1","scale_blocks_per_meter":1.0,"moat":{"type":"FeatureCollection","name":"rattanakosin-moat","projection":"local-1.0","scale_blocks_per_meter":1.0,"fragment_count":10,"total_points":46,"fragments_clipped":0,"lines":[{"osm_name":"คลองรอบกรุง","points_block":[[2619,2366],[2565,2444],[2405,2690],[2375,2742],[2359,2773]],"point_count":5},{"osm_name":"คลองรอบกรุง","points_block":[[2894,1096],[2848,1006],[2782,877],[2745,806],[2727,783],[2701,762],[2550,660],[2459,599],[2289,486],[2248,458],[2126,377],[1998,294],[1894,218],[1841,174],[1694,60]],"point_count":15},{"osm_name":"คลองรอบกรุง","points_block":[[2725,2039],[2746,1946],[2754,1908],[2759,1887]],"point_count":4},{"osm_name":"คลองรอบกรุง","points_block":[[2725,2039],[2700,2143],[2660,2299],[2649,2321],[2619,2366]],"point_count":5},{"osm_name":"คลองรอบกรุง","points_block":[[2876,1364],[2928,1176]],"point_count":2},{"osm_name":"คลองรอบกรุง","points_block":[[2759,1887],[2765,1858],[2773,1825]],"point_count":3},{"osm_name":"คลองรอบกรุง","points_block":[[2773,1825],[2837,1547],[2876,1364]],"point_count":3},{"osm_name":"คลองรอบกรุง","points_block":[[2333,2834],[2316,2879],[2291,2959],[2265,3041]],"point_count":4},{"osm_name":"คลองรอบกรุง","points_block":[[2359,2773],[2333,2834]],"point_count":2},{"osm_name":"คลองรอบกรุง","points_block":[[2928,1176],[2926,1157],[2894,1096]],"point_count":3}]},"river":{"type":"FeatureCollection","name":"rattanakosin-river","projection":"local-1.0","scale_blocks_per_meter":1.0,"fragment_count":16,"total_points":58,"fragments_clipped":2,"lines":[{"osm_name":"แม่น้ำเจ้าพระยา","points_block":[[1694,60],[1692,63]],"point_count":2},{"osm_name":"แม่น้ำเจ้าพระยา","points_block":[[1607,2814],[1645,2840],[1713,2877],[1825,2917],[2026,2974]],"point_count":5},{"osm_name":"แม่น้ำเจ้าพระยา","points_block":[[1007,1999],[1058,2135],[1152,2291]],"point_count":3},{"osm_name":"แม่น้ำเจ้าพระยา","points_block":[[1321,458],[1316,462]],"point_count":2},{"osm_name":"แม่น้ำเจ้าพระยา","points_block":[[2026,2974],[2194,3021],[2265,3041],[2272,3042]],"point_count":4},{"osm_name":"แม่น้ำเจ้าพระยา","points_block":[[1188,2346],[1297,2502],[1405,2626],[1418,2641]],"point_count":4},{"osm_name":"แม่น้ำเจ้าพระยา","points_block":[[1178,2330],[1188,2346]],"point_count":2},{"osm_name":"แม่น้ำเจ้าพระยา","points_block":[[1152,2291],[1166,2312]],"point_count":2},{"osm_name":"แม่น้ำเจ้าพระยา","points_block":[[1166,2312],[1178,2330]],"point_count":2},{"osm_name":"แม่น้ำเจ้าพระยา","points_block":[[1131,654],[1110,684],[1041,819],[981,994],[956,1153],[938,1512],[946,1613],[971,1834],[1005,1994],[1007,1999]],"point_count":10},{"osm_name":"แม่น้ำเจ้าพระยา","points_block":[[1316,462],[1309,468],[1219,543],[1194,569],[1186,580]],"point_count":5},{"osm_name":"แม่น้ำเจ้าพระยา","points_block":[[2272,3042],[2556,3112],[2716,3160]],"point_count":3},{"osm_name":"แม่น้ำเจ้าพระยา","points_block":[[1186,580],[1150,628],[1131,654]],"point_count":3},{"osm_name":"แม่น้ำเจ้าพระยา","points_block":[[2716,3160]],"point_count":1},{"osm_name":"แม่น้ำเจ้าพระยา","points_block":[[1418,2641],[1447,2672],[1553,2769],[1594,2804],[1607,2814]],"point_count":5},{"osm_name":"แม่น้ำเจ้าพระยา","points_block":[[1692,63],[1624,140],[1444,347],[1387,399],[1321,458]],"point_count":5}]},"sources":[{"label":"OpenStreetMap","url":"https://www.openstreetmap.org/copyright"},{"label":"Overpass API","url":"https://overpass-api.de/"}],"caveat":"Moat and river are linear in OSM, not polygons. The world-build pipeline should buffer each line by the channel width from the heritage register (moat ≈ 12 m, Chao Phraya ≈ 400 m at this reach) before placing water blocks."}
