{"type":"FeatureCollection","name":"rattanakosin-forts","version":"2026-08-25.1","scale_blocks_per_meter":1.0,"expected_count":2,"found_count":2,"forts":{"Pom Mahakan":{"name_en":"Pom Mahakan","name_th":"ป้อมมหากาฬ","kind":"octagonal-fort","built":1783,"description":"Octagonal brick fort on the SE corner of the moat, by Rama I.","osm_id":103022352,"osm_type":"way","centroid_lon":100.5055176,"centroid_lat":13.755597,"centroid_mcx":2875,"centroid_mcz":1163,"vertex_count":11,"vertices_block":[[2856,1156],[2866,1144],[2879,1141],[2893,1150],[2894,1169],[2894,1169],[2883,1180],[2871,1181],[2870,1181],[2859,1174],[2856,1156]],"source":"OpenStreetMap","source_url":"https://www.openstreetmap.org/way/103022352"},"Pom Phra Sumen":{"name_en":"Pom Phra Sumen","name_th":"ป้อมพระสุเมรุ","kind":"hexagonal-fort","built":1783,"description":"Hexagonal brick fort on the NW corner of the moat, by Rama I.","osm_id":107936513,"osm_type":"way","centroid_lon":100.4957301,"centroid_lat":13.7639977,"centroid_mcx":1818,"centroid_mcz":230,"vertex_count":9,"vertices_block":[[1796,236],[1797,221],[1814,207],[1827,206],[1843,220],[1845,234],[1832,252],[1811,252],[1796,236]],"source":"OpenStreetMap","source_url":"https://www.openstreetmap.org/way/107936513"}},"missing":[],"sources":[{"label":"OpenStreetMap","url":"https://www.openstreetmap.org/copyright"},{"label":"Overpass API","url":"https://overpass-api.de/"}]}
